Column,pk,name,equipment,teaching,typeAccessibility,contentURL,locality,province,postalCode,neighborhood,district,coordX,coordY,phone,fax,email,titularity,laborDay,schedule,extraUses,otherUses,yardCategory,yardNumber,accessibilityComment,directAccess,otherAccess,wcAccessibles,shade,furniture,services,surface,conservationState,greenZonesProximity,facilitiesProximity,observations,bus,renfe,metro,address
0,176850,Colegio público adolfo suárez,"Comedor, horario ampliado, planes de mejora",Enseñanzas: segundo ciclo de e. infantil - primaria - educación secundaria obligatoria,0,Http://www.madrid.es/sites/v/index.jsp?vgnextchannel=bfa48ab43d6bb410vgnvcm100000171f5a0arcrd&vgnextoid=a9344b6faa61c010vgnvcm1000000b205a0arcrd,Madrid,Madrid,28050,Valdefuentes,Hortaleza,444807,4482402,917 502 058 / 676 562 792,917 502 058,Nan,Ayuntamiento,Lunes-viernes continua,9:00-16:00,Actividades extraescolares 16:00-18:00,"Actividades extraescolares, días no lectivos, campamentos urbanos, talleres fin de semana",Iii,3,Si,Si (c/ infanta catalina micaela),-,No,Si (150m²),"Porterías, canastas, bancos",Alumbrado,"3868,71 + 1384,25 + 4474,92",Mejorable (elementos deteriorados),Nan,Nan,Nan, 174,Nan,Nan,Calle infanta catalina micaela 31
1,4693138,Colegio público agustín rodriguez sahagún,"Horario ampliado, comedor, planes de mejora",Enseñanza: educacion infantil - primaria - enseñanza biling&amp;uuml;e,0,Http://www.madrid.es/sites/v/index.jsp?vgnextchannel=bfa48ab43d6bb410vgnvcm100000171f5a0arcrd&vgnextoid=706c615f4eb66110vgnvcm1000000b205a0arcrd,Madrid,Madrid,28031,Casco H.Vallecas,Villa De Vallecas,447178,4468793,913 324 348,914 941 475,Nan,Ayuntamiento,Lunes-viernes continua,9:00-16:00,Actividades extraescolares 16:00-20:00,-,Ii,2,Si,Si (c/ granja de san ildefonso),Av. villa de vallecas (directo a canchas),Si (en gimnasio),"Porches, arbolado","Porterías, canastas, columpios, bancos, ping pong, rocódromo, huerto.","Alumbrado, fuente","5748,56",Bueno,"Parque mundaire (450m), parque de las cataratas (550m), parque mundaire (650m)","Orichas stadium (300m), instalación deportiva miguel guillen (900m)",Nan, 142,Nan,Nan,Calle la granja de san ildefonso 17
2,5075,Colegio público agustina díez,"Comedor, horario ampliado",Enseñanza: educación infantil - primaria,0,Http://www.madrid.es/sites/v/index.jsp?vgnextchannel=bfa48ab43d6bb410vgnvcm100000171f5a0arcrd&vgnextoid=dd68a3f5ca71c010vgnvcm1000000b205a0arcrd,Madrid,Madrid,28038,Portazgo,Puente De Vallecas,445067,4471046,917 770 073,917 770 073,Nan,Ayuntamiento,Lunes-viernes continua,9:00-16:00,"Actividades extraescolares 16:00-17:00 , ""quedamos al salir del cole"" 16:00-20:00",-,Iii,2,Si,No,No,Si,No,Porterías,Alumbrado,"1111,43",Aceptable,"Parque de la constitución (200m), parque azorín (600m)",Biblioteca miguel hernández (750m),Nan," 54 , 58 , 103 , 143",Nan,Alto del arenal,Calle vesubio 5
3,5076,Colegio público alberto alcocer,"Comedor, transporte, horario ampliado, planes de mejora",Enseñanza: educación infantil - primaria - enseñanza biling&amp;uuml;e,0,Http://www.madrid.es/sites/v/index.jsp?vgnextchannel=bfa48ab43d6bb410vgnvcm100000171f5a0arcrd&vgnextoid=2388a3f5ca71c010vgnvcm1000000b205a0arcrd,Madrid,Madrid,28022,Hellin,San Blas-Canillejas,448087,4476035,913 202 609,913 200 446,Nan,Ayuntamiento,Lunes-viernes partida,9:00-16:00,Actividades extraescolares 16:00-17:00,-,Iii,2,Si,Si,Principal del centro,No,Porche pequeño,"Porterías, canastas",No,"5036,74822",Bueno,Parque paraiso,Nan,Nan," 38 , 48 , 140, 153",Nan,Las musas,Avenida canillejas a vicalvaro 56
4,5077,Colegio público alcalde de móstoles,"Transporte, comedor, horario ampliado, planes de mejora",Enseñanza: educación infantil - primaria,0,Http://www.madrid.es/sites/v/index.jsp?vgnextchannel=bfa48ab43d6bb410vgnvcm100000171f5a0arcrd&vgnextoid=7898a3f5ca71c010vgnvcm1000000b205a0arcrd,Madrid,Madrid,28044,Las Aguilas,Latina,434091,4470207,917 055 465,915 095 129,Nan,Ayuntamiento,Lunes-viernes continua,9:00-16:00,Actividades extraescolares 16:00-17:00,-,Iii,2,Si,Si,-,No,Techado en infantil,"Canastas, porterías, columpio",No,"2186,118",-,Nan,Nan,Nan," 34 , 39 , 139 , 117 , 17 ,",Nan,Nan,Calle aldeanueva de la vera 9
5,5078,Colegio público alfonso x el sabio,"Comedor, transporte, horario ampliado, planes de mejora",Enseñanza: educación infantil - primaria,0,Http://www.madrid.es/sites/v/index.jsp?vgnextchannel=bfa48ab43d6bb410vgnvcm100000171f5a0arcrd&vgnextoid=cda8a3f5ca71c010vgnvcm1000000b205a0arcrd,Madrid,Madrid,28032,Casco H.Vicalvaro,Vicalvaro,448774,4472685,913 719 661,917 765 962,Nan,Ayuntamiento,Lunes-viernes continua,9:00-16:00,Actividades extraescolares 16:00-17:00,Cruz roja 16:00-20:30,Iii,2,Si,Si (a patio infantil),Acceso directo a patio infantil,No,No,"Porterías (primaria), columpios",No,"573,92",Bueno,Parque san cipriano (300m),"Biblioteca vicálvaro (600m), centro cultural el madroño (600m), cdm margot moles (850m)",Nan," 4, 71, 100, 106, e-3",Nan,San cipriano,Calle fuente de san pedro 6
6,10770379,Colegio público alfredo di stefano,Nan,Enseñanza: educación infantil - primaria - enseñanza biling&amp;uuml;e,0,Http://www.madrid.es/sites/v/index.jsp?vgnextchannel=bfa48ab43d6bb410vgnvcm100000171f5a0arcrd&vgnextoid=32c2f9dd06e95610vgnvcm1000001d4a900arcrd,Madrid,Madrid,28022,Hellin,Hortaleza,448087,4476035,660 906 527,Nan,Nan,Ayuntamiento,Lunes-viernes partida,9:00-16:00,Actividades extraescolares 16:00-18:00,-,Iii,3,Si,Si (c/ felix candela),-,No,"Porche, pérgola, arbolado","Porterías, canastas, columpios, bancos",Fuentes,-,Bueno,Nan,Nan,Nan," 171, 174",Nan,Nan,Calle felix candela 4
7,5079,Colegio público alhambra,"Comedor, transporte, horario ampliado, planes de mejora",Enseñanza: educación infantil - primaria - enseñanza biling&amp;uuml;e,0,Http://www.madrid.es/sites/v/index.jsp?vgnextchannel=bfa48ab43d6bb410vgnvcm100000171f5a0arcrd&vgnextoid=13c8a3f5ca71c010vgnvcm1000000b205a0arcrd,Madrid,Madrid,28035,Peña Grande,Fuencarral-El Pardo,438407,4481677,913 162 273,913 737 021,Nan,Ayuntamiento,Lunes-viernes continua,9:00-16:00,Actividades extraescolares 16:00-18:00,Talleres 'patios abiertos' sábados 10:00-14:00,Iii,3,Si,Si (c/ ramón gómez de la serna),-,No,"Si (300m²), arbolado","Canastas, porterías, juegos, bancos, papeleras",Fuentes ,"3042,48",Mejorable (actualmente realizando obras),Nan,Nan,Participa actualmente de 'patios abiertos'," 49 , 67 , 82",Nan,Lacoma,Calle ramon gomez de la serna 103
8,4690849,Colegio público álvaro de bazan,"Horario ampliado, comedor, integración prefernete (trastornos generales del desarrollo)",Enseñanza: educación infantil - primaria,0,Http://www.madrid.es/sites/v/index.jsp?vgnextchannel=bfa48ab43d6bb410vgnvcm100000171f5a0arcrd&vgnextoid=eb583058a6166110vgnvcm1000000b205a0arcrd,Madrid,Madrid,28022,Rosas,San Blas-Canillejas,448486,4474724,917 757 114,917 757 114,Nan,Ayuntamiento,Lunes-viernes continua,9:00-16:00,Actividades extraescolares 16:00-17:00,Fútbol antiguos alumnos,Iii,4,Si,Si (c/ zurich),-,No,No,"Porterías, mesas de juegos",Alumbrado,"2329,5797",Mejorable (deteriorado),Nan,Nan,Tiene patios interiores con diferentes equipamientos.," 4, 106, 140, 153",Nan,Nan,Calle zurich 10
9,5080,Colegio público amadeo vives,"Comedor, horario ampliado, planes de mejora, integración preferente (trastornos generales del desarrollo)",Enseñanza: educación infantil - primaria,0,Http://www.madrid.es/sites/v/index.jsp?vgnextchannel=bfa48ab43d6bb410vgnvcm100000171f5a0arcrd&vgnextoid=68d8a3f5ca71c010vgnvcm1000000b205a0arcrd,Madrid,Madrid,28047,Aluche,Latina,436005,4472352,917 183 389,917 199 055,Nan,Ayuntamiento,Lunes-viernes continua,9:00-16:00,Actividades extraescolares 16:00-17:00,-,Iii,2,Si,Si (patio infantil),-,No,Si (zona de sombra con árboles),"Canastas, porterías",No,"3205,56",-,Nan,Nan,Comparte espacios con una escuela infantil independiente. ," 25 , 31 , 138",Nan,Nan,Calle los yebenes 6
10,5081,Colegio público amador de los ríos,"Comedor, planes de mejora",Enseñanza: educación infantil - primaria - enseñanza biling&amp;uuml;e,0,Http://www.madrid.es/sites/v/index.jsp?vgnextchannel=bfa48ab43d6bb410vgnvcm100000171f5a0arcrd&vgnextoid=bde8a3f5ca71c010vgnvcm1000000b205a0arcrd,Madrid,Madrid,28028,Fuente Del Berro,Salamanca,443459,4475286,917 252 610,917 261 891,Nan,Ayuntamiento,Lunes-viernes continua,9:00-16:00,Actividades extraescolares 16:00-17:00,Actividades deportivas ,I,2,Si,Si (paseo marqués de zafra y c/ florencio díaz),-,Si (un patio),No,"Columpios, porterías, canastas, bancos",No,"1610,42",Actualmente en obras,"Jardín de las mujeres de ventas (140m), quinta de la fuente del berro (500m)",Centro deportivo fuente del berro (650m),Nan," 12 , 2 , 56 , 71 , 143, 156, c2",Nan,Manuel becerra,Paseo marques de zafra 16
11,5083,Colegio público amós acero,"Comedor, integración preferente (trastornos generales del desarrollo)",Enseñanza: educación infantil - primaria,0,Http://www.madrid.es/sites/v/index.jsp?vgnextchannel=bfa48ab43d6bb410vgnvcm100000171f5a0arcrd&vgnextoid=0309a3f5ca71c010vgnvcm1000000b205a0arcrd,Madrid,Madrid,28053,Palomeras Bajas,Puente De Vallecas,443664,4471282,914 785 161,914 772 415,Nan,Ayuntamiento,Lunes-viernes continua,9:00-16:00,Actividades extraescolares 16:00-20:00,"Escuelas deportivas municipales y el programa ""quedamos al salir de clase""",Iii,1,Si,No,-,No,Si (2x12m),"Porterías, canastas",No,"612,31",Mejorable (suelos en mal estado),"Parque amós acero (150m), parque del payaso fofó (500m)","El espacio (300m), cdm angel nieto (550m), instalación deportiva básica (700m), biblioteca vallecas (800m)",Nan," 10 , 54 , 57 , 58 , 103 , 111 , 310 , 410",Nan,"Nueva numancia , portazgo",Calle rodriguez espinosa 54
12,5295314,Colegio público angel nieto,Nan,Enseñanza: educacion infantil - primaria - enseñanza biling&amp;uuml;e  centro de nueva creación curso 2019-20 se imparte niveles desde infantil hasta primero de primaria.,0,Http://www.madrid.es/sites/v/index.jsp?vgnextchannel=bfa48ab43d6bb410vgnvcm100000171f5a0arcrd&vgnextoid=e5ebe48403b60210vgnvcm2000000c205a0arcrd,Madrid,Madrid,28051,Ensanche De Vallecas,Villa De Vallecas,450106,4468011,912 723 449 - 660 486 591,Nan,Cp.angelnieto.madrid@educa.madrid.org,Ayuntamiento,Lunes-viernes continua,9:00-16:00,Actividades extraescolares 16:00-18:30,-,Iii,2,Si,No,-,No,No,No,No,-,Sin terminar de construir,"Parque de la gavia (300m), plaza las artes (400m)",-,Nan, 142 y 145,Nan,Las suertes,Avenida las suertes 109
13,5085,Colegio público antonio de nebrija,"Comedor, horario ampliado, planes de mejora",Enseñanza: educación infantil - primaria,0,Http://www.madrid.es/sites/v/index.jsp?vgnextchannel=bfa48ab43d6bb410vgnvcm100000171f5a0arcrd&vgnextoid=5819a3f5ca71c010vgnvcm1000000b205a0arcrd,Madrid,Madrid,28021,Los Rosales,Villaverde,441729,4467039,917 963 500,915 051 317,Nan,Ayuntamiento,Lunes-viernes continua,9:00-16:00,Actividades extraescolares 16:00-19:00,Federaciones deportivas,Ii,2,Si,Si (c/ villarramiel),"C/ pilar lorengar, c/ diamante",Si,No,"Porterías, canastas, pistas vóley, bancos","Alumbrado, fuente","440,45",Recién reformado,Nan,Nan,Nan,"85 , 123", villaverde bajo,Nan,Calle juan jose martinez seco 77
14,5792171,Colegio público antonio fontan,Nan,Enseñanza: educación infantil - primaria,0,Http://www.madrid.es/sites/v/index.jsp?vgnextchannel=bfa48ab43d6bb410vgnvcm100000171f5a0arcrd&vgnextoid=93f1a0910bcca210vgnvcm2000000c205a0arcrd,Madrid,Madrid,28049,El Goloso,Fuencarral-El Pardo,441221,4484771,911 722 243,911 720 010,Cp.antoniofontan.madrid@educa.madrid.org,Ayuntamiento,Lunes-viernes partida,9:00-16:00,Actividades extraescolares 16:00-17:00,"Actividades ampa 16:00-18:00, club voleybol 18:00-20:00",Ii,3,Si,Si,-,Si,Si (20%),"Canastas, porterías, bancos, papeleras","Alumbrado, fuente","3086,44",Mejorable (una zona amplia inhabilitada por falta de arreglo),Nan,Nan,Nan," 134, 178",Nan,Nan,Avenida santuario de valverde 71
15,5087,Colegio público antonio machado,"Comedor, planes de mejora, horario ampliado",Enseñanza: educación infantil - primaria,0,Http://www.madrid.es/sites/v/index.jsp?vgnextchannel=bfa48ab43d6bb410vgnvcm100000171f5a0arcrd&vgnextoid=ad29a3f5ca71c010vgnvcm1000000b205a0arcrd,Madrid,Madrid,28044,Buenavista,Carabanchel,436078,4469020,915 088 661,914 006 788,Nan,Ayuntamiento,Lunes-viernes continua,9:00-16:00,Actividades extraescolares 16:00-18:00,-,Iii,1,No (escaleras),Si (av. carabanchel alto),-,No,No,"Porterías, canastas",No,"3000,74",Bueno,Nan,Nan,Nan," 35 , 47",Nan,Nan,Calle allariz 3
16,5088,Colegio público antonio moreno rosales,"Comedor, planes de mejora",Enseñanza: educación infantil - primaria curso 2018/19 trasladado por obras al colegio público perú / calle baleares 18.,0,Http://www.madrid.es/sites/v/index.jsp?vgnextchannel=bfa48ab43d6bb410vgnvcm100000171f5a0arcrd&vgnextoid=f249a3f5ca71c010vgnvcm1000000b205a0arcrd,Madrid,Madrid,28012,Embajadores,Centro,440501,4473665,915 390 646,915 390 646,Nan,Ayuntamiento,Lunes-viernes continua,9:00-16:00,-,-,Iii,1,-,No,-,No,No,-,No,"264,65",-,Parque casino de la reina (700m),Centro cultural lavapies (240m),Nan," 6 , 26 , 32",Nan,"Tirso de molina , antón martín",Calle olmo 4
17,5091,Colegio público aragón,"Comedor, planes de mejora",Enseñanza: educación infantil - primaria enseñanza bling&amp;uuml;e,0,Http://www.madrid.es/sites/v/index.jsp?vgnextchannel=bfa48ab43d6bb410vgnvcm100000171f5a0arcrd&vgnextoid=4859a3f5ca71c010vgnvcm1000000b205a0arcrd,Madrid,Madrid,28038,Palomeras Sureste,Puente De Vallecas,445907,4471511,913 039 852,913 806 367,Nan,Ayuntamiento,Lunes-viernes continua,9:00-17:00,Actividades extraescolares 15:00-17:00,-,Iii,2,No (escaleras),Si,-,No,Si,"Porterías, canastas",Alumbrado ,"1953,73",Mejorable (falta de mantenimiento),Parque lineal de palomeras (150m),Cd nuevas palomeras (0m),Nan," 54 , 58 , 103 , 142 , 143 , 144",Nan,Miguel hernández,Avenida rafael alberti 2
18,5092,Colegio público aravaca,"Integración (general), comedor",Enseñanza: educación infantil - primaria -  enseñanza biling&amp;uuml;e -,0,Http://www.madrid.es/sites/v/index.jsp?vgnextchannel=bfa48ab43d6bb410vgnvcm100000171f5a0arcrd&vgnextoid=9d69a3f5ca71c010vgnvcm1000000b205a0arcrd,Madrid,Madrid,28023,Aravaca,Moncloa-Aravaca,433385,4479176,913 078 119 - 913 071 832,913 071 832,Nan,Ayuntamiento,Lunes-viernes continua,9:00-16:00,Actividades extraescolares 16:00-17:00,Nan,I,3,"Si (algunas barreras, bordillos)",Si (c/ estudio),Nan,Si,No,"Porterías, canastas, bancos", fuente,5441,Nan,Malo (salvo pistas deportivas),Parque paseo ermita (500m),Centro cultural aravaca (280m)," 160, 161",Nan,Nan,Calle estudio 6
19,5093,Colegio público arcipreste de hita,"Comedor, horario ampliado, planes de mejora",Enseñanza: educacion infantil - primaria,0,Http://www.madrid.es/sites/v/index.jsp?vgnextchannel=bfa48ab43d6bb410vgnvcm100000171f5a0arcrd&vgnextoid=e289a3f5ca71c010vgnvcm1000000b205a0arcrd,Madrid,Madrid,28025,Abrantes,Carabanchel,438524,4470930,915 605 495,914 605 635,Nan,Ayuntamiento,Lunes-viernes continua,9:00-16:00,Actividades extraescolares 16:00-18:00,-,Iii,1,Si,Si (c/ antonio moreno),-,No,No,"Porterías, canastas, juegos","Alumbrado, fuente ","844,42",Bueno,Parque emperatriz maría de austria,Polideportivo san vicente de saúl,Nan," 55 , 108 , 118 , 247",Nan,Opañel,Calle antonio moreno 25
20,5094,Colegio público arquitecto gaudí,"Comedor, horario ampliado, planes de mejora",Enseñanza: educación infantil - primaria,1,Http://www.madrid.es/sites/v/index.jsp?vgnextchannel=bfa48ab43d6bb410vgnvcm100000171f5a0arcrd&vgnextoid=3899a3f5ca71c010vgnvcm1000000b205a0arcrd,Madrid,Madrid,28016,Nueva España,Chamartin,443279,4479632,913 506 564,913 506 564,Nan,Ayuntamiento,Lunes-viernes,9:00-16:00,Actividades extraescolares 16:00-17:00,Club deportivo 17:00-20:00,Ii,3,Si,Si,-,Si,Toldos (1 patio),"Canastas, bancos",Alumbrado (1 patio),"303,95 + 489,12",Bueno (recién arreglado),Jardín gloria fuertes (800m),Instalación deportiva (210m),Patio disgregado en espacios estrechos alrededor del edificio. ," 16 , 29 , 49 , 70 , 107 , 150 , 229",Nan,Pio xii,Calle rosa jardon 10
21,5095,Colegio público asturias,"Comedor, horario ampliado, planes de mejora",Enseñanza: educación infantil - primaria - enseñanza biling&amp;uuml;e,0,Http://www.madrid.es/sites/v/index.jsp?vgnextchannel=bfa48ab43d6bb410vgnvcm100000171f5a0arcrd&vgnextoid=d2c9a3f5ca71c010vgnvcm1000000b205a0arcrd,Madrid,Madrid,28018,Palomeras Sureste,Puente De Vallecas,445456,4470478,917 770 635,917 850 680,Nan,Ayuntamiento,Lunes-viernes continua,9:00-16:00,Actividades extraescolares 16:00-17:00,Asociación crecer martes 17:00-19:00,Ii,4,Si (patios inferiores),Si (c/ asturianos),C/ rafael alberti,"Si, no cumplen accesibilidad",Porches (en patio inferior),"Porterías, canastas (arriba)",Alumbrado (arriba),"5051,2289",Bueno,"Parque de la paloma (30m), parque lineal de palomeras (270m)",Biblioteca miguel hernandez (160m),Nan," 54 , 144",Nan,Nan,Calle asturianos 2
22,5431144,Colegio público ausias march,"Horario ampliado, comedor",Enseñanza: educación infantil - primaria,0,Http://www.madrid.es/sites/v/index.jsp?vgnextchannel=bfa48ab43d6bb410vgnvcm100000171f5a0arcrd&vgnextoid=67c74431fcf04210vgnvcm1000000b205a0arcrd,Madrid,Madrid,28021,Butarque,Villaverde,442694,4466201,917 109 916,917 964 694,P.ausiasmarch.madrid@educa.madrid.org,Ayuntamiento,Lunes-viernes partida,9:00-16:00,Actividades extraescolares 16:00-18:00,Actividades complementarias en días no lectivos,Iii,2,Si,Si,-,No,Pocos,"Canastas, porterías, huerto, mesas, areneros","Alumbrado, fuente","2121,04",Regular (suelo se encharca),Nan,Nan,Nan, 85,Nan,Nan,Calle estefanita 9
23,5098,Colegio público azorín,"Comedor, transporte, planes de mejora",Enseñanza: educación infantil - primaria,0,Http://www.madrid.es/sites/v/index.jsp?vgnextchannel=bfa48ab43d6bb410vgnvcm100000171f5a0arcrd&vgnextoid=7de9a3f5ca71c010vgnvcm1000000b205a0arcrd,Madrid,Madrid,28021,San Cristobal,Villaverde,441653,4466044,917 975 733,917 231 639,Nan,Ayuntamiento,Lunes-viernes continua,9:00-16:00,Nan,-,I,1,Si,Si,-,Si,2 techados (9x9m),"Canastas, juegos","Alumbrado débil, fuente","991,41",Necesita reforma,Nan,Nan,Nan," 59 , 79",Nan,Nan,Calle godella 57
24,5099,Colegio público barcelona,"Comedor, horario ampliado, planes de mejora",Enseñanza: educación infantil - primaria,0,Http://www.madrid.es/sites/v/index.jsp?vgnextchannel=bfa48ab43d6bb410vgnvcm100000171f5a0arcrd&vgnextoid=c20aa3f5ca71c010vgnvcm1000000b205a0arcrd,Madrid,Madrid,28041,Los Angeles,Villaverde,440878,4467772,913 603 078,913 179 568,Nan,Ayuntamiento,Lunes-viernes continua,9:00-16:00,Actividades extraescolares 16:00-18:00,-,Ii,2,Si,Si (av verbena de la paloma),-,Si,No,"Porterías, canastas","Alumbrado, fuente","1070,13 + 867,54",Bueno,Nan,Nan,Nan," 18 , 22 , 59 , 79 , 85 , 86 , 116",Nan,Nan,Avenida la verbena de la paloma 14
25,7635761,Colegio público blas de lezo,Nan,Enseñanza: educación infantil - primaria,0,Http://www.madrid.es/sites/v/index.jsp?vgnextchannel=bfa48ab43d6bb410vgnvcm100000171f5a0arcrd&vgnextoid=bb4868fe04878410vgnvcm2000000c205a0arcrd,Madrid,Madrid,28050,Valverde,Fuencarral-El Pardo,443068,4484732,912 761 564 - 626 122 902,Nan,Cp.blasdelezo.madrid@educa.madrid.org,Ayuntamiento,Lunes-viernes partida,9:00-16:00,Actividades extraescolares 16:00-18:30,Club deportivo chamartín vergara 18:30-23:00 + fines de semana,Iii,3,-,Si (c/ palas de rey),C/ fromista,No,Toldos,"Porterías, canastas, columpios, areneros",No,-,Pendientes de algunos arreglos,Nan,Nan,Nan, 176,Nan,Las tablas,Calle fromista 27
26,5100,Colegio público blas de otero,"Transporte, comedor, planes de mejora, horario ampliado",Enseñanza: educación infantil - primaria - enseñanza biling&amp;uuml;e,0,Http://www.madrid.es/sites/v/index.jsp?vgnextchannel=bfa48ab43d6bb410vgnvcm100000171f5a0arcrd&vgnextoid=181aa3f5ca71c010vgnvcm1000000b205a0arcrd,Madrid,Madrid,28031,Santa Eugenia,Villa De Vallecas,448164,4470461,913 311 550,913 310 535,Nan,Ayuntamiento,Lunes-viernes continua,9:00-16:00,Nan,Actividades extraescolares,Iii,2,Si,Si,-,No,Porche (10x5m),Mesa de ping pong,Alumbrado,"1453,58",Bueno,"Parque santa eugenia (200m), parque vasares (550m)","Centro cultural pilar miro (260m), biblioteca luis martin santos (300m), campo de futbol virgen de la torre (650m)",Nan,"58 , 63 , 145",Nan, villa de vallecas,Calle puentelarra 34
27,5101,Colegio público bolivia,"Comedor, horario ampliado, planes de mejora",Enseñanza: educación infantil - primaria,0,Http://www.madrid.es/sites/v/index.jsp?vgnextchannel=bfa48ab43d6bb410vgnvcm100000171f5a0arcrd&vgnextoid=6d2aa3f5ca71c010vgnvcm1000000b205a0arcrd,Madrid,Madrid,28011,Lucero,Latina,436374,4473273,914 649 989,914 649 989,Nan,Ayuntamiento,Lunes-viernes continua,9:00-16:00,Centro de día cruz roja 16:00-20:00,-,Iii,3,Si,Si,-,No,No,"Canastas, porterías",Fuente (no funciona) ,"2187,15",-,Nan,Nan,Nan," 36 , 39 , 65",Nan,Batán,Calle villavaliente 29
28,5102,Colegio público bravo murillo,"Comedor, transporte, horario ampliado, planes de mejora",Enseñanza: educación infantil - primaria,0,Http://www.madrid.es/sites/v/index.jsp?vgnextchannel=bfa48ab43d6bb410vgnvcm100000171f5a0arcrd&vgnextoid=b24aa3f5ca71c010vgnvcm1000000b205a0arcrd,Madrid,Madrid,28035,Peña Grande,Fuencarral-El Pardo,439142,4481343,917 385 793,917 385 793,Nan,Ayuntamiento,Lunes-viernes continua,9:00-16:00,Actividades extraescolares 16:00-17:00,"Centro abierto, navidad y semana santa 7:30-17:00",Ii,2,Si,Si (c/ fermín caballero),-,No,Si,"Bancos, arenero",Alumbrado ,"1093,70 + 389,07",Mejorable (suelos levantados y falta de seguridad),Nan,Nan,Patio principal con pista deportiva ," 49 , 64 , 67 , 83 , 124 , 133 , 127",Nan,Avenida de la ilustración,Calle islas cies 11
29,5103,Colegio público breogán,"Comedor, horario ampliado, planes de mejora",Enseñanza: educación infantil - primaria,0,Http://www.madrid.es/sites/v/index.jsp?vgnextchannel=bfa48ab43d6bb410vgnvcm100000171f5a0arcrd&vgnextoid=085aa3f5ca71c010vgnvcm1000000b205a0arcrd,Madrid,Madrid,28029,La Paz,Fuencarral-El Pardo,440459,4480763,917 304 040,917 396 184,Nan,Ayuntamiento,Lunes-viernes continua,9:00-16:00,Actividades extraescolares 16:00-17:00,-,Ii,2,Si,Si,-,Si (patio trasero),No,"Canastas, porterías, bancos",No,"1474,87",Aceptable (necesita reparaciones en una pista y la valla),Nan,Nan,Tiene pistas deportivas.," 42 , 147",Nan,Barrio del pilar,Calle ginzo de limia 2
30,5104,Colegio público calderón de la barca,"Comedor, horario ampliado, planes de mejora",Enseñanza: educación infantil - primaria -  enseñanza biling&amp;uuml;e -,0,Http://www.madrid.es/sites/v/index.jsp?vgnextchannel=bfa48ab43d6bb410vgnvcm100000171f5a0arcrd&vgnextoid=5d6aa3f5ca71c010vgnvcm1000000b205a0arcrd,Madrid,Madrid,28042,Timon,Barajas,450492,4480168,917 472 465,917 473 130,Nan,Ayuntamiento,Lunes-viernes partida,9:00-16:00,Actividades extraescolares 16:00-20:00,"Servicios extraescolares ampa 16:00-17:10h; programa ""quedamos al salir de clase "" 16:00-20:00h; baloncesto y balonmano (en planificación) 16:00-18:15h",I,2,Si (patio principal),Si (patio principal c/ aguetol),-,Si,Si (no da medidas),"Porterías, canastas, mesas ping-pong","Alumbrado, fuente","1925,41929",Bueno (en la actualidad obras en el jardín),Parque rabbit (650m),"Instalación deportiva básica (260m), centro cultural villa de barajas (650m)",Nan,"105 , 115",Nan, barajas,Calle calderon 2
31,5105,Colegio público camilo josé cela,"Comedor, transporte, horario ampliado, horario ampliado",Enseñanza: educación infantil - primaria,0,Http://www.madrid.es/sites/v/index.jsp?vgnextchannel=bfa48ab43d6bb410vgnvcm100000171f5a0arcrd&vgnextoid=a28aa3f5ca71c010vgnvcm1000000b205a0arcrd,Madrid,Madrid,28029,La Paz,Fuencarral-El Pardo,440612,4481001,917 392 424,913 781 507,Nan,Ayuntamiento,Lunes-viernes partida,9:00-16:00,Actividades extraescolares 16:00-17:00,Nan,Iii,3,Si,Si (c/ melchor fdz almagro),-,No,Si,"Porterías, canastas, toboganes, mesas pingpong",Fuentes ,"1867,56",Mejorable,Nan,Nan,Nan, 147,Nan,Barrio del pilar,Calle melchor fernandez almagro 22
32,5107,Colegio público capitán cortés,"Comedor, horario ampliado, planes de mejora",Enseñanza: educación infantil - primaria - enseñanza biling&amp;uuml;e,0,Http://www.madrid.es/sites/v/index.jsp?vgnextchannel=bfa48ab43d6bb410vgnvcm100000171f5a0arcrd&vgnextoid=f79aa3f5ca71c010vgnvcm1000000b205a0arcrd,Madrid,Madrid,28025,Puerta Bonita,Carabanchel,436944,4470302,91 462 86 62,91 461 91 30,Nan,Ayuntamiento,Lunes-viernes continua,9:00-16:00,Actividades extraescolares 16:00-19:30,-,Ii,2,Si,Si (un patio),Entrada principal del centro,Si,Porches,"Porterías, canastas",No,"817,97",Regular (necesita repintado y patio interior en mal estado),Nan,Nan,Nan," 34 , 108",Nan,Nan,Calle monseñor oscar romero 17
33,5108,Colegio público cardenal herrera oria,"Comedor, transporte, horario ampliado, planes de mejora",Enseñanza: educación infantil - primaria -  enseñanza biling&amp;uuml;e -,0,Http://www.madrid.es/sites/v/index.jsp?vgnextchannel=bfa48ab43d6bb410vgnvcm100000171f5a0arcrd&vgnextoid=4daaa3f5ca71c010vgnvcm1000000b205a0arcrd,Madrid,Madrid,28034,El Pilar,Fuencarral-El Pardo,439732,4481568,913 781 613,913 785 711,Nan,Ayuntamiento,Lunes-viernes continua,9:00-16:00,Actividades extraescolares 16:00-17:00,-,I,3,Si,Si (c/ esquivias),C/ fermín caballero,Si,"Porches cubiertos (25 y 40m²), arbolado","Porterías, canastas, columpios, bancos",Alumbrado débil,"1541,1","Bueno (patio), muro de contención en muy mal estado",Nan,Nan,Participa actualmente de 'patios abiertos'. ," 67 , 83 , 124 , 127 , 133",Nan,Nan,Calle fermin caballero 68
34,5110,Colegio público carlos sáinz de los terreros,"Comedor, horario ampliado, planes de mejora",Enseñanza: educación infantil - primaria,0,Http://www.madrid.es/sites/v/index.jsp?vgnextchannel=bfa48ab43d6bb410vgnvcm100000171f5a0arcrd&vgnextoid=92caa3f5ca71c010vgnvcm1000000b205a0arcrd,Madrid,Madrid,28018,Palomeras Sureste,Puente De Vallecas,445870,4470873,917 783 885,917 774 420,Nan,Ayuntamiento,Lunes-viernes continua,9:00-16:00,Actividades extraescolares 16:00-17:00,-,Ii,5,Si (algunas barreras),Si (c/ cartama y c/ benalmadena),-,"Si, patio perales",No,"Canastas, porterías, bancos",No,"2514,33 + 1084,26 + 772,90",Actualmente en obras,"Parque lineal de palomeras (10m), parque de la paloma (450m)",Biblioteca miguel hernandez (400m),Nan," 54 , 58 , 103 , 142 , 143 , 144",Nan,Miguel hernández,Calle cartama 1
35,5111,Colegio público carlos v,"Comedor, horario ampliado, planes de mejora",Enseñanza: educación infantil - primaria - enseñanza biling&amp;uuml;e,0,Http://www.madrid.es/sites/v/index.jsp?vgnextchannel=bfa48ab43d6bb410vgnvcm100000171f5a0arcrd&vgnextoid=e7daa3f5ca71c010vgnvcm1000000b205a0arcrd,Madrid,Madrid,28027,San Pascual,Ciudad Lineal,444499,4476494,914 041 481,914 052 705,Nan,Ayuntamiento,Lunes-viernes partida,9:00-16:00,-,-,Iii,2,-,Si,-,No,No,-,No,"2005,8521",-,"Parque el calero (180m), parque de las avenidas (650m)","Instalacion deportiva (180m), polideportivo la concepcion (700m)",Nan," 21 , 48 , 146",Nan,Barrio de la concepción,Calle virgen del val 3
36,5112,Colegio público carmen cabezuelo,"Comedor, horario ampliado",Enseñanza: educación infantil - primaria,0,Http://www.madrid.es/sites/v/index.jsp?vgnextchannel=bfa48ab43d6bb410vgnvcm100000171f5a0arcrd&vgnextoid=3deaa3f5ca71c010vgnvcm1000000b205a0arcrd,Madrid,Madrid,28037,Simancas,San Blas-Canillejas,446661,4475688,913 040 117,913 040 117,Nan,Ayuntamiento,Lunes-viernes continua,9:00-16:00,Actividades extraescolares 16:00-18:00,Extraescolares de ampa y junta,Iii,1,No,Si,Nan,No,No,"Porterías, canastas, columpios",No,"1955,428",Mejorable (deteriorado),Nan,Nan,Nan," 4 , 28 , 38 , 70",Nan,García noblejas,Calle cangas de onis 7
37,5792204,Colegio público carmen laforet,Nan,Enseñanza: educación infantil - primaria,0,Http://www.madrid.es/sites/v/index.jsp?vgnextchannel=bfa48ab43d6bb410vgnvcm100000171f5a0arcrd&vgnextoid=12cf00444dcca210vgnvcm2000000c205a0arcrd,Madrid,Madrid,28032,Casco H.Vicalvaro,Vicalvaro,449172,4472403,917 760 141,917 604 734,Cp.carmenlaforet.madrid@educa.madrid.org,Ayuntamiento,Lunes-viernes continua,9:00-16:00,Actividades extraescolares 16:00-17:00,-,Iii,2,Si,Si (c/ titanio),C/ omega,No,Si,"Porterías, canastas",Fuente,"5026,09",Bueno,Parque lineal de valderribas (450m),-,Nan,"100, 106",Nan, puerta de arganda,Calle titanio 16
38,5115,Colegio público cervantes,"Comedor, horario ampliado, planes de mejora",Enseñanza: educación infantil - primaria,0,Http://www.madrid.es/sites/v/index.jsp?vgnextchannel=bfa48ab43d6bb410vgnvcm100000171f5a0arcrd&vgnextoid=820ba3f5ca71c010vgnvcm1000000b205a0arcrd,Madrid,Madrid,28003,Rios Rosas,Chamberi,440376,4477566,915 330 837,915 330 837,Nan,Ayuntamiento,Lunes-viernes partida,9:00-12:30 y 14:30-16:00,Actividades extraescolares 16:00-17:00,-,Iii,1,Si,No,-,No,No,"Canasta, fuente ornamental",No,296,Bueno,Parque santander (550m),"Biblioteca ruiz egea (0m), centro juvenil chamberí (0m), centro cultural jose de esproceda (350m), instalaciones deportivas canal (550m)",Patio interior sin acceso desde la calle," 3 , 37 , 45 , 64 , 66 , 69 , 124 ,128 , 149 , f",Nan,Cuatro caminos,Calle raimundo fernandez villaverde 4
39,5116,Colegio público ciudad de badajoz,"Comedor, planes de mejora",Enseñanza: educación infantil - primaria,0,Http://www.madrid.es/sites/v/index.jsp?vgnextchannel=bfa48ab43d6bb410vgnvcm100000171f5a0arcrd&vgnextoid=d71ba3f5ca71c010vgnvcm1000000b205a0arcrd,Madrid,Madrid,28024,Las Aguilas,Latina,433888,4470669,917 065 611,917 107 103,Nan,Ayuntamiento,Lunes-viernes partida,9:00-16:00,Actividades extraescolares 16:00-17:00,-,Iii,2,Si,Si,-,No,No,"Canastas, areneros, juegos infantiles, portería, bancos, mesas",No,"965,49 + 565,22",-,Nan,Nan,Nan,17,Nan,Aviación española,Calle fray jose cerdeiriña 51
40,5117,Colegio público ciudad de córdoba,"Comedor, horario ampliado, planes de mejora",Enseñanza: educación infantil - primaria - enseñanza biling&amp;uuml;e,0,Http://www.madrid.es/sites/v/index.jsp?vgnextchannel=bfa48ab43d6bb410vgnvcm100000171f5a0arcrd&vgnextoid=2d2ba3f5ca71c010vgnvcm1000000b205a0arcrd,Madrid,Madrid,28041,Los Angeles,Villaverde,440769,4468229,913 172 417 - 606 873 006,913 179 827,Cp.ciudaddecordoba.madrid@educa.madrid.org,Ayuntamiento,Lunes-viernes continua,9:00-16:00,Actividades extraescolares 16:00-18:00,-,Ii,2,Si,Si (c/ lillo),-,Si,Si,"Porterías, zonas de tierra",No,"2378,80 + 1280,63",Necesita reforma,Nan,Nan,Nan," 18 , 22 , 59 , 76 , 79 , 85 , 86 , 116 ,",Nan,Nan,Calle lillo 1
41,5118,Colegio público ciudad de guadalajara,"Comedor, transporte, horario ampliado",Enseñanza: educación infantil - primaria - enseñanza biling&amp;uuml;e,0,Http://www.madrid.es/sites/v/index.jsp?vgnextchannel=bfa48ab43d6bb410vgnvcm100000171f5a0arcrd&vgnextoid=724ba3f5ca71c010vgnvcm1000000b205a0arcrd,Madrid,Madrid,28042,Alameda De Osuna,Barajas,450528,4479070,917 470 938,917 472 064,Nan,Ayuntamiento,Lunes-viernes,7:30-16:00 horario ampliado,Actividades extraescolares 16:00-18:00,-,I,3,Si (c/ rioja),"Si (c/ rioja, los otros cierran por dentro)",-,Si,Porche (50m²),Columpios,"Alumbrado, fuentes","3061,75011",Bueno,Parque mariluz nájera (200m),Cdm barajas (950m),Nan," 105, 112, 114, 115, 151",Nan,Alameda de osuna,Calle bergantin 13
42,5119,Colegio público ciudad de jaén,"Comedor, transporte, integración (preferentemente motóricos), horario ampliado, planes de mejora -convenio con el british council",Enseñanza: educación infantil - primaria,1,Http://www.madrid.es/sites/v/index.jsp?vgnextchannel=bfa48ab43d6bb410vgnvcm100000171f5a0arcrd&vgnextoid=c75ba3f5ca71c010vgnvcm1000000b205a0arcrd,Madrid,Madrid,28041,Orcasur,Usera,440468,4469348,913 174 313 - 913 171 644,913 171 644,Cp.ciudaddejaen.madrid@educa.madrid.org,Ayuntamiento,Lunes-viernes continua,9:00-16:00,-,-,Ii,1,Si,Si,-,Si,No,-,No,"6870,49",-,Nan,Nan,Nan,"18, 22, 59, 76, 78, 79, 81, 116, 121",Nan, hospital 12 de octubre,Calle madre rosa blanco 3
43,5120,Colegio público ciudad de los ángeles,"Comedor, horario ampliado, planes de mejora",Enseñanza: educación infantil - primaria,0,Http://www.madrid.es/sites/v/index.jsp?vgnextchannel=bfa48ab43d6bb410vgnvcm100000171f5a0arcrd&vgnextoid=1d6ba3f5ca71c010vgnvcm1000000b205a0arcrd,Madrid,Madrid,28041,Los Angeles,Villaverde,441002,4467672,917 954 993,915 050 434,Nan,Ayuntamiento,Lunes-viernes continua,9:00-16:00,Actividades extraescolares 16:15-18:30,-,I,3,Si,Si,-,Si,No,"Porterías, canastas","Alumbrado, fuentes","4675,66",Mejorable (suelo se levanta y encharca),Nan,Nan,Patio continuo en varias áreas con edificios entre medias," 18 , 22 , 59 , 79 , 85 , 86 , 116",Nan,Nan,Calle la alegria de la huerta 6
44,5121,Colegio público ciudad de roma,"Comedor, horario ampliado, planes de mejora",Enseñanza: educación infantil - primaria - enseñanza biling&amp;uuml;e,0,Http://www.madrid.es/sites/v/index.jsp?vgnextchannel=bfa48ab43d6bb410vgnvcm100000171f5a0arcrd&vgnextoid=628ba3f5ca71c010vgnvcm1000000b205a0arcrd,Madrid,Madrid,28007,Estrella,Retiro,443564,4474129,915 743 897,915 041 695,Nan,Ayuntamiento,Lunes-viernes partida,9:00-16:00,Actividades extraescolares 16:00-21:00,Centro de día infantil,Ii,3,Si,Si,-,Si,Si,"Porterías, columpios, bancos","Alumbrado, fuentes","6198,42",Bueno,Parque de roma (0m),"Centro deportivo m86 (60m), centro municipal de mayores (230m)",Nan," 15 , 30 , 143, 156, 202, 215",Nan,Sainz de baranda,Calle juan esplandiu 2
45,5122,Colegio público ciudad de valencia,"Comedor, transporte, horario ampliado",Enseñanza: educación infantil - primaria,2,Http://www.madrid.es/sites/v/index.jsp?vgnextchannel=bfa48ab43d6bb410vgnvcm100000171f5a0arcrd&vgnextoid=b79ba3f5ca71c010vgnvcm1000000b205a0arcrd,Madrid,Madrid,28007,Santa Eugenia,Villa De Vallecas,448699,4470694,913 310 805,913 312 548,Nan,Ayuntamiento,Lunes-viernes partida,9:00-16:00,Actividades extraescolares 16:00-17:00,-,Iii,3,Si,Si,-,No,2 porches,"Columpios, canastas, porterías",No,"14694,68",Bueno,"Pinar de santa eugenia (0m), parque santa eugenia (750m)","Cdm cerro almodóvar (350m), centro cultural zazuar (550m)",Nan," 58 , 63 , 145",Nan,Nan,Avenida mediterraneo 91
46,5123,Colegio público ciudad de zaragoza,"Comedor, transporte, horario ampliado, planes de mejora",Enseñanza: educación infantil - primaria,0,Http://www.madrid.es/sites/v/index.jsp?vgnextchannel=bfa48ab43d6bb410vgnvcm100000171f5a0arcrd&vgnextoid=0daba3f5ca71c010vgnvcm1000000b205a0arcrd,Madrid,Madrid,28042,Alameda De Osuna,Barajas,449875,4479016,913 293 756 - 917 477 420,917 477 420,Nan,Ayuntamiento,Lunes-viernes continua,9:00-15:00,Actividades extraescolares 16:00-22:00,-,Ii,4 (6 pistas deportivas),Si,Si (6 accesos a 3 calles),-,Si,Si (no da medidas),"Porterías, canastas, columpios, bancos","Alumbrado, fuentes","7539,06347",Mejorable,"Parque juan carlos i (230m), jardín de el capricho (600m)",Centro cultural gloria fuertes (230m),Nan," 105 , 112 , 115 , 151",Nan,Nan,Calle manuel aguilar muñoz 1
47,5124,Colegio público ciudad pegaso,"Comedor, transporte, horario ampliado",Enseñanza: educación infantil - primaria - enseñanza biling&amp;uuml;e,0,Http://www.madrid.es/sites/v/index.jsp?vgnextchannel=bfa48ab43d6bb410vgnvcm100000171f5a0arcrd&vgnextoid=52cba3f5ca71c010vgnvcm1000000b205a0arcrd,Madrid,Madrid,28022,Rejas,San Blas-Canillejas,449287,4477571,917 412 017,917 436 218,Nan,Ayuntamiento,Lunes-viernes continua,9:00-16:00,Actividades extraescolares 16:00-17:00,Nan,I,3,Si,Si (av séptima),Nan,Si,Porche,"Porterías, canastas",No,"3897,621",Mejorable (necesita múltiples intervenciones),Nan,Nan,Nan," 77 , 89 , 101 , 114 , 115",Nan,Nan,Avenida septima 12
48,5125,Colegio público claudio moyano,"Comedor, horario ampliado, planes de mejora, integración preferente (trastornos generales del desarrollo)",Enseñanza: educación infantil - primaria - enseñanza biling&amp;uuml;e,0,Http://www.madrid.es/sites/v/index.jsp?vgnextchannel=bfa48ab43d6bb410vgnvcm100000171f5a0arcrd&vgnextoid=a7dba3f5ca71c010vgnvcm1000000b205a0arcrd,Madrid,Madrid,28003,Vallehermoso,Chamberi,439883,4476721,915 335 718,915 335 718,Nan,Ayuntamiento,Lunes-viernes continua,9:00-16:00,Deporte extraescolar 16:00-18:00,-,I,2,Si,Si,-,Si, si (porche),"Porterías, canastas","Alumbrado, fuente","1229,14",Bueno,"Plaza teniente de alcalde pérez pillado (220m), parque enrique herreros (290m), parque santander (300m)","Instalaciones deportivas canal (300m), cdm vallehermoso (400m), casa de cultura y participación chamberí (450m)",Nan," 2 , 12 , 202",Nan,"Canal , islas filipinas",Calle cea bermudez 26
49,5277,Colegio público complejo escolar príncipe felipe,"Comedor, transporte, horario ampliado",Enseñanza: educación infantil - primaria - enseñanza biling&amp;uuml;e -,0,Http://www.madrid.es/sites/v/index.jsp?vgnextchannel=bfa48ab43d6bb410vgnvcm100000171f5a0arcrd&vgnextoid=8ff6a3f5ca71c010vgnvcm1000000b205a0arcrd,Madrid,Madrid,28029,La Paz,Fuencarral-El Pardo,440583,4481296,913 146 819,913 232 548,Nan,Ayuntamiento,Lunes-viernes continua,9:00-16:00,Actividades extraescolares 16:00-17:00,Nan,Iii,2,Si (no todo el patio),Si (av. monforte de lemos),-,No,Porche,"Porterías, canastas, bancos",Fuente,"1208,49 + 1692,75",Mejorable ,Parque norte,Polideportivo vicente del bosque,Nan," 49 , 83 , 128 , 132 , 134 , 137",Nan,Barrio del pilar,Avenida monforte de lemos 24
50,5127,Colegio público concepción arenal,"Comedor, horario ampliado, planes de mejora",Enseñanza: educación infantil - primaria,0,Http://www.madrid.es/sites/v/index.jsp?vgnextchannel=bfa48ab43d6bb410vgnvcm100000171f5a0arcrd&vgnextoid=fceba3f5ca71c010vgnvcm1000000b205a0arcrd,Madrid,Madrid,28019,Comillas,Carabanchel,439323,4472124,915 652 702 / 628 470 651,915 650 097,Cp.concepcionarenal.madrid@educa.madrid.org,Ayuntamiento,Lunes-viernes continua,9:00-16:00,Actividades extraescolares 16:00-18:00,-,Iii,1,No (escaleras),Si (c/ antonio lópez),-,Si,Porche (15x3m),"Porterías, canastas, tobogán","Alumbrado, fuentes (estropeadas)","1932,51","Regular (desgastado, falta sombra)",Madrid río,Biblioteca ana mª matute y pistas deportivas,Nan," 23 , 34 , 35 , 118 , 119",Nan,Marqués de vadillo,Calle antonio lopez 1
51,5128,Colegio público concha espina,"Comedor, horario ampliado, planes de mejora",Enseñanza: educación infantil - primaria,0,Http://www.madrid.es/sites/v/index.jsp?vgnextchannel=bfa48ab43d6bb410vgnvcm100000171f5a0arcrd&vgnextoid=420ca3f5ca71c010vgnvcm1000000b205a0arcrd,Madrid,Madrid,28018,Palomeras Sureste,Puente De Vallecas,445343,4470775,917 781 461,917 772 584,Nan,Ayuntamiento,Lunes-viernes continua,9:00-15:30,Actividades extraescolares 15:30-17:30,Centro de atención a refugiados (fines de semana),Ii,3,Si,Si (c/ gerardo diego),-,"Si, en un patio",Porche (60m²) y zona techada (40m²),"Columpios, porterías, canastas",Fuente,"2611,6796",Actualmente en obras,"Parque de la paloma (110m), parque lineal de palomeras (600m)",Biblioteca miguel hernández (60m),Nan," 54 , 58 , 103 , 142 , 143 , 144",Nan,Miguel hernandez,Calle gerardo diego 6
52,5129,Colegio público conde de romanones,"Comedor, horario ampliado, planes de mejora",Enseñanza: educación infantil - primaria,0,Http://www.madrid.es/sites/v/index.jsp?vgnextchannel=bfa48ab43d6bb410vgnvcm100000171f5a0arcrd&vgnextoid=971ca3f5ca71c010vgnvcm1000000b205a0arcrd,Madrid,Madrid,28027,Quintana,Ciudad Lineal,445523,4476514,913 673 655 - 914 080 947,914 080 947,Nan,Ayuntamiento,Lunes-viernes continua,9:00-14:00,Actividades extraescolares 16:00-18:00,Servicios sociales 16:00-19:30,Iii,2,No,Si,"C/ elfo, c/ sambara",Si,Porches (rotos),"Porterias, canastas, columpios, bancos",No,"938,06",Bueno,Parque pablo raez (900m),"Biblioteca ciudad lineal (600m), centro cultural principe de asturias (600m), polideportivo la concepcion (900m)",Nan," 21, 38, 48,  109, 146",Nan,"El carmen, quintana",Calle elfo 143
53,6149062,Colegio público cortes de cádiz,Nan,Enseñanzas: segundo ciclo de educación infantil - primaria -  enseñanza biling&amp;uuml;e -,0,Http://www.madrid.es/sites/v/index.jsp?vgnextchannel=bfa48ab43d6bb410vgnvcm100000171f5a0arcrd&vgnextoid=34cee4f2de891310vgnvcm2000000c205a0arcrd,Madrid,Madrid,28050,Valdefuentes,Hortaleza,444413,4483344,911 727 223,911 720 746,Nan,Ayuntamiento,Lunes-viernes partida,9:00-16:00,Actividades extraescolares 16:00-18:00,Campamentos de alumnos del centro,Ii,3,Si,Si (av. isabel de valois),-,Si,"Porche, toldos, arbolado en perímetro","Porterías, canastas, columpios","Alumbrado (desde colegio), fuentes","3415,17",Bueno,Nan,Nan,Nan," 172, 173",Nan,Nan,Avenida niceto alcala zamora 48
54,5131,Colegio público costa rica,"Comedor, horario ampliado, planes de mejora",Enseñanza: educación infantil - primaria,0,Http://www.madrid.es/sites/v/index.jsp?vgnextchannel=bfa48ab43d6bb410vgnvcm100000171f5a0arcrd&vgnextoid=ec2ca3f5ca71c010vgnvcm1000000b205a0arcrd,Madrid,Madrid,28047,Aluche,Latina,435834,4470820,917 171 601,917 171 601,Nan,Ayuntamiento,Lunes-viernes continua,9:00-16:00,Actividades extraescolares 16:00-17:00,-,Iii,2,Si,Si,-,No,Techado en infantil,"Canastas, porterías, postes de voleibol, columpios",Fuente,"7641,82",-,Nan,Nan,Nan,"17 , 121 , 131 , 138", aluche,Aluche,Calle camarena 247
55,5132,Colegio público cristóbal colón,"Transporte, comedor, horario ampliado, planes de mejora, integración preferente (trastornos generales del desarrollo)",Enseñanza: educación infantil - primaria,0,Http://www.madrid.es/sites/v/index.jsp?vgnextchannel=bfa48ab43d6bb410vgnvcm100000171f5a0arcrd&vgnextoid=324ca3f5ca71c010vgnvcm1000000b205a0arcrd,Madrid,Madrid,28041,San Andres,Villaverde,440041,4466883,917 973 312,917 973 312,Nan,Ayuntamiento,Lunes-viernes continua,9:00-16:00,Centro de día cruz roja 16:00-21:00 lunes-viernes,-,I,1,Si,Si,-,Si,Si (60m²),"Porterías, canastas, columpios, bancos",Alumbrado,"2034,97",Regular,Nan,Nan,Nan,"22 , 76 , 86 , 130 , 131", puente alcocer,Nan,Carretera carabanchel a villaverde 109
56,5133,Colegio público cuba,"Comedor, horario ampliado, transporte, planes de mejora",Enseñanza: educación infantil - primaria,0,Http://www.madrid.es/sites/v/index.jsp?vgnextchannel=bfa48ab43d6bb410vgnvcm100000171f5a0arcrd&vgnextoid=875ca3f5ca71c010vgnvcm1000000b205a0arcrd,Madrid,Madrid,28024,Aluche,Latina,435382,4471888,915 187 564,915 180 170,Nan,Ayuntamiento,Lunes-viernes continua,9:00-16:00,Actividades extraescolares 16:00-18:00,Proyecto de tratamiento de dificultades de aprendizaje,I,1,Si,Si,-,Si,No,"Canastas, arenero, columpio, caseta, juegos pintados en el suelo",No,"2986,57",Mejorable,Nan,Nan,Nan," 25 , 121 , 131 , 138",Nan,"Campamento , empalme",Calle tembleque 58
57,5134,Colegio público dámaso alonso,"Horario ampliado, transporte, comedor, planes de mejora",Enseñanza: educación infantil - primaria - enseñanza biling&amp;uuml;e,0,Http://www.madrid.es/sites/v/index.jsp?vgnextchannel=bfa48ab43d6bb410vgnvcm100000171f5a0arcrd&vgnextoid=dc6ca3f5ca71c010vgnvcm1000000b205a0arcrd,Madrid,Madrid,28021,San Andres,Villaverde,439791,4466407,917 970 620,917 970 620,Nan,Ayuntamiento,Lunes-viernes continua,9:00-16:00,Emilia del,-,Iii,1,Si,Si (av. espinela),No,No,Arbolado escaso,Canastas,"Alumbrado, fuente","245,07",Regular (se generan charcos),Parque plata y castañar,"Centro cultural ágata, polideportivo plata y castañar",Nan," 22 , 79 , 86 , 130 , 131",Nan,Nan,Avenida espinela 1
58,5135,Colegio público daniel vázquez díaz,"Comedor, horario ampliado, planes de mejora, integración preferente (trastornos generales del desarrollo)",Enseñanza: educación infantil - primaria,0,Http://www.madrid.es/sites/v/index.jsp?vgnextchannel=bfa48ab43d6bb410vgnvcm100000171f5a0arcrd&vgnextoid=228ca3f5ca71c010vgnvcm1000000b205a0arcrd,Madrid,Madrid,28039,Valdezarza,Moncloa-Aravaca,439552,4479590,914 505 842,913 117 764,Nan,Ayuntamiento,Lunes-viernes,9:00-16:00,Actividades extraescolares 16:00-17:00,"Actividades de conciliación familiar, social y laboral 7:30-20:00",Ii,2,Si,Si,Nan,Si,Si (330 m²),Canastas,Fuente,"729,30 + 744,27 + 767,81",Nan,Regular (grietas y desniveles en el suelo),"Parque de valdeacederas (350m), dehesa de la villa (600m)","Cdm fernando martín (600m), cdm ciudad de los poetas (700m)"," 126 ,127 , 128 , 132",Nan,Valdezarza,Calle armenteros 46
59,5096,Colegio público de practicas asunción rincón,"Comedor, horario ampliado, planes de mejora",Enseñanza: educación infantil - primaria - enseñanza biling&amp;uuml;e,0,Http://www.madrid.es/sites/v/index.jsp?vgnextchannel=bfa48ab43d6bb410vgnvcm100000171f5a0arcrd&vgnextoid=28d9a3f5ca71c010vgnvcm1000000b205a0arcrd,Madrid,Madrid,28003,Vallehermoso,Chamberi,439704,4476829,915 542 118,915 345 120,Nan,Comunidad,Lunes-viernes partida,9:00-16:00,Actividades extraescolares 16:00-17:00,-,Ii,4,Si,Si,-,Si,Si (en un patio),"Canastas, porterías, bancos",Fuentes (2patios),"652,2",Mejorable (suelos levantados),"Parque santander (300m), parque enrique herreros (750m), parque san juan crisostomo (850m)","Cdm vallehermoso (170m), instalaciones deportivas canal (300m), casa de cultura y participación chamberi (800m)","Varios patios, uno con acceso a calle. "," 2 , 12 , 202",Nan,Islas filipinas,Avenida filipinas 5
60,5136,Colegio público dionisio ridruejo,"Comedor, horario ampliado, planes de mejora",Enseñanza: educación infantil - primaria - enseñanza biling&amp;uuml;e,0,Http://www.madrid.es/sites/v/index.jsp?vgnextchannel=bfa48ab43d6bb410vgnvcm100000171f5a0arcrd&vgnextoid=779ca3f5ca71c010vgnvcm1000000b205a0arcrd,Madrid,Madrid,28033,Pinar Del Rey,Hortaleza,446211,4480453,917 639 188,917 639 188,Nan,Ayuntamiento,Lunes-viernes continua,9:00-16:00,Actividades extraescolares 16:00-17:00,-,I,2,Si,Si (c/ zipaquira),C/  carare,Si,Porche (en patio delantero),"Porterías, canastas ",Alumbrado (patio delantero),"2729,4","Un patio recién reformado, otro en mal estado",Nan,Nan,Nan," 72 , 87",Nan,San lorenzo,Calle zipaquira 14
61,5137,Colegio público doctor conde arruga,"Comedor, horario ampliado",Enseñanza: educación infantil - primaria - enseñanza biling&amp;uuml;e,0,Http://www.madrid.es/sites/v/index.jsp?vgnextchannel=bfa48ab43d6bb410vgnvcm100000171f5a0arcrd&vgnextoid=ccaca3f5ca71c010vgnvcm1000000b205a0arcrd,Madrid,Madrid,28030,Vinateros,Moratalaz,445389,4472778,917 732 393,917 737 286,Nan,Ayuntamiento,Lunes-viernes continua,9:00-16:00,Actividades extraescolares 16:00-17:00,-,Iii,1,Si,Si (c/ hacienda de pavones),C/ pico de artilleros,No,Corredores exteriores techados,"Canastas, bancos",Alumbrado débil,"1414,98","Bueno en una parte, zonas pendientes de arreglar ","Parque de los patines (300m), parque el torito (450m)",Centro cultural el torito (550m),Nan," 20 , 30 , 71 , 100",Nan,Artilleros,Calle hacienda de pavones 105
62,5138,Colegio público doctor federico rubio,"Comedor, planes de mejora, horario ampliado",Enseñanza: educación infantil - primaria,0,Http://www.madrid.es/sites/v/index.jsp?vgnextchannel=bfa48ab43d6bb410vgnvcm100000171f5a0arcrd&vgnextoid=12cca3f5ca71c010vgnvcm1000000b205a0arcrd,Madrid,Madrid,28039,Bellas Vistas,Tetuan,439682,4478218,914 502 091,914 595 006,Nan,Ayuntamiento,Lunes-viernes continua,9:00-16:00,Actividades extraescolares 16:00-17:00,Cruz roja 16:00-20:00. 'patios abiertos' fin de semana (antes de pandemia),Iii,2,Si,Si,-,No,"Porche, toldo (10x8m), arbolado","Porterías, canastas, grada, columpio",Alumbrado ,"1850,2",Muy bueno,"Parque francos rodriguez (290m), parque del canalillo (400m), dehesa de la villa (800m)","Cdm francos rodriguez (290m), biblioteca manuel vazquez (700m), centro cultural juan gris (800m)",Nan," 44 , 127",Nan,Francos rodríguez,Avenida doctor federico rubio y gali 53
63,5140,Colegio público doctor severo ochoa,"Comedor, transporte, planes de mejora",Enseñanza: educacion infantil - primaria - enseñanza biling&amp;uuml;e,0,Http://www.madrid.es/sites/v/index.jsp?vgnextchannel=bfa48ab43d6bb410vgnvcm100000171f5a0arcrd&vgnextoid=67dca3f5ca71c010vgnvcm1000000b205a0arcrd,Madrid,Madrid,28032,Ambroz,Vicalvaro,448041,4473688,917 752 715,917 750 711,Nan,Ayuntamiento,Lunes-viernes continua,9:00-16:00,Actividades extraescolares 16:00-18:00,"Colegio de polaco, sábados 9:00-14:00",I,1,Si,Si (c/ ezcaray),No,Si (en infantil),2 porches (45 y 100m²),"Porterías, canastas, columpios",Alumbrado,"3171,8",Bueno (pero pinturas desconchadas),Parque cuña verde de vicálvaro (0m),"Biblioteca vicálvaro (900m), centro cultural el madroño (900m)",Nan," 4 , 100 , 106 , 130",Nan,Nan,Calle ezcaray 3
64,5141,Colegio público doctor tolosa latour,"Comedor, horario ampliado, planes de mejora",Enseñanza: educación infantil - primaria - enseñanza biling&amp;uuml;e,0,Http://www.madrid.es/sites/v/index.jsp?vgnextchannel=bfa48ab43d6bb410vgnvcm100000171f5a0arcrd&vgnextoid=bceca3f5ca71c010vgnvcm1000000b205a0arcrd,Madrid,Madrid,28018,Palomeras Sureste,Puente De Vallecas,445505,4470356,91 778 47 94,917 777 679,Nan,Ayuntamiento,Lunes-viernes continua,9:00-16:00,Actividades extraescolares 16:00-17:30,-,I,4,Si (solo 1 patio),Si,-,"Sí, en dos patios","Si (12x7, 7x19, 12x7)","Porterías, canastas","Alumbrado, fuentes","3150,08",Deteriorado (solera y gradas necesitan arreglo),"Parque lineal de palomeras (90m), parque de la paloma (250m)",Biblioteca miguel hernandez (300m),Nan," 54 , 144",Nan,Nan,Calle asturianos 4
65,6024,Colegio público eduardo rojo,"Comedor, horario ampliado, integración preferente (trastornos generales del desarrollo), enseñanza biling&amp;uuml;e",Enseñanza: educación infantil - primaria,0,Http://www.madrid.es/sites/v/index.jsp?vgnextchannel=bfa48ab43d6bb410vgnvcm100000171f5a0arcrd&vgnextoid=f6c4ae10c471c010vgnvcm1000000b205a0arcrd,Madrid,Madrid,28018,Palomeras Bajas,Puente De Vallecas,443745,4470970,914 774 560,914 784 525,Nan,Ayuntamiento,Lunes-viernes continua,9:00-15:00,-,-,Ii,1,Si,Si (c/ eduardo rojo),-,Sí,Si,"Porterías, canastas, columpios, bancos, zona de tierra",No,"2483,987",Bueno,"Parque del payaso fofó (300m), parque amós acero (350m)",Cdm vallecas (750m),Nan," 57, 103, 111, 144, 310",Nan,Nan,Calle eduardo rojo 5
66,5144,Colegio público eeuu - huarte de san juan,"Comedor, transporte, planes de mejora- horario ampliado",Enseñanza: educación infantil - primaria enseñanza bling&amp;uuml;e,0,Http://www.madrid.es/sites/v/index.jsp?vgnextchannel=bfa48ab43d6bb410vgnvcm100000171f5a0arcrd&vgnextoid=020da3f5ca71c010vgnvcm1000000b205a0arcrd,Madrid,Madrid,28008,Casa De Campo,Moncloa-Aravaca,437765,4475600,915 418 978 - 915 420 841,915 594 699,Nan,Ayuntamiento,Lunes-viernes,9:00-16:00,Actividades extraescolares 16:00-20:00,Nan,Ii,3,Si,Si (patio exterior),-,Si,Si,"Porterías, canastas",No,"739,92",Nan,Bueno,"Río manzanares (140m), casa de campo (750m)","Centro cultural agustín díaz (190m), cdm jose mª cagigal (550m)"," 41 , 75",Nan,Nan,Paseo comandante fortea 71
67,42014,Colegio público el espinillo,Comedor,Enseñanza: educación infantil - primaria,0,Http://www.madrid.es/sites/v/index.jsp?vgnextchannel=bfa48ab43d6bb410vgnvcm100000171f5a0arcrd&vgnextoid=0d77598d1351c010vgnvcm1000000b205a0arcrd,Madrid,Madrid,28041,Los Rosales,Villaverde,441135,4468120,917 237 434 - 913 182 512,917 237 434,Nan,Ayuntamiento,Lunes-viernes continua,9:00-16:00,"Actividades extraescolares, centro de día cruz roja 16:00-20:00",-,Iii,3,No (escalones),Si (c/ unanimidad y c/ círculo),-,Si,No,"Porterías, canastas",Alumbrado,"3970,37",Mejorable (suelos deteriorados),Nan,Nan,Nan," 22 , 59 , 85 , 79 , 123",Nan,Nan,Calle unanimidad 1
68,176810,Colegio público el greco,"Comedor, horario ampliado",Enseñanza: segundo ciclo de infantil - educación primaria,0,Http://www.madrid.es/sites/v/index.jsp?vgnextchannel=bfa48ab43d6bb410vgnvcm100000171f5a0arcrd&vgnextoid=b9f34b6faa61c010vgnvcm1000000b205a0arcrd,Madrid,Madrid,28021,Butarque,Villaverde,442785,4466530,917 100 008 - 917 973 463,917 983 281,Cp.elgreco.madrid@educa.madrid.org,Ayuntamiento,Lunes-viernes continua,9:00-16:00,Actividades extraescolares 16:00-18:30,-,Iii,3,Si (patio delantero),Si,-,No,No,"Porterías, canastas",No ,"5708,12",Mejorable (grietas en suelo),Nan,Nan,Nan," se los rosales , 85 , 123",Villaverde bajo,Nan,Calle estefanita 7
69,5220,Colegio público el madroño,"Comedor, horario ampliado, planes de mejora",Enseñanza: educación infantil - primaria,0,Http://www.madrid.es/sites/v/index.jsp?vgnextchannel=bfa48ab43d6bb410vgnvcm100000171f5a0arcrd&vgnextoid=571da3f5ca71c010vgnvcm1000000b205a0arcrd,Madrid,Madrid,28038,Numancia,Puente De Vallecas,444572,4472813,915 014 668,915 013 612,Nan,Ayuntamiento,Lunes-viernes continua,9:00-16:00,Actividades extraescolares y alfabetización de adultos 16:00-17:15,"Asociación de vecinos 17:30-19:30 lunes, miércoles y jueves ",I,3,Si (faltan rampas para accesibilidad total en todo el patio),Si (c/ marismas),-,Sí,Un patio completamente cubierto,"Ajedrez, columpio, canastas, porterías",No,"2066,1088",Algo deteriorado (grietas desde febrero 2021),Parque cerro del tío pío (300m),-,Nan," 63 , 141 , 143 , e",Nan,Nan,Calle las marismas 14
70,5339,Colegio público el quijote,"Comedor, transporte, horario ampliado, planes de mejora, convenio con british council",Enseñanza: educación infantil - primaria,0,Http://www.madrid.es/sites/v/index.jsp?vgnextchannel=bfa48ab43d6bb410vgnvcm100000171f5a0arcrd&vgnextoid=ac2da3f5ca71c010vgnvcm1000000b205a0arcrd,Madrid,Madrid,28031,Casco H.Vallecas,Villa De Vallecas,447045,4469557,913 800 214,913 800 246,Nan,Ayuntamiento,Lunes-viernes continua,9:00-16:00,Nan,-,I,1,Si,Si (c/ puerto de porzuna),-,Si,"Porche (en zona infantil), arbolado","Porterías, canastas, juegos",Alumbrado,"3021,29 +  2059,80",Aceptable,Parque navamures (230m),"Cdm miguel guillen (120m), espacio almudena grandes (260m), biblioteca gerardo diego (500m)",Nan," 54 , 142",Nan,Congosto,Calle fuentidueña 4
71,64474,Colegio público el sol,"Comedor, transporte, horario ampliado, integración preferente: audtitivos- planes de mejora",Enseñanzas   segundo ciclo de educación infantil educación primaria  educación especial:  educación infantil  educación básica obligatoria,0,Http://www.madrid.es/sites/v/index.jsp?vgnextchannel=bfa48ab43d6bb410vgnvcm100000171f5a0arcrd&vgnextoid=e667598d1351c010vgnvcm1000000b205a0arcrd,Madrid,Madrid,28022,Arcos,San Blas-Canillejas,448112,4474999,91 777 76 79  (colegio público) / 913 060 345 / 913 060 347 (educación especial),913 060 347,Cp.elsol.madrid@educa.madrid.org (educación especial),Ayuntamiento,Lunes-viernes continua,9:00-16:00,Actividades extraescolares 16:00-17:00,Actividades deportivas 17:00-20:30,Ii,3,Si,Si,Nan,Si,"Soportales y techados, arbolado","Porterías, canastas",Alumbrado débil,"743,18",Bueno (recién arreglado),Nan,Nan,Colegio de educación especial. ," 48 , 109 , 140",Nan,Nan,Avenida canillejas a vicalvaro 82
72,5145,Colegio público emilia pardo bazán,"Comedor, planes de mejora",Enseñanza: educación infantil - primaria - enseñanza biling&amp;uuml;e -,0,Http://www.madrid.es/sites/v/index.jsp?vgnextchannel=bfa48ab43d6bb410vgnvcm100000171f5a0arcrd&vgnextoid=f14da3f5ca71c010vgnvcm1000000b205a0arcrd,Madrid,Madrid,28005,Embajadores,Centro,440135,4473146,915 306 059,915 275 184,Nan,Ayuntamiento,Lunes-viernes continua,9:00-16:00,Actividades extraescolares 16:00-18:00,-,I,2,Si,Si (c/ casino),Acceso principal del centro,Sí,Toldo (destruido),Canastas,Alumbrado,"360,15",Regular,Parque casino de la reina (6m),"Espacio tabacalera (230m), centro cultural la corrala (550m)",Frente a un parque muy amplio. ,"27, 34, 36, 41, 60, 119, 148, c1, c2", embajadores,Embajadores,Calle ventorrillo 14
73,5148,Colegio público ermita del santo,"Comedor, horario ampliado, planes de mejora",Enseñanza: educación infantil - primaria,0,Http://www.madrid.es/sites/v/index.jsp?vgnextchannel=bfa48ab43d6bb410vgnvcm100000171f5a0arcrd&vgnextoid=9c6da3f5ca71c010vgnvcm1000000b205a0arcrd,Madrid,Madrid,28011,Puerta Del Angel,Latina,438623,4473619,914 642 590,914 642 590,Nan,Ayuntamiento,Lunes-viernes continua,9:00-16:00,Ludoteca 16:00-17:30,-,Iii,5,No,Si,-,No,Si,"Porterías, juegos",Alumbrado,"1977,37",-,Nan,Nan,Nan," 25 , 138",Nan,Nan,Paseo ermita del santo 18
74,5149,Colegio público escuelas aguirre,"Comedor, horario ampliado, integración (preferentemente auditivos)",Enseñanza: educacion infantil - primaria - enseñanza biling&amp;uuml;e,0,Http://www.madrid.es/sites/v/index.jsp?vgnextchannel=bfa48ab43d6bb410vgnvcm100000171f5a0arcrd&vgnextoid=e18da3f5ca71c010vgnvcm1000000b205a0arcrd,Madrid,Madrid,28009,Niño Jesus,Retiro,442787,4473989,915 741 864,915 044 683,Nan,Ayuntamiento,Lunes-viernes partida,9:00-16:00,Actividades extraescolares 16:00-18:00,"Actividades deportivas 18:00-20:00, torneos deportivos fin de semana",Ii,2,Si,Si,-,Si,2 porches en primaria (444m²),"Canastas, porterías, bancos, columpios","Alumbrado, 2 fuentes","3836,4691",Bueno (reformas recientes),Parque del retiro (400m),"Centro deportivo smp (300m), biblioteca popular jardines de herrero palacios (450m), biblioteca popular del ayuntamiento (650m)",Nan," 20 , 26 , 63 , 69 , 152",Nan,Nan,Calle pio baroja 4
75,5150,Colegio público escuelas bosque,"Comedor, transporte, integración (preferentemente motóricos), horario ampliado, planes de mejora",Enseñanza: educación infantil - primaria - enseñanza biling&amp;uuml;e,1,Http://www.madrid.es/sites/v/index.jsp?vgnextchannel=bfa48ab43d6bb410vgnvcm100000171f5a0arcrd&vgnextoid=379da3f5ca71c010vgnvcm1000000b205a0arcrd,Madrid,Madrid,28039,Valdezarza,Moncloa-Aravaca,439697,4479154,91 450 50 60- 91 459 05 57,91 459 05 57,Cp.escuelasbosque.madrid@educa.madrid.org,Ayuntamiento,Lunes-viernes,9:00-16:00,Actividades extraescolares 16:00-17:30,Asociación deportiva 18:00-19:00,I,2,Si,Si,-,Si,Si,"Porterías, canastas, bancos, columpios","Alumbrado, fuentes","4507,08",Nan,Bueno,"Dehesa de la villa (450m), parque rodriguez sahagún (650m)","Cdm fernando martín (220m), centro cultural juan gris (260m), biblioteca manuel vázquez montalban (450m)"," 44 , 64 , 126 , 127 , 128 , 132",Nan,Francos rodríguez,Avenida santo angel de la guarda 4
76,5245,Colegio público esperanza,"Comedor, horario ampliado, planes de mejora",Enseñanza: educación infantil - primaria - enseñanza biling&amp;uuml;e,0,Http://www.madrid.es/sites/v/index.jsp?vgnextchannel=bfa48ab43d6bb410vgnvcm100000171f5a0arcrd&vgnextoid=8cada3f5ca71c010vgnvcm1000000b205a0arcrd,Madrid,Madrid,28043,Canillas,Hortaleza,445250,4479176,913 003 012,913 003 012,Nan,Ayuntamiento,Lunes-viernes partida,7:30-17:30,Actividades extraescolares 16:00-18:00,-,Iii,2,No (escaleras de acceso),Si (c/ andorra y c/ gomeznarro),-,No,No,"Porterías, canastas ",No,"1382,62",Aceptable,Nan,Nan,Nan," 73 , 120 , 122",Nan,Esperanza,Calle andorra 12
77,5152,Colegio público eugenio maría de hostos,"Comedor, horario ampliado, planes de mejora",Enseñanza: educación infantil - primaria - enseñanza biling&amp;uuml;e,0,Http://www.madrid.es/sites/v/index.jsp?vgnextchannel=bfa48ab43d6bb410vgnvcm100000171f5a0arcrd&vgnextoid=27dda3f5ca71c010vgnvcm1000000b205a0arcrd,Madrid,Madrid,28039,Valdezarza,Moncloa-Aravaca,439152,4480079,913 736 366,913 866 937,Nan,Ayuntamiento,Lunes-viernes,9:00-16:00,Actividades extraescolares 16:00-17:00,Nan,Ii,2,Si (una entrada),Si,-,Si,Porche pequeño,"Porterías, canastas, bancos, columpios",Alumbrado,"3510,71",Nan,Bueno,Parque luisa carnés (270m),"Centro cultural julio cortázar (350m), cdm ciudad de los poetas (450m)"," 42 , 127 , 132",Nan,Antonio machado,Calle valdevarnes 26
78,5155,Colegio público felipe ii,"Comedor, planes de mejora",Enseñanza: educación infantil - primaria,1,Http://www.madrid.es/sites/v/index.jsp?vgnextchannel=bfa48ab43d6bb410vgnvcm100000171f5a0arcrd&vgnextoid=c10ea3f5ca71c010vgnvcm1000000b205a0arcrd,Madrid,Madrid,28029,Almenara,Tetuan,440718,4480483,913 157 353,917 339 393,Nan,Ayuntamiento,Lunes-viernes continua,9:00-16:00 ,Actividades extraescolares 16:00-17:00,Federacion madrileña de pingpong 17:00-22:00,Ii,2,Si,"Si (via limite, av. de asturias)  ",-,Si (en gimnasio),"Porche, arbolado","Porterías, canastas, columpios",No,"6394,34",Mejorable (pistas muy deterioradas),Parque de la ventilla ( 0m ),"Polideportivo antonio díaz miguel (450m), centro cultural eduardo úrculo (550m), biblioteca maría zambrano (550m),  casa de la juventud (650m)",Colegio colindante con espacio verde público (parque de la ventilla).  varias instalaciones fuera del centro escolar (gimnasio) ," 42 , 147",Nan,Ventilla,Avenida asturias 70
79,5156,Colegio público fernández de moratín,"Comedor, horario ampliado, comedor, planes de mejora",Enseñanza: educación infantil - primaria,0,Http://www.madrid.es/sites/v/index.jsp?vgnextchannel=bfa48ab43d6bb410vgnvcm100000171f5a0arcrd&vgnextoid=171ea3f5ca71c010vgnvcm1000000b205a0arcrd,Madrid,Madrid,28008,Casa De Campo,Moncloa-Aravaca,438305,4475377,915 479 787 - 915 596 791,915 596 791,Nan,Ayuntamiento,Lunes-viernes partida,9:00-16:00,Actividades extraescolares 16:00-17:00,"Uso de pistas deportivas 16:00-18:15, grupo huerteamos viernes 17:00-19:00",I,3,Si,Si (av. de valladolid),-,Si,Arbolado,"Porterías, canastas, bancos, grada",No,"3070,76",Nan,Bueno (recién reformado),"Parque de la bombilla (0m), río manzanares (150m)","Idm san antonio de la florida (94m), centro cultural agustín días (700m)"," 46 , 75",Nan,Nan,Avenida valladolid 2
80,5158,Colegio público fernando el católico,"Comedor, horario ampliado, planes de mejora",Enseñanza: educación infantil - primaria - enseñanza biling&amp;uuml;e,1,Http://www.madrid.es/sites/v/index.jsp?vgnextchannel=bfa48ab43d6bb410vgnvcm100000171f5a0arcrd&vgnextoid=6c2ea3f5ca71c010vgnvcm1000000b205a0arcrd,Madrid,Madrid,28015,Arapiles,Chamberi,439802,4476182,914 442 902,914 469 251,Nan,Ayuntamiento,Lunes-viernes continua,9:00-16:00,Actividades deportivas y servicios sociales 16:00-20:00,-,Iii,2,Si,Si (un patio en uso hasta 20:00),-,No,No,"Porterías, canastas, bancos",Alumbrado ,"262,4",Aceptable,"Parque jose luis sampedro (120m), jardines concejal alejandro muñoz (250m)","Centro cultural galileo (90m), biblioteca dionisio segura (600m), cdm vallehermoso (900m)","Patios disgregados, uno de ellos con acceso a calle "," 16 , 61 , 149",Nan,Quevedo,Calle fernando el catolico 16
81,5159,Colegio público filósofo séneca,"Comedor, horario ampliado, planes de mejora",Enseñanza: educación infantil - primaria,0,Http://www.madrid.es/sites/v/index.jsp?vgnextchannel=bfa48ab43d6bb410vgnvcm100000171f5a0arcrd&vgnextoid=b14ea3f5ca71c010vgnvcm1000000b205a0arcrd,Madrid,Madrid,28033,Pinar Del Rey,Hortaleza,444885,4481058,917 638 145,913 817 216,Nan,Ayuntamiento,Lunes-viernes continua,9:00-16:00,Actividades extraescolares 16:00-17:00,Entrenamientos fútbol asociación alacrán 17:00-18:15,Iii,2,Si (pero barreras en los patios),Si (c/ sta adela),C/ abizanda,No,Si (15x4m),"Porterías, canastas, juegos","Alumbrado, fuentes","3191,31",Bueno,Nan,Polideportivo municipal hortaleza,Nan," 9 , 107",Nan,Parque de santa maría,Calle santa adela 21
82,5160,Colegio público fontarrón,"Comedor, transporte, integración (preferentemente motóricos), horario ampliado, planes de mejora",Enseñanza: educación infantil - primaria - enseñanza biling&amp;uuml;e,1,Http://www.madrid.es/sites/v/index.jsp?vgnextchannel=bfa48ab43d6bb410vgnvcm100000171f5a0arcrd&vgnextoid=075ea3f5ca71c010vgnvcm1000000b205a0arcrd,Madrid,Madrid,28030,Pavones,Moratalaz,446341,4472013,917 720 378,913 050 045,Cp.fontarron.madrid@educa.madrid.org,Ayuntamiento,Lunes-viernes continua,9:30-16:30,Actividades extraescolares 16:30-17:30,Centro de día cruz roja 16:30-20:30,I,3,Si,Si (c/ arroyo fontarron),-,Si,Porches,"Porterías, canastas, bancos, mesas, juegos",Alumbrado,"4042,19",Bueno,Área infantil fontarrón (100m),"Polideportivo moratalaz (500m), centro sociocultural moratalaz (700m)",Nan," 8 , 20 , 30 , 45 , 63 , 71 , 100 , 143 , e",Nan,Nan,Calle arroyo fontarron 24
83,5161,Colegio público francisco arranz,"Transporte, comedor, horario ampliado, planes de mejora",Enseñanza: educación infantil - primaria,0,Http://www.madrid.es/sites/v/index.jsp?vgnextchannel=bfa48ab43d6bb410vgnvcm100000171f5a0arcrd&vgnextoid=5c6ea3f5ca71c010vgnvcm1000000b205a0arcrd,Madrid,Madrid,28044,Las Aguilas,Latina,435262,4469652,917 066 882,917 066 882,Nan,Comunidad,Lunes-viernes continua,9:00-16:00,Actividades extraescolares 16:00-17:30,-,Ii,1,Si,Si (c/ muntadas),Principal del centro,Si,No,"Porterías, canastas, arenero, bancos",No,"2689,44",Mejorable (pistas sin asfaltar),Nan,Nan,Entrada con escaleras., 34,Nan,Nan,Calle sondica 2
84,5162,Colegio público francisco de goya,"Comedor, horario ampliado, planes de mejora",Enseñanza: educación infantil - primaria,0,Http://www.madrid.es/sites/v/index.jsp?vgnextchannel=bfa48ab43d6bb410vgnvcm100000171f5a0arcrd&vgnextoid=a18ea3f5ca71c010vgnvcm1000000b205a0arcrd,Madrid,Madrid,28011,Puerta Del Angel,Latina,438250,4473651,914 637 472,914 633 270,Nan,Ayuntamiento,Lunes-viernes continua,9:00-16:00,Actividades extraescolares 16:00-19:00,-,Iii,2,No,Si,-,Si,2 techados,Canastas,Alumbrado,"462,83",-,Nan,Nan,Nan," 31 , 33 , 36 , 39 , 65 , 138",Nan,Puerta del angel,Calle antillon 23
85,5163,Colegio público francisco de luis,"Comedor, horario ampliado, planes de mejora",Enseñanza: educación infantil - primaria,0,Http://www.madrid.es/sites/v/index.jsp?vgnextchannel=bfa48ab43d6bb410vgnvcm100000171f5a0arcrd&vgnextoid=f69ea3f5ca71c010vgnvcm1000000b205a0arcrd,Madrid,Madrid,28030,Media Legua,Moratalaz,443975,4473345,914 394 600,913 284 275,Nan,Ayuntamiento,Lunes-viernes continua,9:00-16:00,-,-,I,3,Si,Si (c/ corregidor rodrigo rodríguez),C/ corregidor diego de valderrábanos,Si,"Porches, arbolado","Porterías, canastas, columpios",No,"1096,98 + 1042,01 + 632,80",Mejorable (instalaciones muy deterioradas),Parque ramón areces (230m),Biblioteca miguel delibes (850m),Nan," 8 , 20 , 30 , 32 , 113",Nan,Estrella,Calle corregidor rodrigo rodriguez 5
86,5164,Colegio público francisco de quevedo,"Comedor, horario ampliado, planes de mejora",Enseñanza: educación infantil - primaria,0,Http://www.madrid.es/sites/v/index.jsp?vgnextchannel=bfa48ab43d6bb410vgnvcm100000171f5a0arcrd&vgnextoid=4caea3f5ca71c010vgnvcm1000000b205a0arcrd,Madrid,Madrid,28007,Pacifico,Retiro,442357,4472902,915 515 211,914 333 827,Nan,Ayuntamiento,Lunes-viernes continua,9:00-16:00,-,-,Iii,1,Si,Si (c/ narciso serra),Principal (c/ granada),Si,Porche pequeño,No,Alumbrado,"150,898",Regular,Parque del retiro (500m),"Cdm daoiz y velarde (500m), biblioteca elena fortún (750m)",Nan," 24 , 37 , 54 , 57 , 102 , 141 , 152",Nan,Menéndez pelayo,Calle granada 16
87,5165,Colegio público francisco fatóu,"Comedor, transporte, horario ampliado, planes de mejora, integración preferente (trastornos generales del desarrollo)",Enseñanza: educación infantil - primaria,0,Http://www.madrid.es/sites/v/index.jsp?vgnextchannel=bfa48ab43d6bb410vgnvcm100000171f5a0arcrd&vgnextoid=91cea3f5ca71c010vgnvcm1000000b205a0arcrd,Madrid,Madrid,28031,Casco H.Vallecas,Villa De Vallecas,447502,4469673,913 321 050,913 323 222,Nan,Ayuntamiento,Lunes-viernes continua,9:00-16:00,Actividades extraescolares 16:00-17:00,-,Iii,2,Si,Si (c/ camino de la suerte),-,No,"Porche, arbolado","Porterías, canastas, columpios",Alumbrado,"1630,65",Bueno (patio infantil mejorable),-,"Campo mar abierto (0m), espacio almudena grandes (350m), biblioteca gerardo diego (500m)",Nan," 58 , 142",Nan,Nan,Camino suerte 23
88,5166,Colegio público francisco ruano,Planes de mejora,Enseñanza: educación infantil - primaria,0,Http://www.madrid.es/sites/v/index.jsp?vgnextchannel=bfa48ab43d6bb410vgnvcm100000171f5a0arcrd&vgnextoid=e6dea3f5ca71c010vgnvcm1000000b205a0arcrd,Madrid,Madrid,28053,Entrevias,Puente De Vallecas,442826,4470162,917 862 196,917 862 196,Nan,Ayuntamiento,Lunes-viernes continua,9:00-16:00,-,-,I,1,Si,Si,Puerta principal,Sí,"Toldo muy pequeño, arbolado","Canastas, juegos, mesas de juego",Alumbrado (estropeado),"2649,36",Deteriorado,Parque de la hora feliz (350m),Cdm entrevías (350m),Nan,"24 , 102 , 111 , 144", entrevias,Nan,Calle almuradiel 150
89,5167,Colegio público fray junípero serra,"Comedor, horario ampliado, planes de mejora",Enseñanza: educación infantil - primaria,0,Http://www.madrid.es/sites/v/index.jsp?vgnextchannel=bfa48ab43d6bb410vgnvcm100000171f5a0arcrd&vgnextoid=3ceea3f5ca71c010vgnvcm1000000b205a0arcrd,Madrid,Madrid,28038,Numancia,Puente De Vallecas,444146,4471842,914 304 882,914 376 926,Nan,Ayuntamiento,Lunes-viernes continua,9:00-16:00,"Actividades extraescolares 16:00-17:00, programas municipales16:00-20:00","""quedamos al salirde clase"" y apoyo psicopedagógico 16:00-20:00",Iii,3,Si,Si,Si,"Sí, con acceso desde gimnasio",No,"Porterías, canastas, juegos",Fuente,"2312,53",-,Parque cerro del tío pío (140m),Centro cultural alberto sanchez (300m),Nan," 10 , 24 , 54 , 57 , 58 , 310 , 410",Nan,Nueva numancia,Camino valderribas 120
90,176824,Colegio público gabriela mistral,"Comedor, horario ampliado",Enseñanza: educación infantil - primaria - enseñanza biling&amp;uuml;e,0,Http://www.madrid.es/sites/v/index.jsp?vgnextchannel=bfa48ab43d6bb410vgnvcm100000171f5a0arcrd&vgnextoid=0f044b6faa61c010vgnvcm1000000b205a0arcrd,Madrid,Madrid,28050,Valverde,Fuencarral-El Pardo,443443,4484329,913 586 549,913 586 557,Nan,Ayuntamiento,Lunes-viernes partida,9:00-16:00,Actividades extraescolares 16:00-18:00,Asociaciones deportivas 18:00-23:00,Iii,2,Si,Si,-,No,No,"Porterías, canastas",Fuente,"2095,55",Bueno,Nan,Nan,Nan," 172, 176",Nan,Las tablas,Calle mirallos 3
91,5082,Colegio público gandhi,"Comedor, horario ampliado, planes de mejora",Enseñanza: educación infantil - primaria,0,Http://www.madrid.es/sites/v/index.jsp?vgnextchannel=bfa48ab43d6bb410vgnvcm100000171f5a0arcrd&vgnextoid=810fa3f5ca71c010vgnvcm1000000b205a0arcrd,Madrid,Madrid,28017,Pueblo Nuevo,Ciudad Lineal,446006,4474986,917 544 592 - 913 044 982,913 045 222,Nan,Ayuntamiento,Lunes-viernes continua,9:00-16:00,Actividades extraescolares 16:00-17:00,Centro de día cruz roja 16:00-20:00,Iii,2,Si,Si (c/ gandhi),-,No,Si (100m²),"Porterias, canastas, bancos, rocódromo, arenero con juegos","Alumbrado, fuente","3306,392",Regular (necesita mejoras),"Parque santurce (270m), parque arriaga (350m), parque de los tilos (400m)","Biblioteca pablo neruda (900m), cdm pueblo nuevo (900m)",Nan," 70 , 109 , 106",Nan,García noblejas,Calle gandhi 10
92,5168,Colegio público garcía morente,"Comedor, transporte, planes de mejora",Enseñanza: educación infantil - primaria,0,Http://www.madrid.es/sites/v/index.jsp?vgnextchannel=bfa48ab43d6bb410vgnvcm100000171f5a0arcrd&vgnextoid=d61fa3f5ca71c010vgnvcm1000000b205a0arcrd,Madrid,Madrid,28053,Entrevias,Puente De Vallecas,443505,4469411,917 852 016,917 856 013,Nan,Ayuntamiento,Lunes-viernes continua,9:00-16:00,-,"Cruz roja 16:00-20:00, entrenamientos de fútbol",Ii,1,Si (a una parte),Si,C/ barros,Sí,2 porches pequeños,"Porterías, canastas, pendientes de instalar juegos",Alumbrado,"2246,8",Actualmente en obras,Parque forestal de entrevías (30m),"Cdm alberto garcía (240m), centro cultural pozo de tío raimundo (500m)",Nan," 102 , 103 , 111",Nan,Nan,Ronda sur 229
93,5169,Colegio público garcilaso de la vega,"Comedor, horario ampliado, planes de mejora",Enseñanza: educación infantil - primaria - enseñanza biling&amp;uuml;e,0,Http://www.madrid.es/sites/v/index.jsp?vgnextchannel=bfa48ab43d6bb410vgnvcm100000171f5a0arcrd&vgnextoid=2c2fa3f5ca71c010vgnvcm1000000b205a0arcrd,Madrid,Madrid,28043,Canillas,Hortaleza,446243,4479785,913 882 060,917 161 701,Nan,Ayuntamiento,Lunes-viernes partida,9:00-16:00,Actividades extraescolares 16:00-18:00,-,Ii,2,Si,Si,-,Si,No,"Porterías, canastas, juegos",Alumbrado,"2243,66 + 1407,26",Bueno,Nan,Nan,Patios irregulares con pistas deportivas," 73 , 112 , 120",Nan,Canillas,Calle trefacio 18
94,5171,Colegio público giner de los ríos,"Comedor, transporte, planes de mejora",Enseñanza: educación infantil - primaria,0,Http://www.madrid.es/sites/v/index.jsp?vgnextchannel=bfa48ab43d6bb410vgnvcm100000171f5a0arcrd&vgnextoid=c65fa3f5ca71c010vgnvcm1000000b205a0arcrd,Madrid,Madrid,28053,Entrevias,Puente De Vallecas,443256,4470098,917 858 021,917 858 021,Nan,Ayuntamiento,Lunes-viernes continua,9:00-16:00,Actividades extraescolares,-,Ii,2,Si,Si,-,Sí,Si,"Porterías, canastas, columpios, bancos",No,"2876,27",Bueno,Parque forestal de entrevías (450m),"Cdm entrevías (550m), centro cultural paco rabal (950m)",Nan,"24 , 103 , 111 , 144", entrevias,Nan,Calle membezar 25
95,5172,Colegio público gloria fuertes,"Comedor, horario ampliado, planes de mejora",Enseñanza: educación infantil - primaria,0,Http://www.madrid.es/sites/v/index.jsp?vgnextchannel=bfa48ab43d6bb410vgnvcm100000171f5a0arcrd&vgnextoid=1c6fa3f5ca71c010vgnvcm1000000b205a0arcrd,Madrid,Madrid,28041,Orcasitas,Usera,440136,4468987,913 414 448 - 913 412 180,913 410 018,Nan,Ayuntamiento,Lunes-viernes continua,9:00-16:00,-,-,I,1,Si,Si,-,Si,No,-,No,"6632,07",-,Nan,Nan,Nan,"78 , 81 , 116", orcasitas,Nan,Calle censo 3
96,5173,Colegio público gonzalo de berceo,"Comedor, horario ampliado, planes de mejora",Enseñanza: educación infantil - primaria,0,Http://www.madrid.es/sites/v/index.jsp?vgnextchannel=bfa48ab43d6bb410vgnvcm100000171f5a0arcrd&vgnextoid=618fa3f5ca71c010vgnvcm1000000b205a0arcrd,Madrid,Madrid,28025,Abrantes,Carabanchel,438827,4470916,915 697 819 (infantil y primer ciclo de primaria) - 915 697 225 ( segundo y tercer ciclo primaria),91 469 21 74,Nan,Ayuntamiento,Lunes-viernes continua,9:00-16:00,Actividades extraescolares 16:00-17:30,-,Iii,1,Si,Si (av. abrantes),-,No,No,"Porterías, canastas",No,"4360,31",Regular ,Nan,Nan,Nan," 47 , 55 , 81 , 247",Nan,Plaza elíptica,Avenida abrantes 5
97,5174,Colegio público gonzalo fernández de córdoba,"Comedor, horario ampliado, planes de mejora",Enseñanza: educacion infantil - primaria - enseñanza biling&amp;uuml;e,0,Http://www.madrid.es/sites/v/index.jsp?vgnextchannel=bfa48ab43d6bb410vgnvcm100000171f5a0arcrd&vgnextoid=b69fa3f5ca71c010vgnvcm1000000b205a0arcrd,Madrid,Madrid,28024,Campamento,Latina,433863,4471797,917 113 625,917 113 735,Nan,Ayuntamiento,Lunes-viernes continua,9:00-16:00,Actividades extraescolares 16:00-17:00,-,Iii,2,Si,Si,-,No,No,"Canastas, porterías","Alumbrado, fuentes","668,63",-,Nan,Nan,Nan, 65,Nan,Nan,Calle adanero 3
98,5176,Colegio público guindalera,"Comedor, planes de mejora",Enseñanza: educación infantil - primaria,0,Http://www.madrid.es/sites/v/index.jsp?vgnextchannel=bfa48ab43d6bb410vgnvcm100000171f5a0arcrd&vgnextoid=0cafa3f5ca71c010vgnvcm1000000b205a0arcrd,Madrid,Madrid,28028,Guindalera,Salamanca,443428,4476507,917 252 437 - 913 559 839,917 255 776,Nan,Ayuntamiento,Lunes-viernes continua,9:00-16:00,Actividades extraescolares 16:00-17:00,"Campamentos y ludotecas, días no lectivos 7:30-17:00",Iii,3,Si,Si (c/ boston),Av. camilo josé cela,No,Porche,No (mal estado),No,"1071,23",Mejorable (a la espera de rehabilitación),Parque de breogán (600m),"Polideportivo boston (25m), centro cultural buenavista (850m)",Nan," 43 , 48 , 74 , 53",Nan,Parque avenidas,Calle boston 3
99,5177,Colegio público gustavo adolfo bécquer,"Comedor, horario ampliado, transporte, planes de mejora",Enseñanza: educación infantil - primaria - enseñanza biling&amp;uuml;e,0,Http://www.madrid.es/sites/v/index.jsp?vgnextchannel=bfa48ab43d6bb410vgnvcm100000171f5a0arcrd&vgnextoid=51cfa3f5ca71c010vgnvcm1000000b205a0arcrd,Madrid,Madrid,28017,Ventas,Ciudad Lineal,444943,4475023,914 051 507,914 053 498,Nan,Ayuntamiento,Lunes-viernes continua,9:00-16:00,Actividades extraescolares 16:00-18:00,-,Ii,6,Si,Si (c/ sta genoveva),-,Si,"Porche (80m2), cubierta practicable","Porterías, canastas",Alumbrado,"780,9",Mejorable (muy deteriorado),Parque la elipa (550m),"Instalación deportiva (60m), centro cultural la elipa (290m), biblioteca la elipa (350m), centro sociocultural ciudad lineal (350m)",Nan," 15 , 28 , 110 , 113 , 210",Nan,Nan,Calle santa genoveva 32
100,5178,Colegio público haití,"Comedor, horario ampliado, planes de mejora",Enseñanza: educación infantil - primaria,0,Http://www.madrid.es/sites/v/index.jsp?vgnextchannel=bfa48ab43d6bb410vgnvcm100000171f5a0arcrd&vgnextoid=a6dfa3f5ca71c010vgnvcm1000000b205a0arcrd,Madrid,Madrid,28047,Vista Alegre,Carabanchel,436762,4471084,914 220 250,914 651 108,Nan,Ayuntamiento,Lunes-viernes continua,9:00-16:00,"Actividades extraescolares 16:00-17:00, 16.00-18.00 centro de día y acompañamiento escolar paae",-,I,2,Si,Si (c/ juan alonso),-,Si,No,"Porterías, canastas, columpios",No,"1596,21","Necesita reforma el patio de infantil, primaria se reformó hace 5 años",No,"Polideportivo la mina, piscina",Nan," 17 , 35",Nan,"Carabanchel , eugenia de montijo",Calle guabairo 22
101,5179,Colegio público hermanos pinzón,"Comedor, horario ampliado","Enseñanza: educación infantil - primaria otra sede en c/ calamón, 3",0,Http://www.madrid.es/sites/v/index.jsp?vgnextchannel=bfa48ab43d6bb410vgnvcm100000171f5a0arcrd&vgnextoid=fbefa3f5ca71c010vgnvcm1000000b205a0arcrd,Madrid,Madrid,28024,Campamento,Latina,434759,4472282,915 186 040,915 186 040,Nan,Ayuntamiento,Lunes-viernes continua,9:00-16:00,Actividades extraescolares 16:00-17:00,-,Iii,2,Si,Si,-,No,Soportales,Canastas,Alumbrado,"461,59",-,Nan,Nan,Dos edificios diferentes (en diferentes calles). ," 36 , 39 , 65 , 121 , 131",Nan,Nan,Calle azor 4
102,5180,Colegio público hernán cortés,"Comedor, transporte, integración (preferentemente auditivos), horario ampliado, planes de mejora",Enseñanza: educación infantil - primaria - enseñanza biling&amp;uuml;e,0,Http://www.madrid.es/sites/v/index.jsp?vgnextchannel=bfa48ab43d6bb410vgnvcm100000171f5a0arcrd&vgnextoid=4100a3f5ca71c010vgnvcm1000000b205a0arcrd,Madrid,Madrid,28047,Aluche,Latina,436348,4471655,917 176 844,917 180 472,Nan,Ayuntamiento,Lunes-viernes continua,9:00-16:00,Actividades extraescolares 16:00-17:00,-,Iii,5,No,Si,-,No,2 porches,"Canastas, porterías, postes de voleibol",Alumbrado,"1359,64",-,Nan,Nan,"Varios patios a diferentes alturas, separados por escaleras y otros elementos arquitectónicos. "," 31 , 138 , 121",Nan,Nan,Calle los yebenes 241
103,5182,Colegio público honduras,"Comedor, transporte, horario ampliado, planes de mejora",Enseñanza: educación infantil - primaria,0,Http://www.madrid.es/sites/v/index.jsp?vgnextchannel=bfa48ab43d6bb410vgnvcm100000171f5a0arcrd&vgnextoid=9610a3f5ca71c010vgnvcm1000000b205a0arcrd,Madrid,Madrid,28031,Casco H.Vallecas,Villa De Vallecas,447305,4469870,913 325 719 - 913 317 441,913 325 719,Nan,Ayuntamiento,Lunes-viernes continua,9:00-16:00,Nan,-,Ii,2,Si,Si,-,Si (en primaria),Si,"Juegos (en infantil), bancos, papeleras",No,"464,38",Bueno,-,"Biblioteca gerardo diego (190m), espacio almudena grandes (280m), cdm miguel guillen (550m)",Nan," 54 , 58 , 103 , 142",Nan,Villa de vallecas,Paseo federico garcia lorca 19
104,31747,Colegio público hortaleza,"Comedor, horario ampliado, residencia",Enseñanza: educación infantil - primaria,0,Http://www.madrid.es/sites/v/index.jsp?vgnextchannel=bfa48ab43d6bb410vgnvcm100000171f5a0arcrd&vgnextoid=72f9059cb751c010vgnvcm2000000c205a0arcrd,Madrid,Madrid,28043,Pinar Del Rey,Hortaleza,445092,4480397,917 642 900,913 816 099,Nan,Ayuntamiento,Lunes-viernes continua,-,-,-,Iii,0,-,-,-,No,No,-,No,-,-,Nan,Nan,"Centro de acogida que forma parte del centro, tiene uso necesario de las instalaciones no permitiendo incorporación de programa"," 9 , 72 , 87 , 120 , 125",Nan,Nan,Calle valdetorres de jarama 1
105,5183,Colegio público ignacio zuloaga,"Comedor, horario ampliado, planes de mejora",Enseñanza: educación infantil - primaria,0,Http://www.madrid.es/sites/v/index.jsp?vgnextchannel=bfa48ab43d6bb410vgnvcm100000171f5a0arcrd&vgnextoid=eb20a3f5ca71c010vgnvcm1000000b205a0arcrd,Madrid,Madrid,28039,Bellas Vistas,Tetuan,439673,4478643,914 509 620,913 980 080,Cp.zuloaga.madrid@educa.madrid.org,Ayuntamiento,Lunes-viernes continua,9:00-16:00,Actividades extraescolares 16:00-17:30,-,Iii,1,No (patio un nivel por encima de la entrada),No,-,No,1 eucalipto grande,"Porterías, canastas, tobogán infantil",Alumbrado,"1658,93",-,"Parque francos rodriguez (400m), dehesa de la villa (600m)","Biblioteca manuel vazquez (290m), centro cultural juan gris (350m), cdm francos rodriguez (400m), polideportivo fernando martin (650m)",Nan," 44 , 126 , 127 , 128 , 132",Nan,Francos rodríguez,Calle alejandro rodriguez 34
106,176840,Colegio público infanta leonor,"Comedor, horario ampliado, planes de mejora",Enseñanza: educacion infantil - primaria - enseñanza biling&amp;uuml;e,0,Http://www.madrid.es/sites/v/index.jsp?vgnextchannel=bfa48ab43d6bb410vgnvcm100000171f5a0arcrd&vgnextoid=54244b6faa61c010vgnvcm1000000b205a0arcrd,Madrid,Madrid,28049,Mirasierra,Fuencarral-El Pardo,439827,4483668,917 508 788,917 508 847,Nan,Ayuntamiento,Lunes-viernes continua,9:00-17:30,Actividades extraescolares 16:00-17:30,"Partidos hockey 16:18:30 (esporádicos, 'patios abiertos' sábados",I,3,Si,Si (c/ monasterio del paular),-,Si (en gimnasio),Pérgolas pequeñas,"Porterías, canastas, columpios, arenero",Alumbrado ,"2986,9",Regular (pavimentos deteriorados),Nan,Nan,Participa actualmente de 'patios abiertos'. ,Nan,Nan,Nan,Calle monasterio de el paular 140
107,5184,Colegio público isaac albéniz,"Comedor, horario ampliado, planes de mejora",Enseñanza: educación infantil - primaria - enseñanza biling&amp;uuml;e,0,Http://www.madrid.es/sites/v/index.jsp?vgnextchannel=bfa48ab43d6bb410vgnvcm100000171f5a0arcrd&vgnextoid=3140a3f5ca71c010vgnvcm1000000b205a0arcrd,Madrid,Madrid,28016,Nueva España,Chamartin,443272,4479500,913 596 972,913 596 972,Nan,Ayuntamiento,Lunes-viernes,7:30-17:00,17:00-19:00,Programa psicopedagógico abierto al distrito ; actividad de la asociación síndrome down,Iii,2,Si (c/ carlos caamaño),Si (c/ carlos caamaño y c/ drácena),-,No,Porche (20m²),"Porterías, canastas",Alumbrado débil,"802,54",Bueno,Jardín gloria fuertes (750m),Instalación deportiva (90m),Nan," 29 , 52 , 70 ,107",Nan,Nan,Calle dracena 29
108,5185,Colegio público isaac peral,"Comedor, horario ampliado, planes de mejora",Enseñanza: educación infantil - primaria,0,Http://www.madrid.es/sites/v/index.jsp?vgnextchannel=bfa48ab43d6bb410vgnvcm100000171f5a0arcrd&vgnextoid=8650a3f5ca71c010vgnvcm1000000b205a0arcrd,Madrid,Madrid,28025,Puerta Bonita,Carabanchel,437964,4470890,914 726 780,914 726 780,Nan,Ayuntamiento,Lunes-viernes continua,9:00-16:00,Actividades extraescolares 16:00-18:30,Actividades socioeducativas y escuela de adultos,Iii,2,Si,Si (glorieta rufino novalvos),-,No,Pocos,"Porterías, canastas, columpios",No,"796,50 + 588,74",Bueno,Nan,Nan,Nan," 47 , 55 , 81 , 108 , 118 , 247",Nan,Oporto,Glorieta rufino novalvos 5
109,5186,Colegio público isabel la católica,"Comedor, horario ampliado, planes de mejora",Enseñanza: educación infantil - primaria - enseñanza biling&amp;uuml;e,1,Http://www.madrid.es/sites/v/index.jsp?vgnextchannel=bfa48ab43d6bb410vgnvcm100000171f5a0arcrd&vgnextoid=db60a3f5ca71c010vgnvcm1000000b205a0arcrd,Madrid,Madrid,28004,Justicia,Centro,440645,4475347,915 217 840,915 229 393,Nan,Comunidad,Lunes-viernes continua,9:00-16:00,-,"Voluntariado sábados 10:00-14:00, scouts sábados  14:00-21:00 y domingos 10:00-16:00",Iii,1,Si,Si (c/ beneficencia),-,No,Si (430m²),"Porterías, canastas, juegos","Alumbrado, fuentes","764,89",Bueno,"Plaza de barceló (0m), plaza de sta bárbara (350m)","Biblioteca mario vargas llosa (0m), cdm barceló (75m)",Nan," 3 , 21, 37",Nan,Tribunal,Calle barcelo 2
110,5190,Colegio público jaime balmes,"Comedor, integración (preferentemente auditivos), planes de mejora",Enseñanza: educación infantil - primaria - enseñanza biling&amp;uuml;e,0,Http://www.madrid.es/sites/v/index.jsp?vgnextchannel=bfa48ab43d6bb410vgnvcm100000171f5a0arcrd&vgnextoid=2180a3f5ca71c010vgnvcm1000000b205a0arcrd,Madrid,Madrid,28053,San Diego,Puente De Vallecas,443179,4471236,914 785 884,914 771 646,Nan,Ayuntamiento,Lunes-viernes continua,9:00-16:00,Actividades extraescolares 16:00-18:00,Save the children 16:00-18:00,I,2,Si,Si,Entrada principal del centro,Sí,No,"Portería, canastas",No,"909,02",Aceptable,"Parque amós acero (450m), parque la viña (550m)","Instalación deportiva básica (400m), centro cultural lope de vega (700m)",Nan," 24 , 102",Nan,Nan,Calle sierra de la solana 2
111,5191,Colegio público jaime vera,"Comedor, horario ampliado, planes de mejora",Enseñanza: educación infantil - primaria,0,Http://www.madrid.es/sites/v/index.jsp?vgnextchannel=bfa48ab43d6bb410vgnvcm100000171f5a0arcrd&vgnextoid=7690a3f5ca71c010vgnvcm1000000b205a0arcrd,Madrid,Madrid,28020,Cuatro Caminos,Tetuan,440394,4478218,915 723 019 - 915 723 026,915 709 453,Nan,Ayuntamiento,Lunes-viernes continua,8:00-16:00,Apoyo extraescolar 16:00,"Escuela de fútbol, tardes del cole",I,2,Si ,Si (c/ bravo murillo),C/ ávila,Si,"Toldo (en infantil), arbolado escaso","Porterías, canastas, columpios","Alumbrado, fuente","2564,84",Bueno,"Plaza poeta leopoldo de luis (120m), parque av. general peron (350m)","Entro cultural jose espronceda (500m), cdm playa victoria (800m)",La parcela incluye otras construcciones independientes del colegio," 3 , 43 , 64 , 66 , 124 , 128",Nan,Estrecho,Calle bravo murillo 162
112,5192,Colegio público javier de miguel,"Comedor, horario ampliado",Enseñanza: educación infantil - primaria - enseñanza biling&amp;uuml;e -,0,Http://www.madrid.es/sites/v/index.jsp?vgnextchannel=bfa48ab43d6bb410vgnvcm100000171f5a0arcrd&vgnextoid=cba0a3f5ca71c010vgnvcm1000000b205a0arcrd,Madrid,Madrid,28018,Palomeras Bajas,Puente De Vallecas,444219,4470829,913 035 102,913 805 770,Nan,Ayuntamiento,Lunes-viernes partida,9:00-16:00,Actividades extraescolares 16:00-17:00,Centro de día cruz roja 16:00-18:00,Ii,2,Si,Si (c/ javier de miguel),Nan,Sí,"Porche (100m²), arbolado","Porterías, canastas, columpios, bancos",Alumbrado,"2881,74",Necesita renovación de algunos elementos,Parque payaso fofó (230m),Cdm angel nieto (800m),Nan," 136, 310",Nan,Nan,Calle javier de miguel 90
113,5193,Colegio público joaquín costa,"Horario ampliado, comedor, planes de mejora, integración preferente (trastornos generales del desarrollo)",Enseñanza: educación infantil - primaria - enseñanza biling&amp;uuml;e -,0,Http://www.madrid.es/sites/v/index.jsp?vgnextchannel=bfa48ab43d6bb410vgnvcm100000171f5a0arcrd&vgnextoid=11c0a3f5ca71c010vgnvcm1000000b205a0arcrd,Madrid,Madrid,28005,Imperial,Arganzuela,439367,4473016,913 653 632 - 913 642 825,913 653 559,Nan,Ayuntamiento,Lunes-viernes continua,8:45-16:00,Actividades extraescolares 16:00-17:00,No,I,3,Si (un patio ),Si,-,Si (no accesibles),No,"Porterías, canastas, bancos",Alumbrado débil,"6322,18",Aceptable,"Parque villoslada (400m), parque de la cornisa (700m)","Biblioteca pedro salinas (450m), cdm marqués de samaranch (500m)",Nan," 3, 17, 18, 23, 35, 36, 41, 62, 148, c",Nan,"Puerta toledo, pirámides, acacias",Paseo pontones 8
114,5194,Colegio público joaquín dicenta,"Comedor, horario ampliado, planes de mejora",Enseñanza: educación infantil - primaria,0,Http://www.madrid.es/sites/v/index.jsp?vgnextchannel=bfa48ab43d6bb410vgnvcm100000171f5a0arcrd&vgnextoid=66d0a3f5ca71c010vgnvcm1000000b205a0arcrd,Madrid,Madrid,28011,Puerta Del Angel,Latina,437346,4473042,914 632 093,917 550 696,Nan,Ayuntamiento,Lunes-viernes continua,9:00-16:00,Actividades extraescolares 16:00-18:00,-,Iii,2,No,Si,-,No,Zona techada,"Canastas, porterías, toboganes",Alumbrado,"542,94",-,Nan,Nan,Nan, 138,Nan,Nan,Paseo olivos 70
115,6025,Colegio público joaquín turina,"Comedor, horario ampliado, planes de mejora",Enseñanza: educacion infantil - primaria,0,Http://www.madrid.es/sites/v/index.jsp?vgnextchannel=bfa48ab43d6bb410vgnvcm100000171f5a0arcrd&vgnextoid=4cd4ae10c471c010vgnvcm1000000b205a0arcrd,Madrid,Madrid,28033,Costillares,Ciudad Lineal,443524,4481320,913 025 556,913 022 741,Nan,Ayuntamiento,Lunes-viernes continua,9:00-15:00,-,Usos deportivos,Iii,3,No,No,-,No,Si,"Porterías, canastas, columpios",No,"2488,118",Regular (necesita arreglo de pavimentos),"Parque pinar de chamartin (190m), parque doctor fdz catalina (350m), parque mermelada casera (600m)",-,Nan," 29 , 125 , 129 , 150",Nan,Nan,Calle arturo soria 332
116,5195,Colegio público jorge guillén,"Comedor, transporte, integración preferente (motóricos), horario ampliado",Enseñanza: educación infantil - primaria,1,Http://www.madrid.es/sites/v/index.jsp?vgnextchannel=bfa48ab43d6bb410vgnvcm100000171f5a0arcrd&vgnextoid=bbe0a3f5ca71c010vgnvcm1000000b205a0arcrd,Madrid,Madrid,28029,El Pilar,Fuencarral-El Pardo,440011,4480755,917 393 801,917 393 801,Cp.jorgeguillen.madrid@educa.madrid.org,Ayuntamiento,Lunes-viernes continua,9:00-16:00,Actividades extraescolares 16:00-18:00,-,Iii,1,-,No,-,No,No,-,No,"1423,26",-,Nan,Nan,Nan," 42 , 49 , 126 , 128 , 147",Nan,Barrio del pilar,Avenida el ferrol 47
117,5196,Colegio público jorge manrique,"Comedor, horario ampliado, planes de mejora",Enseñanza: educación infantil - primaria,0,Http://www.madrid.es/sites/v/index.jsp?vgnextchannel=bfa48ab43d6bb410vgnvcm100000171f5a0arcrd&vgnextoid=0101a3f5ca71c010vgnvcm1000000b205a0arcrd,Madrid,Madrid,28026,Moscardo,Usera,439708,4471078,915 656 300,915 691 615,Nan,Ayuntamiento,Lunes-viernes continua,9:00-16:00,Actividades extraescolares 16:00-17:00,-,Ii,2,Si (1 patio),Si,-,Si,Porche,"Porterías, canastas",Alumbrado débil,"1958,44",Bueno,Nan,Nan,Nan," 55 , 60, 47, 147",Nan,Usera,Plaza pintor lucas 17
118,5197,Colegio público josé bergamín,"Comedor, horario ampliado, planes de mejora",Enseñanza: educación infantil - primaria,0,Http://www.madrid.es/sites/v/index.jsp?vgnextchannel=bfa48ab43d6bb410vgnvcm100000171f5a0arcrd&vgnextoid=5611a3f5ca71c010vgnvcm1000000b205a0arcrd,Madrid,Madrid,28034,Valverde,Fuencarral-El Pardo,441018,4482990,917 355 560 -917 345 042,91 734 50 42,Nan,Ayuntamiento,Lunes-viernes continua,9:00-16:00,Nan,-,Ii,3,Si,Si (c/ braille),-,Si,Si (40m²),"Porterías, canastas, bancos, juegos",No,"3736,02",Bueno,Nan,Nan,Nan," 66 ,124 , 137",Nan,Fuencarral,Calle braille 19
119,5198,Colegio público josé calvo sotelo,"Comedor, horario ampliado",Enseñanza: educación infantil - primaria,0,Http://www.madrid.es/sites/v/index.jsp?vgnextchannel=bfa48ab43d6bb410vgnvcm100000171f5a0arcrd&vgnextoid=ab21a3f5ca71c010vgnvcm1000000b205a0arcrd,Madrid,Madrid,28007,Adelfas,Retiro,442826,4472467,914 337 125,914 336 781,Nan,Ayuntamiento,Lunes-viernes partida,9:00-16:00,Actividades extraescolares 16:00-18:00,Nan,I,2,Si,Si (c/ andalucía),-,Si,Si (4x3m²),"Canastas, porterías",No,"1083,52 + 724,13",Bueno,Parque de pacífico (150m),"Biblioteca elena fortún (270m), canchas deportivas de pacífico (290m), idm adelfas (500m)",Nan," 8 , 10 , 24 , 37 , 54 , 56 , 57 , 136 , 141 , 310",Nan,"Pacífico, puente de vallecas",Avenida ciudad de barcelona 83
120,6518289,Colegio público josé de echegaray,Nan,Enseñanza: educación infantil - primaria - enseñanza biling&amp;uuml;e,0,Http://www.madrid.es/sites/v/index.jsp?vgnextchannel=bfa48ab43d6bb410vgnvcm100000171f5a0arcrd&vgnextoid=dd26d08058cd8310vgnvcm2000000c205a0arcrd,Madrid,Madrid,28051,Casco H.Vallecas,Villa De Vallecas,447829,4468813,911 996 781 / 911 996 782,911 996 782,Cp.josedeechegaray.madrid@educa.madrid.org,Ayuntamiento,Lunes-viernes continua,9:00-16:00,Actividades extraescolares 16:00-18:00,-,Ii,2,Si,Si (c/ puentedey y c/ alto de la saternilla),-,Si (en primaria),Si,"Porterías, columpios, canastas, bancos",No,"3402,84",Bueno,Parque mundaire (200m),Pistas deportivas (400m),Nan," 142, 145",Nan,Nan,Calle puentedey 14
121,5200,Colegio público josé maría de pereda,"Comedor, horario ampliado, planes de mejora",Enseñanza: educación infantil - primaria,0,Http://www.madrid.es/sites/v/index.jsp?vgnextchannel=bfa48ab43d6bb410vgnvcm100000171f5a0arcrd&vgnextoid=f041a3f5ca71c010vgnvcm1000000b205a0arcrd,Madrid,Madrid,28053,Entrevias,Puente De Vallecas,442824,4470565,915 072 651,917 861 787,Nan,Ayuntamiento,Lunes-viernes continua,9:30-16:30,Nan,-,Ii,2,Si (un patio),Si,-,No,"Porche (5x5m), algo de arbolado","Porterías, canastas, mesas multijuego","Alumbrado, fuentes ","1220,93",Bueno,"Parque del soto (160m), parque forestal de entrevías (550m)","Cdm entrevías (600m), centro cultural lope de vega (650m)",Nan," 24 , 102 , 111",Nan,Nan,Calle mestanza 94
122,5201,Colegio público josé ortega y gasset,"Comedor, horario ampliado, planes de mejora, integración preferente (trastornos generales del desarrollo)",Enseñanza: educación infantil - primaria - enseñanza biling&amp;uuml;e,0,Http://www.madrid.es/sites/v/index.jsp?vgnextchannel=bfa48ab43d6bb410vgnvcm100000171f5a0arcrd&vgnextoid=4651a3f5ca71c010vgnvcm1000000b205a0arcrd,Madrid,Madrid,28020,Castillejos,Tetuan,441144,4479225,915 720 997,915 701 341,Nan,Ayuntamiento,Lunes-viernes continua,9:00-14:00,Actividades extraescolares 16:00-19:30 + sábado (actividades extraescolares),-,Ii,2,Si,Si,-,Si,Si (20m2),"Porterías, canastas",No,"1686,3",Mejorable (obras de remodelación mal ejecutadas),"Plaza remonta (350m), parque san german (600m)","Centro sociocultural tetuan (700m), cdm playa victoria (950m)",Patio protegido con acceso desde calle secundaria. ," 149, 66, 124",Nan,"Tetuán, valdeacederas",Calle orense 87
123,5430866,Colegio público josep tarradellas,"Horario ampliado, comedor",Enseñanza: educación infantil - primaria,0,Http://www.madrid.es/sites/v/index.jsp?vgnextchannel=bfa48ab43d6bb410vgnvcm100000171f5a0arcrd&vgnextoid=0f3147ec3af04210vgnvcm1000000b205a0arcrd,Madrid,Madrid,28050,Valverde,Fuencarral-El Pardo,443199,4484552,914 274 125 - 628 576 819,914 274 161,Cp.joseptarradellas.madrid@educa.madrid.org,Ayuntamiento,Lunes-viernes partida,9:00-16:00,Actividades extraescolares 16:00-20:00,-,Iii,1,Si,Si (c/ triacastella),-,No,No,"Porterías, canastas",Alumbrado ,"2046,23",Mejorable,Nan,Nan,Nan,"172, 176",Nan, las tablas,Calle triacastela 1
124,5202,Colegio público jovellanos,"Comedor, transporte, horario ampliado, planes de mejora, integración preferente (trastornos generales del desarrollo)",Enseñanza: educación infantil - primaria,0,Http://www.madrid.es/sites/v/index.jsp?vgnextchannel=bfa48ab43d6bb410vgnvcm100000171f5a0arcrd&vgnextoid=9b61a3f5ca71c010vgnvcm1000000b205a0arcrd,Madrid,Madrid,28044,Las Aguilas,Latina,433534,4470148,917 055 018,915 095 089,Nan,Ayuntamiento,Lunes-viernes continua,9:00-16:00,Actividades extraescolares 16:00-17:00,Centro de día cruz roja,Iii,3,Si,Si,-,No,No,"Canastas, porterías, toboganes",No,"2698,7",-,Nan,Nan,Wc en edificio secundario (cedido a cruz roja).,"34 , 39 , 139", las aguilas,Nan,Calle monroy 34
125,5203,Colegio público juan de la cierva,"Comedor, horario ampliado, planes de mejora, integración preferente (trastornos generales del desarrollo)",Enseñanza: educación infantil - primaria,0,Http://www.madrid.es/sites/v/index.jsp?vgnextchannel=bfa48ab43d6bb410vgnvcm100000171f5a0arcrd&vgnextoid=e081a3f5ca71c010vgnvcm1000000b205a0arcrd,Madrid,Madrid,28041,Los Rosales,Villaverde,441368,4467326,917 965 560 - 917 230 235,917 965 560,Nan,Ayuntamiento,Lunes-viernes continua,9:00-16:00,Actividades extraescolares 16:00-21:00,"Federación balonmano, federación futbol, federación judo, escuela baloncesto",Iii,3,Si,Si,Principal del centro,Si (en gimnasio),"Techado muy pequeño, arbolado","Porterías, canastas","Alumbrado, fuente","4509,95",Regular (necesita arreglos superficiales),Nan,Nan,Nan,"22 , 59 , 79 , 85 , 123 , 130",Nan, villaverde bajo cruce,Calle villarrosa 7
126,5204,Colegio público juan gris,"Comedor, transporte, horario ampliado, planes de mejora",Enseñanza: educación infantil - primaria,0,Http://www.madrid.es/sites/v/index.jsp?vgnextchannel=bfa48ab43d6bb410vgnvcm100000171f5a0arcrd&vgnextoid=3691a3f5ca71c010vgnvcm1000000b205a0arcrd,Madrid,Madrid,28031,Casco H.Vallecas,Villa De Vallecas,447591,4469300,913 327 264,913 327 263,Nan,Ayuntamiento,Lunes-viernes partida,9:00-16:00,Actividades extraescolares 16:00-18:00,Uso en fin de semana por asociaciones del barrio,Ii,2,Si,Si,-,Si (un patio),Dos espacios techados,"Canastas, porterías, bancos, parque",Alumbrado,"2621,5",Bueno,-,-,Nan,"58 , 142 , 54",Nan, congosto,Calle muela de san juan 31
127,5205,Colegio público juan ramón jiménez,"Horario ampliado, comedor",Enseñanza: educación infantil - primaria,0,Http://www.madrid.es/sites/v/index.jsp?vgnextchannel=bfa48ab43d6bb410vgnvcm100000171f5a0arcrd&vgnextoid=8ba1a3f5ca71c010vgnvcm1000000b205a0arcrd,Madrid,Madrid,28039,Valdeacederas,Tetuan,440380,4479417,915 717 512,914 250 976,Nan,Ayuntamiento,Lunes-viernes continua,9:00-14:00,-,-,Ii,1,Si,Si,-,Si,Arbolado,"Canastas, porterías, juegos",Fuente,"583,85",Bueno,"Parque villaamil (300m), plaza remonta (800m)","Cdm playa victoria (550m), centro sociocultural tetuan (750m)",Parcela con proyecto de huerto comunitario anexa. ," 66 , 124",Nan,Tetuán,Calle marques de viana 58
128,5206,Colegio público juan sebastián elcano,"Comedor, horario ampliado, planes de mejora",Enseñanza: educación infantil - primaria,0,Http://www.madrid.es/sites/v/index.jsp?vgnextchannel=bfa48ab43d6bb410vgnvcm100000171f5a0arcrd&vgnextoid=d0c1a3f5ca71c010vgnvcm1000000b205a0arcrd,Madrid,Madrid,28026,Moscardo,Usera,440185,4471177,914 765 139,914 768 107,Nan,Ayuntamiento,Lunes-viernes continua,9:00-16:00,-,-,I,1,Si,Si,-,Si,Porche,-,No,"2559,86",-,Nan,Nan,Nan," 6 , 23 , 47",Nan,Usera,Calle mirasierra 29
129,5207,Colegio público juan zaragüeta,"Transporte, horario ampliado, comedor, planes de mejora",Enseñanza: educación infantil - primaria - enseñanza biling&amp;uuml;e,0,Http://www.madrid.es/sites/v/index.jsp?vgnextchannel=bfa48ab43d6bb410vgnvcm100000171f5a0arcrd&vgnextoid=26d1a3f5ca71c010vgnvcm1000000b205a0arcrd,Madrid,Madrid,28033,Valdefuentes,Hortaleza,446510,4480350,917 630 869 - 913 821 057,917 630 869,Nan,Ayuntamiento,Lunes-viernes continua,9:00-16:00,Actividades extraescolares 16:00-18:00,-,Iii,1,Si,Si (c/ tomás redondo),-,No,Si (80m²),Porterías y canastas ,No,"3929,51",Mejorable (suelos en mal estado),Nan,Nan,Nan," 72 , 87",Nan,San lorenzo,Calle via de los poblados 19
130,5208,Colegio público julián besteiro,"Comedor, planes de mejora",Enseñanza: educación infantil - primaria,0,Http://www.madrid.es/sites/v/index.jsp?vgnextchannel=bfa48ab43d6bb410vgnvcm100000171f5a0arcrd&vgnextoid=7be1a3f5ca71c010vgnvcm1000000b205a0arcrd,Madrid,Madrid,28025,Abrantes,Carabanchel,438306,4470466,915 600 091,915 655 204,Nan,Ayuntamiento,Lunes-viernes continua,9:00-16:00,Actividades extraescolares 16:00-19:30,"Centro abierto (apoyo, merienda para servicios sociales)",Iii,"2, paso directo. no pasar sin edificio uno",Si,Si (av. abrantes),-,No ,Porche en los 2 y en uno una pérgola. 1 árbol,"Porterías, canastas, columpios",Alumbrado ,"1338,72","Muy bueno, obra reciente",Si,Club de futbol privados,Nan," 47 , 108 , 118",Nan,Abrantes,Avenida abrantes 79
131,176859,Colegio público julián marías,"Horario ampliado, comedor",Enseñanza: educacion infantil - primaria,0,Http://www.madrid.es/sites/v/index.jsp?vgnextchannel=bfa48ab43d6bb410vgnvcm100000171f5a0arcrd&vgnextoid=fe444b6faa61c010vgnvcm1000000b205a0arcrd,Madrid,Madrid,28022,Rosas,San Blas-Canillejas,448887,4475342,917 609 323,917 609 319,Nan,Ayuntamiento,Lunes-viernes continua,Continua ahora9:00-16:00,Actividades extraescolares 16:00-18:00,"Extraescolares, hasta las 18.00",Iii,4,Si,Si,"3 accesos, independientes al edificio.",No,"Porche, infantil 150 m², entrada 150 m², otro de 100 m²","Patio 2: 2 porterias futbol y 2 canastas, patio 3, 2 porterias y 4 canastas",Fuente,"1720,52 + 1406,97",Nan,"Si, un parque ","Si, canchas municipales, 200 m polideportivo",Nan," 38 , 140",Nan,Nan,Calle budapest 11
132,5153,Colegio público la alameda,"Comedor, horario ampliado, planes de mejora",Enseñanza: educación infantil - primaria - enseñanza biling&amp;uuml;e,0,Http://www.madrid.es/sites/v/index.jsp?vgnextchannel=bfa48ab43d6bb410vgnvcm100000171f5a0arcrd&vgnextoid=c002a3f5ca71c010vgnvcm1000000b205a0arcrd,Madrid,Madrid,28022,Canillejas,San Blas-Canillejas,448400,4476500,917 411 453,913 204 540,Nan,Ayuntamiento,Lunes-viernes continua,9:00-15:30,Actividades extraescolares 15:30-16:30,Centro de día cruz roja 15:30-17:30,Iii,2,Si (patio primaria),"Si (patio primaria, c/ musas)",C/ pitágoras,No,Si,"Porterías, canastas",Alumbrado,"951,436",Regular (necesita reformas),Nan,Nan,Nan," 38 , 48 , 140",Nan,Nan,Calle musas 9
133,6023,Colegio público la dehesa del príncipe,"Comedor, horario ampliado, planes de mejora",Enseñanza: educacion infantil - primaria,0,Http://www.madrid.es/sites/v/index.jsp?vgnextchannel=bfa48ab43d6bb410vgnvcm100000171f5a0arcrd&vgnextoid=a1b4ae10c471c010vgnvcm1000000b205a0arcrd,Madrid,Madrid,28024,Campamento,Latina,443032,4474162,915 091 679,915 090 044,Nan,Comunidad,Lunes-viernes continua,9:00-16:00,Nan,-,Iii,1,-,Si,-,No,No,-,No,"2541,7",-,Nan,Nan,Separación por la carretera del resto de barrios. ,139, cuatro vientos,Cuatro vientos,Paseo lanceros 4
134,5210,Colegio público la latina,"Comedor, horario ampliado, planes de mejora, integración preferente (trastornos generales del desarrollo)",Enseñanza: educación infantil - primaria,0,Http://www.madrid.es/sites/v/index.jsp?vgnextchannel=bfa48ab43d6bb410vgnvcm100000171f5a0arcrd&vgnextoid=1612a3f5ca71c010vgnvcm1000000b205a0arcrd,Madrid,Madrid,28024,Aluche,Latina,435434,4471408,915 099 915,917 196 252,Nan,Ayuntamiento,Lunes-viernes continua,9:00-16:00,Actividades extraescolares 16:00-17:00,-,Ii,3,Si,Si,-,Si,Porche ,"Canastas, porterías, parque infantil, arenero",No,"2783,33",-,Nan,Nan,Nan,"17 , 121 , 131 , h", aluche,Aluche,Calle maqueda 130
135,5294,Colegio público la rioja,"Comedor, planes de mejora",Enseñanza: educación infantil - primaria,0,Http://www.madrid.es/sites/v/index.jsp?vgnextchannel=bfa48ab43d6bb410vgnvcm100000171f5a0arcrd&vgnextoid=6b22a3f5ca71c010vgnvcm1000000b205a0arcrd,Madrid,Madrid,28038,Palomeras Sureste,Puente De Vallecas,445935,4471034,917 773 912,917 773 912,Nan,Ayuntamiento,Lunes-viernes continua,9:00-16:00,Actividades extraescolares 16:00-17:00,Nan,Ii,3,Si (pero en mal estado),Si (c/ león felipe),Nan,Sí,"2 porches pequeños, arbolado, pendientes de poner toldos","Porterías, canastas, bancos en mal estado",Fuentes,"1447,57",Necesita reforma,Parque lineal de palomeras (180m),"Centro cultural palomeras (700m), bibliotega miguel hernandez (750m)",Nan," 54 , 58 , 103 , 142 , 143 , 144",Nan,Miguel hernández,Calle leon felipe 3
136,5211,Colegio público legado crespo,"Comedor, horario ampliado, planes de mejora",Enseñanza: educación infantil - primaria - enseñanza biling&amp;uuml;e,1,Http://www.madrid.es/sites/v/index.jsp?vgnextchannel=bfa48ab43d6bb410vgnvcm100000171f5a0arcrd&vgnextoid=b042a3f5ca71c010vgnvcm1000000b205a0arcrd,Madrid,Madrid,28005,Acacias,Arganzuela,440271,4472927,915 286 325,915 286 325,Cp.legadocrespo.madrid@educa.madrid.org,Ayuntamiento,Lunes-viernes continua,9:00-16:00,"Actividades ampa 16:00-17:00h, cruz roja 14:00-20:00",-,Iii,1,Si,Si,-,No,No,"Porterías, canastas, columpios",Alumbrado,"1142,42",Bueno (arreglado recientemente),"Parque casino de la reina (260m), parque redondo (400m)","Biblioteca etsi (350m), casa encendida (400m), biblioteca pedro salinas (850m)",Nan,"27 , 34 , 36 , 60 , 69 , 78 , 116 , 118 , 119", embajadores,Embajadores,Paseo acacias 2
137,5212,Colegio público leopoldo alas,"Comedor, horario ampliado, planes de mejora",Enseñanza: educación infantil - primaria,1,Http://www.madrid.es/sites/v/index.jsp?vgnextchannel=bfa48ab43d6bb410vgnvcm100000171f5a0arcrd&vgnextoid=0652a3f5ca71c010vgnvcm1000000b205a0arcrd,Madrid,Madrid,28017,Ventas,Ciudad Lineal,444573,4475495,914 033 755,914 042 281,Cp.leopoldoalas.madrid@educa.madrid.org,Ayuntamiento,Lunes-viernes,9:00-16:00,-,-,Iii,2,-,Si,-,No,No,-,No,"2440,662",-,-,"Instalacion deportiva (400m), centro sociocultural ciudad lineal (500m), biblioteca la elipa (800m)",Nan," 15 , 28 , 106 , 110 , 210",Nan,Nan,Calle pedrezuela 18
138,4974266,Colegio público leopoldo calvo sotelo,"Horario ampliado, comedor",Enseñanza: educacion infantil - primaria - enseñanza biling&amp;uuml;e,0,Http://www.madrid.es/sites/v/index.jsp?vgnextchannel=bfa48ab43d6bb410vgnvcm100000171f5a0arcrd&vgnextoid=7205ffc4131ab110vgnvcm2000000c205a0arcrd,Madrid,Madrid,28050,Valverde,Fuencarral-El Pardo,442794,4483567,914 273 351,914 273 083,Nan,Ayuntamiento,Lunes-viernes partida,9:00-16:00,Actividades extraescolares 16:00-18:00,Patios abiertos sábados 9:00-14:00,I,2,Si,Si (av. de santiago),-,Si (en gimnasio),Poca,"Porterías, canastas, columpios, bancos",Fuentes,"1556,12",Regular (necesita arreglo en pista),Nan,Nan,Participa actualmente de 'patios abiertos'," 172, 176",Nan,Nan,Calle castiello de jaca 2
139,5213,Colegio público lepanto,"Comedor, horario ampliado",Enseñanza: educación infantil - primaria - enseñanza biling&amp;uuml;e,0,Http://www.madrid.es/sites/v/index.jsp?vgnextchannel=bfa48ab43d6bb410vgnvcm100000171f5a0arcrd&vgnextoid=5b62a3f5ca71c010vgnvcm1000000b205a0arcrd,Madrid,Madrid,28035,Valdezarza,Moncloa-Aravaca,438875,4480001,913 160 937,913 738 204,Nan,Ayuntamiento,Lunes-viernes continua,9:00-16:00,Actividades extraescolares 16:00-17:00,-,Iii,3,Si (a patios delanteros),Si (c/ valderrey),-,No,No,"Porterías, canastas",No,"3311,38",Nan,Bueno,Parque luisa carnés (400m),"Centro cultural antonio machado (300m), cdm ciudad de los poetas (400m)"," 42 , 127 , 132",Nan,Antonio machado,Calle valderrey 9
140,5214,Colegio público lope de vega,"Comedor, planes de mejora",Enseñanza: educación infantil - primaria,0,Http://www.madrid.es/sites/v/index.jsp?vgnextchannel=bfa48ab43d6bb410vgnvcm100000171f5a0arcrd&vgnextoid=a082a3f5ca71c010vgnvcm1000000b205a0arcrd,Madrid,Madrid,28019,San Isidro,Carabanchel,438622,4471811,914 710 955,914 710 955,Nan,Ayuntamiento,Lunes-viernes continua,9:00-16:00,Actividades extraescolares 16:00-20:00,-,Ii,2,Si,Si,-,Si,No,"Porterías, canastas, columpios, canchas de vóley",Alumbrado débil,"2668,3 + 1861,05",Mejorable,Nan,Nan,Nan," 34 , 35 , 118 , 119",Nan,Urgel,Calle inglaterra 8
141,5215,Colegio público lorenzo luzuriaga,"Transporte, comedor, horario ampliado, planes de mejora",Enseñanza: educación infantil - primaria - enseñanza biling&amp;uuml;e,0,Http://www.madrid.es/sites/v/index.jsp?vgnextchannel=bfa48ab43d6bb410vgnvcm100000171f5a0arcrd&vgnextoid=f592a3f5ca71c010vgnvcm1000000b205a0arcrd,Madrid,Madrid,28034,La Paz,Fuencarral-El Pardo,440538,4482010,917 305 938,917 314 362,Nan,Ayuntamiento,Lunes-viernes partida,9:00-16:00,Actividades extraescolares7:30-9:00-16:00-17:00,Torneos deportivos desarrollados por el centro,Iii,3,Solo 1 patio accesible a personas con movilidad reducida,No,-,"Sí, aseos cercanos a uno de los patios en el edificio de gimnasio","Poca, solo en un patio y muy reducida","Porterias , canastas( 1 zona) y columpios (1 zona",Alumbrado en 1 patio,"1431,13 + 1179,40",Buena,Si,Si,Varios patios con pistas deportivas a diferentes niveles. ," 49 , 67 , 83 , 124 , 133 , 134",Nan,Herrera oria,Calle valencia de don juan 13
142,64457,Colegio público los almendros,"Comedor, horario ampliado",Enseñanza: educación infantil - primaria,0,Http://www.madrid.es/sites/v/index.jsp?vgnextchannel=bfa48ab43d6bb410vgnvcm100000171f5a0arcrd&vgnextoid=c897598d1351c010vgnvcm1000000b205a0arcrd,Madrid,Madrid,28032,Casco H.Vicalvaro,Vicalvaro,446895,4471931,917 510 982,917 726 814,Nan,Ayuntamiento,Lunes-viernes continua,9:00-16:00,Actividades extraescolares 16:00-17:00,-,Iii,1,Si,Si (c/ copérnico),C/ arquímedes,No,"Porche, arbolado","Porterías, canastas, columpios","Alumbrado, fuentes","5535,1",Mejorable,Parque valdebernardo (80m),"Biblioteca francisco ayala (750m), cdm moratalaz (950m), cdm faustina valladolid (950m)",Nan," 8 , 71 , 130",Nan,Valdebernardo,Calle ladera de los almendros 45
143,5296,Colegio público los rosales,"Comedor, horario ampliado, planes de mejora",Enseñanza: educación infantil - primaria,0,Http://www.madrid.es/sites/v/index.jsp?vgnextchannel=bfa48ab43d6bb410vgnvcm100000171f5a0arcrd&vgnextoid=4ba2a3f5ca71c010vgnvcm1000000b205a0arcrd,Madrid,Madrid,28021,Butarque,Villaverde,442439,4467021,917 956 756,917 956 756,Nan,Ayuntamiento,Lunes-viernes continua,9:00-16:00,Actividades extraescolares 16:00-17:00,-,Iii,2,No,Si,-,No,No,"Porterías, canastas",No,"8289,79",Bueno,Nan,Nan,Nan," 85 , 123 , 713",Nan,Nan,Avenida los rosales 131
144,4974277,Colegio público loyola de palacio,"Comedor, horario ampliado, planes de mejora",Enseñanza: educación infantil de segundo ciclo - primaria. enseñanza biling&amp;uuml;e,1,Http://www.madrid.es/sites/v/index.jsp?vgnextchannel=bfa48ab43d6bb410vgnvcm100000171f5a0arcrd&vgnextoid=4c96ffc4131ab110vgnvcm2000000c205a0arcrd,Madrid,Madrid,28051,Casco H.Vallecas,Villa De Vallecas,449186,4467958,913 326 020 - 913 851 330,913 326 020,Cp.loyoladepalacio.madrid@educa.madrid.org,Ayuntamiento,Lunes-viernes continua,9:00-16:00,Actividades extraescolares 16:00-20:00,-,Iii,2,Si,Si (c/ embalse de manzanares y c/ antonio gades),-,No,Espacios techados,"Porterías, canastas, columpios",No,"2680,78 + 2030,84",Bueno,Parque (170m),-,Nan," 142, 145",Nan,Las suertes,Calle embalse de navacerrada 60
145,5216,Colegio público luis bello,"Comedor, horario ampliado, planes de mejora",Enseñanza: educación infantil - primaria - enseñanza biling&amp;uuml;e -,1,Http://www.madrid.es/sites/v/index.jsp?vgnextchannel=bfa48ab43d6bb410vgnvcm100000171f5a0arcrd&vgnextoid=90c2a3f5ca71c010vgnvcm1000000b205a0arcrd,Madrid,Madrid,28002,Prosperidad,Chamartin,442881,4477221,912 205 533,912 205 535,Nan,Ayuntamiento,Lunes-viernes,8:00-17:00,Actividades extraescolares 16:00-17:00,No,I,2,Si ,Si (c/ canillas),-,Si,Si (pequeño),"Porterías, tobogán, canastas, bancos, huerto con macetas. ",Alumbrado (un solo patio),"1218,38",Bueno,"Plaza de la prosperidad (120m), jardines pablo sorozábal (650m), parque berlín (750m)","Centro sociocultural luis gonzaga (550m), biblioteca francisco ibáñez (650m), polideportivo pradillo (850m), cdm moscardó (850m)",Nan," 1 , 9 , 73",Nan,Prosperidad,Calle luis cabrera 66
146,5217,Colegio público luis cernuda,"Comedor, horario ampliado, planes de mejora",Enseñanza: educación infantil - primaria - enseñanza biling&amp;uuml;e,0,Http://www.madrid.es/sites/v/index.jsp?vgnextchannel=bfa48ab43d6bb410vgnvcm100000171f5a0arcrd&vgnextoid=e5d2a3f5ca71c010vgnvcm1000000b205a0arcrd,Madrid,Madrid,28043,Canillas,Hortaleza,444554,4479166,913 002 732,913 002 732,Cp.luiscernuda.madrid@educa.madrid.org,Ayuntamiento,Lunes-viernes continua,9:00-16:00,Actividades extraescolares 16:00-17:00,-,I,1,Si,Si (c/ carril del conde),-,Si,Si,"Porterías, canastas, bancos, tobogán","Alumbrado, fuente","1114,89",Bueno,Nan,Nan,Nan," 9, 72, 73 ,120 ,122",Nan,"Esperanza, arturo soria",Calle carril del conde 64
147,5218,Colegio público luis de góngora,Comedor,Enseñanza: educación infantil - primaria,0,Http://www.madrid.es/sites/v/index.jsp?vgnextchannel=bfa48ab43d6bb410vgnvcm100000171f5a0arcrd&vgnextoid=3be2a3f5ca71c010vgnvcm1000000b205a0arcrd,Madrid,Madrid,28029,El Pilar,Fuencarral-El Pardo,439443,4480681,91 386 08 16,Nan,Nan,Ayuntamiento,Lunes-viernes continua,9:00-16:00,Asociación valdeperales  16:00-17:30,Patios abiertos sábados 9:00-14:00,I,2,Si,Si (c/ sarria),-,Si,Porche (20m²),"Porterías, canastas, columpios, gradas","Alumbrado, fuente",1068,Regular (necesita pintura y algunos arreglos),Nan,Nan,"Dos patios amplios separados, con entradas desde calle. participa actualmente de 'patios abiertos'"," 42 , 126 , 132 , 137 , 147",Nan,Peñagrande,Calle sarria 49
148,42017,Colegio público madrid sur,Comedor,Enseñanza: educación infantil - primaria,0,Http://www.madrid.es/sites/v/index.jsp?vgnextchannel=bfa48ab43d6bb410vgnvcm100000171f5a0arcrd&vgnextoid=cfa7598d1351c010vgnvcm1000000b205a0arcrd,Madrid,Madrid,28018,Palomeras Bajas,Puente De Vallecas,444368,4469762,91 785 55 39,Nan,Nan,Ayuntamiento,Lunes-viernes continua,9:00-16:00,Actividades extraescolares 16:00-17:00,-,Ii,1,Si,Si (c/ sabrina),-,Sí,Toldo (6x7m),"Porterías, canastas, mesas",Alumbrado,"4977,57",Regular (material deteriorado),"Parque lineal de palomeras (280m), plaza del cine (300m)","Instalaciones deportivas palomeras (250m), centro cultural paco rabal (700m)",Nan,102 * 136 * 310 * 410, el pozo,Nan,Calle puerto de balbaran 133
149,5792191,Colegio público maestro padilla,"Horario ampliado, comedor",Enseñanza: educación infantil - primaria - enseñanza biling&amp;uuml;e,0,Http://www.madrid.es/sites/v/index.jsp?vgnextchannel=bfa48ab43d6bb410vgnvcm100000171f5a0arcrd&vgnextoid=8b5800444dcca210vgnvcm2000000c205a0arcrd,Madrid,Madrid,28054,Buenavista,Carabanchel,436566,4468283,911 731 852 - 699 502 387,911 724 720,Cp.maestropadilla.madrid@educa.madrid.org,Ayuntamiento,Lunes-viernes partida,9:00-16:00,Actividades extraescolares 16:00-17:00,-,Iii,3,Si,Si (av. de la peseta),C/ once vigas,No,"Porche, arbolado en mal estado","Porterías, canastas",No,"4957,68",Aceptable,Nan,Polideportivo francisco fdz ochoa,Nan," 35, 118, 155",Nan,Nan,Avenida peseta 112
150,5221,Colegio público manuel bartolomé cossío,"Comedor, transporte, horario ampliado, planes de mejora",Enseñanza: educación infantil - primaria - enseñanza biling&amp;uuml;e,0,Http://www.madrid.es/sites/v/index.jsp?vgnextchannel=bfa48ab43d6bb410vgnvcm100000171f5a0arcrd&vgnextoid=8003a3f5ca71c010vgnvcm1000000b205a0arcrd,Madrid,Madrid,28044,Las Aguilas,Latina,434494,4470372,917 067 408 (infantil) / 917 064 098 (primaria),917 064 098,Nan,Ayuntamiento,Lunes-viernes continua,9:00-16:00,Actividades extraescolares 16:00-17:00,-,Iii,1,Si,Si,-,No,Si (en infantil),"Canastas, porterías",Fuente,"1001,54",-,Nan,Nan,"Dos edificios, un patio en cada uno","17 , 139", fanjul,Nan,Calle jose de cadalso 19
151,5222,Colegio público manuel de falla,"Transporte, comedor",Enseñanza: educación infantil - primaria,0,Http://www.madrid.es/sites/v/index.jsp?vgnextchannel=bfa48ab43d6bb410vgnvcm100000171f5a0arcrd&vgnextoid=d513a3f5ca71c010vgnvcm1000000b205a0arcrd,Madrid,Madrid,28021,San Andres,Villaverde,440084,4466428,917 971 448,917 971 448,Nan,Ayuntamiento,Lunes-viernes continua,9:00-16:00,Actividades extraescolares 16:00-17:00,-,Iii,2,Si,Si (c/ jose ortuño ponce),Principal del centro,No,Porche,"Porterías, canastas, arenero","Alumbrado, fuente","441,41",Bueno,Nan,Nan,Nan,"22 , 76 , 86 , 130 , 131", puente alcocer,Nan,Calle jose ortu&amp;ntilde;o ponce 2
152,5223,Colegio público manuel núñez de arenas,"Comedor, transporte, horario ampliado, planes de mejora",Enseñanza: educación infantil - primaria,0,Http://www.madrid.es/sites/v/index.jsp?vgnextchannel=bfa48ab43d6bb410vgnvcm100000171f5a0arcrd&vgnextoid=2b23a3f5ca71c010vgnvcm1000000b205a0arcrd,Madrid,Madrid,28053,Entrevias,Puente De Vallecas,443825,4469619,917 855 972 - 917 855 923,917 860 204,Nan,Ayuntamiento,Lunes-viernes continua,9:00-16:00,Actividades extraescolares 16:00-19:00, actividades extraescolares del afa. cesión a entidades y agrupación deportiva,Ii,2,Si,Si (c/ martos y c/ villacarrillo),Nan,Sí,"Cubierta entrada (300m²), porche (200m²), arbolado","Porterías, canastas, juegos",Alumbrado (pista deportiva),"3074,54",Mejorable (elementos deteriorados),Parque forestal de entrevías (250m),"Cdm alberto garcia (240m), centro cultural el pozo del tío raimundo (290m)",Nan," 24 , 102",Nan,Nan,Calle martos 120
153,5224,Colegio público manuel sáinz de vicuña,"Comedor, horario ampliado, planes de mejora",Enseñanza: educación infantil - primaria - enseñanza biling&amp;uuml;e -,0,Http://www.madrid.es/sites/v/index.jsp?vgnextchannel=bfa48ab43d6bb410vgnvcm100000171f5a0arcrd&vgnextoid=7043a3f5ca71c010vgnvcm1000000b205a0arcrd,Madrid,Madrid,28030,Marroquina,Moratalaz,444851,4473405,914 391 349,913 285 625,Nan,Ayuntamiento,Lunes-viernes partida,9:00-16:00,Actividades extraescolares 16:00-17:00,Entrenamientos deportivos 18:00-21:00,Iii,3,Si (un patio),Si (c/ camino de vinateros),C/ arroyo de las pilillas,No,Arbolado,Porches (2x20m²),Alumbrado,"2027,15",Regular (pavimentos levantados),Parque moratalaz (300m),Biblioteca miguel delibes (300m),Nan," 32 , 71",Nan,Vinateros,Calle camino de los vinateros 104
154,5226,Colegio público marcelo usera,"Comedor, horario ampliado, planes de mejora, integración preferente (trastornos generales del desarrollo)",Enseñanza: educación infantil - primaria,0,Http://www.madrid.es/sites/v/index.jsp?vgnextchannel=bfa48ab43d6bb410vgnvcm100000171f5a0arcrd&vgnextoid=1b63a3f5ca71c010vgnvcm1000000b205a0arcrd,Madrid,Madrid,28026,Almendrales,Usera,440620,4470964,914 753 495,917 923 840,Nan,Ayuntamiento,Lunes-viernes continua,9:00-16:00,Actividades extraescolares 16:00-17:00,Centro de día cruz roja 15:30-20:00,Ii,1,Si,Si (c/ felipe díaz),-,Si,No,No,No,"590,42",Mejorable,Nan,Nan,Nan," 6 , 18 , 22 , 47 , 59 , 76 , 78 , 79 , 85 , 86 , 247",Nan,Usera,Calle perales de tajuña 1
155,7048498,Colegio público margaret thatcher,Nan,Enseñanzas: segundo ciclo de educación infantil - primaria,0,Http://www.madrid.es/sites/v/index.jsp?vgnextchannel=bfa48ab43d6bb410vgnvcm100000171f5a0arcrd&vgnextoid=8c8b39efd6cef310vgnvcm1000000b205a0arcrd,Madrid,Madrid,28042,Timon,Barajas,449945,4480145,913 056 086,913 055 404,Cp.margaretthatcher.madrid@educa.madrid.org,Ayuntamiento,Lunes-viernes partida,9:00-14:00,Actividades extraescolares,-,Iii,2,No (técnico dice si pero no garantizable),No (técnico dice si),-,No,No,Porterías,No,"2149,47966",-,Parque urbano de barajas (300m),Instalación deportiva básica (500m),Nan," 105, 151",Nan,Nan,Glorieta playa de san lorenzo 4
156,11121459,Colegio público maría de villota,Nan,Enseñanza: educacion infantil - primaria - enseñanza biling&amp;uuml;e  centro de nueva creación. su ubicación es provisional.,0,Http://www.madrid.es/sites/v/index.jsp?vgnextchannel=bfa48ab43d6bb410vgnvcm100000171f5a0arcrd&vgnextoid=870757e08c800710vgnvcm1000001d4a900arcrd,Madrid,Madrid,28031,Santa Eugenia,Villa De Vallecas,447785,4470378,913 053 429 / 618 487 068,Nan,Cp.mariadevillota.madrid@educa.madrid.org,Ayuntamiento,Lunes-viernes continua,9:00-16:00,Actividades extraescolares 16:00-20:00,-,Iii,2,Si,Si,-,Si,Porche (100m²),"Porterías, canastas, juegos",Alumbrado,"2722,77",Bueno,Parque vasares (230m),"Instalaciones deportivas la unión (150m), biblioteca luis martin santos (190m), centro cultural pilar miro (240m)",Nan, 58,Nan,Villa de vallecas,Calle enrique garcia alvarez 11
157,5209,Colegio público maría moliner,"Comedor, horario ampliado, planes de mejora",Enseñanza: educación infantil - primaria - enseñanza biling&amp;uuml;e,0,Http://www.madrid.es/sites/v/index.jsp?vgnextchannel=bfa48ab43d6bb410vgnvcm100000171f5a0arcrd&vgnextoid=6083a3f5ca71c010vgnvcm1000000b205a0arcrd,Madrid,Madrid,28037,Arcos,San Blas-Canillejas,447480,4474801,913 133 969,913 069 463,Nan,Ayuntamiento,Lunes-viernes continua,9:00-16:00,Actividades extraescolares 16:00-18:00,Nan,Iii,2,No (escaleras),Si,Nan,No,No,"Canastas, porterías","Alumbrado, fuente","5349,95",Mejorable,Nan,Nan,Nan,"4 , 38, 48 , 106, 140",Nan," simancas, san blas",Calle arcos de jalon 34
158,5228,Colegio público mariano josé de larra,"Comedor, horario ampliado, planes de mejora",Enseñanza: educación infantil - primaria - enseñanza biling&amp;uuml;e,0,Http://www.madrid.es/sites/v/index.jsp?vgnextchannel=bfa48ab43d6bb410vgnvcm100000171f5a0arcrd&vgnextoid=b593a3f5ca71c010vgnvcm1000000b205a0arcrd,Madrid,Madrid,28022,Rosas,San Blas-Canillejas,448347,4475731,913 133 789,917 759 574,Nan,Ayuntamiento,Lunes-viernes continua,9:30-16:30,Actividades extraescolares 16:30-17:30 ,Cesión del gimnasio a escuela de gimnasia deportiva,Ii,3,Si,Si,Desde edificio,Si,"Porche, soportal edificio","Porterías, canastas, bancos, columpios",Alumbrado,"1875,379","Bueno en el patio grande, regular en el patio pequeño.",Nan,Nan,Nan," 38 , 48 , 140",Nan,Las musas,Calle longares 11
159,5230,Colegio público marqués de marcenado,"Comedor, horario ampliado",Enseñanza: educación infantil - primaria,0,Http://www.madrid.es/sites/v/index.jsp?vgnextchannel=bfa48ab43d6bb410vgnvcm100000171f5a0arcrd&vgnextoid=0ba3a3f5ca71c010vgnvcm1000000b205a0arcrd,Madrid,Madrid,28005,Imperial,Arganzuela,438979,4473763,913 658 588,913 669 822,Nan,Ayuntamiento,Lunes-viernes continua,7:30-17:00,-,-,Iii,2,Si,No,-,No,Si (10m2),"Porterías, canastas","Alumbrado, fuentes","724,77",Mejorable (grietas en el suelo),"Madrid río (180m), parque de la cornisa (800m)","Cdm marques de samaranch (600m), biblioteca  (900m)",Nan," 25 , 31 , 33 , 36 , 39 , 41 , 50 , 65 , 138",Nan,Nan,Calle linneo 31
160,5231,Colegio público marqués de suanzes,"Comedor, transporte, horario ampliado, integracion preferente (motóricos)",Enseñanza: educación infantil - primaria,1,Http://www.madrid.es/sites/v/index.jsp?vgnextchannel=bfa48ab43d6bb410vgnvcm100000171f5a0arcrd&vgnextoid=50c3a3f5ca71c010vgnvcm1000000b205a0arcrd,Madrid,Madrid,28027,El Salvador,San Blas-Canillejas,447034,4477126,917 412 072,913 203 617,Cp.marquesdesuanzes.madrid@educa.madrid.org,Ayuntamiento,Lunes-viernes partida,9:00-16:00,Actividades extraescolares 16:00-17:00,"Liga municipal de fútbol, sábados",Iii,2,Si,Si,Desde parking,No,"Porche, arbolado","Canastas, porterías",Fuente,"2547,20 + 1631,52",Mejorable (elementos deteriorados y barrancos sin drenaje),Parque de la quinta de los molinos,Nan,Nan," 77 , 104 , 105",Nan,Suanzes,Avenida veinticinco de septiembre 1
161,5232,Colegio público martínez montañés,"Comedor, horario ampliado, planes de mejora",Enseñanza: educación infantil - primaria - enseñanza biling&amp;uuml;e,1,Http://www.madrid.es/sites/v/index.jsp?vgnextchannel=bfa48ab43d6bb410vgnvcm100000171f5a0arcrd&vgnextoid=a5d3a3f5ca71c010vgnvcm1000000b205a0arcrd,Madrid,Madrid,28030,Pavones,Moratalaz,446208,4472560,917 738 878,917 738 878,Cp.martinezmontanes.madrid@educa.madrid.org,Ayuntamiento,Lunes-viernes continua,9:00-16:00,Actividades extraescolares 16:00-17:00,"Club baloncesto moratalaz, lunes-domingo 17:00-23:00",Ii,3,Si,Si (c/ fuente carrantona),C/ luis de hoyos sáinz,Si (en gimnasio),"Techado (20m², en 2 patios)","Canastas, columpios",Alumbrado,"2308,31",Bueno,Parque vandel (210m),Polideportivo moratalaz (500m),Nan," 32 , 71 , 100 , 140 , 142 , 144",Nan,Pavones,Calle hacienda de pavones 223
162,5233,Colegio público méjico (méxico),"Comedor, transporte, integración preferente (motóricos), horario ampliado, planes de mejora",Enseñanza: educación infantil - primaria,1,Http://www.madrid.es/sites/v/index.jsp?vgnextchannel=bfa48ab43d6bb410vgnvcm100000171f5a0arcrd&vgnextoid=fae3a3f5ca71c010vgnvcm1000000b205a0arcrd,Madrid,Madrid,28027,San Pascual,Ciudad Lineal,444808,4477186,91 403 57 44,Nan,Cp.mejico.madrid@educa.madrid.org,Ayuntamiento,Lunes-viernes,9:00-16:00,Actividades extraescolares 16:00-17:00,-,I,3,Si,Si (c/ carlota o`neill),-,Si,Porche pequeño,"Porterías, canastas, juegos",No,"2846,707",-,"Parque pza de nueva orleans (150m), parque pablo raez (300m)",Instalacion deportiva (300m),Nan," 11 , 21 , 53",Nan,Nan,Avenida badajoz 74
163,5234,Colegio público méndez núñez,"Comedor, planes de mejora",Enseñanza: educación infantil - primaria,0,Http://www.madrid.es/sites/v/index.jsp?vgnextchannel=bfa48ab43d6bb410vgnvcm100000171f5a0arcrd&vgnextoid=4004a3f5ca71c010vgnvcm1000000b205a0arcrd,Madrid,Madrid,28033,Apostol Santiago,Hortaleza,444089,4481130,913 024 834,913 024 834,Cp.mendeznunez.madrid@educa.madrid.org,Ayuntamiento,Lunes-viernes continua,9:00-16:00,Actividades extraescolares 16:00-17:30,-,I,2,"Si (mala accesibilidad, accesos estrechos y barreras)",Si,-,Si,Si (en un patio),Porterías y canastas (no accesibles),No,"3348,83",Mejorable (suelos en mal estado),Nan,Nan,Nan," 7 , 29 , 129",Nan,Nan,Calle alicun 9
164,5235,Colegio público menéndez pelayo,"Comedor, horario ampliado, planes de mejora -integración preferente (auditivos)",Enseñanza: educación infantil - primaria,0,Http://www.madrid.es/sites/v/index.jsp?vgnextchannel=bfa48ab43d6bb410vgnvcm100000171f5a0arcrd&vgnextoid=9514a3f5ca71c010vgnvcm1000000b205a0arcrd,Madrid,Madrid,28045,Palos De Moguer,Arganzuela,441334,4473004,915 272 781,915 397 381,Nan,Ayuntamiento,Lunes-viernes continua,9:00-16:00,Actividades extraescolares 16:00-20:00,-,Ii,2,Si,Si (c/ méndez álvaro con rafael de riego),-,Si (un patio),No,"Porterías, canastas, columpios","Alumbrado, fuente","2267,889",Bueno,Parque del retiro (850m),"Biblioteca museo reina sofía (550m), centro dotacional arganzuela (750m)",Nan,"6 , 19 , 27 , 34 , 45 , 47 ,55 , 59 , 69 , 85 , 86 , 102 , 247", atocha,Atocha,Calle mendez alvaro 16
165,5236,Colegio público menéndez pidal,"Comedor, horario ampliado, integración preferente (tratornos generales del desarrollo)",Enseñanza: educación infantil - primaria,0,Http://www.madrid.es/sites/v/index.jsp?vgnextchannel=bfa48ab43d6bb410vgnvcm100000171f5a0arcrd&vgnextoid=ea24a3f5ca71c010vgnvcm1000000b205a0arcrd,Madrid,Madrid,28030,Fontarron,Moratalaz,445593,4472413,917 736 781,913 016 012,Nan,Ayuntamiento,Lunes-viernes continua,9:00-16:00,Actividades extraescolares 16:00-18:15,-,Iii,1,Si (una parte del patio),Si (c/ encomienda de palacios),-,No,Toldos (5x30m²),"Porterías, canastas, columpios",Fuente,"1106,2","Regular (grietas, y deterioro en las escaleras)",Parque de los patines (450m),Centro sociocultural moratalaz (600m),Nan," 8 , 20 , 30 , 71 , 100",Nan,Artilleros,Calle encomienda de palacios 85
166,5237,Colegio público meseta de orcasitas,"Comedor, horario ampliado, planes de mejora",Enseñanza: educación infantil - primaria - enseñanza biling&amp;uuml;e,0,Http://www.madrid.es/sites/v/index.jsp?vgnextchannel=bfa48ab43d6bb410vgnvcm100000171f5a0arcrd&vgnextoid=3044a3f5ca71c010vgnvcm1000000b205a0arcrd,Madrid,Madrid,28041,Orcasitas,Usera,439681,4469283,913 413 045,913 417 861,Nan,Ayuntamiento,Lunes-viernes partida,9:00-16:00,Actividades extraescolares 16:00-17:00,-,I,2,Si,Si (c/ pedreña),C/ pont de molins,Sí,No,"Porterías, canasta",No,"1503,13",Regular (necesita mejoras para garantizar la seguridad),Parque lineal de palomeras (550m),Cd nuevas palomeras (650m),Nan," 6 , 60 , 78 , 81 , 116 , 121 , 131",Nan,Nan,Calle camino viejo de villaverde 1
167,5238,Colegio público mesonero romanos,"Comedor, horario ampliado, planes de mejora",Enseñanza: educación infantil - primaria - enseñanza biling&amp;uuml;e,0,Http://www.madrid.es/sites/v/index.jsp?vgnextchannel=bfa48ab43d6bb410vgnvcm100000171f5a0arcrd&vgnextoid=8554a3f5ca71c010vgnvcm1000000b205a0arcrd,Madrid,Madrid,28038,Portazgo,Puente De Vallecas,445313,4471653,913 037 096,913 800 850,Nan,Ayuntamiento,Lunes-viernes partida,9:00-16:00,Actividades extraescolares 16:00-17:00,-,Ii,2,Si,Si (c/ pedreña),C/ pont de molins,Sí,No,"Porterías, canasta",No,"1503,13",Regular (necesita mejoras para garantizar la seguridad),Parque lineal de palomeras (550m),Cd nuevas palomeras (650m),Nan," 63 , 142 , 144 , e",Nan,Nan,Calle pont de molins 31
168,5239,Colegio público miguel blasco vilatela,"Comedor, horario ampliado, planes de mejora",Enseñanza: educación infantil - primaria,0,Http://www.madrid.es/sites/v/index.jsp?vgnextchannel=bfa48ab43d6bb410vgnvcm100000171f5a0arcrd&vgnextoid=da64a3f5ca71c010vgnvcm1000000b205a0arcrd,Madrid,Madrid,28037,Pueblo Nuevo,Ciudad Lineal,446376,4475605,913 043 999,913 043 999,Nan,Comunidad,Lunes-viernes,9:00-16:00,-,-,I,1,Si,Si (c/ luis campos),-,Si,"Porche, toldo, arbolado","Porterías, canastas, mesas, rocódromo",Alumbrado,"3569,911",Mejorable,"Parque santurce (500m), parque ascao (750m)",Cdm pueblo nuevo (650m),Nan," 4 , 28 , 38 , 48 , 70",Nan,García noblejas,Calle hermanos garcia noblejas 70
169,5240,Colegio público miguel de unamuno,"Comedor, transporte, horario ampliado, planes de mejora",Enseñanza: educación infantil - primaria - enseñanza biling&amp;uuml;e,0,Http://www.madrid.es/sites/v/index.jsp?vgnextchannel=bfa48ab43d6bb410vgnvcm100000171f5a0arcrd&vgnextoid=2084a3f5ca71c010vgnvcm1000000b205a0arcrd,Madrid,Madrid,28045,Delicias,Arganzuela,441257,4471959,915 282 554,915 282 554,Nan,Ayuntamiento,Lunes-viernes partida,9:00-16:00,Actividades extraescolares,-,Ii,2,Si,Si (principal),-,Si,No,"Bancos, porterias, canastas",Alumbrado,"1635,62",Regular (suelo irregular),"Parque calle granito (30m), plaza rutilio gacís (300m)","Polideportivo arganzuela (160m), matadero madrid (550m)",Nan," 8 , 19 , 22 , 45 , 47 , 59 , 85 , 86 , 123 , 247",Nan,Legazpi,Calle alicante 5
170,5242,Colegio público miguel servet,"Comedor, integración, horario ampliado",Enseñanza: educación infantil - primaria,0,Http://www.madrid.es/sites/v/index.jsp?vgnextchannel=bfa48ab43d6bb410vgnvcm100000171f5a0arcrd&vgnextoid=7594a3f5ca71c010vgnvcm1000000b205a0arcrd,Madrid,Madrid,28019,San Isidro,Carabanchel,437579,4471968,914 611 757,914 627 953,Nan,Ayuntamiento,Lunes-viernes continua,9:00-16:00,Actividades extraescolares 16:00-18:15,"Servicios sociales de zaida 16:15-20:00, grupo scout heptágono sábados 16:00-20:30",Iii,2,Si,Si (c/ fragata y c/ castellflorite),-,No,Porche (50m²),"Porterías, canastas, columpios, bancos","Alumbrado, fuentes","1850,08 + 1370,84",Nuevo,Nan,Nan,Nan," 17 , 25 , 118 , 119",Nan,Nan,Calle fragata 33
171,5243,Colegio público mirasierra,"Comedor, transporte, horario ampliado",Enseñanza: educación infantil - primaria - enseñanza biling&amp;uuml;e,0,Http://www.madrid.es/sites/v/index.jsp?vgnextchannel=bfa48ab43d6bb410vgnvcm100000171f5a0arcrd&vgnextoid=caa4a3f5ca71c010vgnvcm1000000b205a0arcrd,Madrid,Madrid,28034,Mirasierra,Fuencarral-El Pardo,439475,4482517,917 345 665,917 350 356,Nan,Ayuntamiento,Lunes-viernes partida,9:00-16:00,Actividades extraescolares 16:00-17:00,-,Iii,2,No (escaleras),No,-,Si,"2 porches (50x3m), arbolado","Porterías, canastas",Alumbrado,"4756,53",Mejorable (barreras arquitectónicas y elementos deteriorados),Nan,Nan,Nan," 133 , 134",Nan,Nan,Calle la maso 22
172,5157,Colegio público monte de el pardo,"Comedor, horario ampliado",Enseñanza: educación infantil - primaria - enseñanza biling&amp;uuml;e,0,Http://www.madrid.es/sites/v/index.jsp?vgnextchannel=bfa48ab43d6bb410vgnvcm100000171f5a0arcrd&vgnextoid=10c4a3f5ca71c010vgnvcm1000000b205a0arcrd,Madrid,Madrid,28048,El Pardo,Fuencarral-El Pardo,434411,4485448,913 760 692,913 760 636,Nan,Ayuntamiento,Lunes-viernes continua,9:30-16:30,Actividades extraescolares 16:30-18:00,-,Iii,2,No,Si (av. de la guardia),C/ san mansueto,No,Toldos,Columpios,Alumbrado,"364,768",Bueno (pero se deteriora más que se arregla),Nan,Nan,Nan," 601, 602",Nan,Nan,Avenida guardia 19
173,5244,Colegio público navas de tolosa,"Transporte, comedor, horario ampliado, planes de mejora",Enseñanza: educación infantil - primaria,0,Http://www.madrid.es/sites/v/index.jsp?vgnextchannel=bfa48ab43d6bb410vgnvcm100000171f5a0arcrd&vgnextoid=65d4a3f5ca71c010vgnvcm1000000b205a0arcrd,Madrid,Madrid,28021,San Cristobal,Villaverde,441908,4466410,917 976 083,917 976 083,Cp.navasdetolosa.madrid@educa.madrid.org,Ayuntamiento,Lunes-viernes continua,9:00-16:00,Actividades extraescolares 16:00-19:00,Fútbol y baloncesto lunes-viernes,Iii,3,Si (2 patios),No,No,No,No,"Canastas, porterías, columpios, zonas de tierra",Alumbrado,"3960,31",Bueno,Parque de la dehesa bayal,Polideportivo raúl gonzález,Nan,"59 , 79", san cristóbal de los angeles,Nan,Calle benimamet 109
174,5247,Colegio público nuestra señora de la almudena,Comedor,Enseñanza: educación infantil - primaria,0,Http://www.madrid.es/sites/v/index.jsp?vgnextchannel=bfa48ab43d6bb410vgnvcm100000171f5a0arcrd&vgnextoid=0005a3f5ca71c010vgnvcm1000000b205a0arcrd,Madrid,Madrid,28009,Ibiza,Retiro,442492,4474487,915 735 899,915 743 106,Nan,Ayuntamiento,Lunes-viernes continua,9:00-16:00,Actividades extraescolares 16:00-17:00,Nan,Ii,1,Si,Si (c/ lope de rueda),-,Si,Porche (60m²),"Canastas, bancos",Alumbrado,"452,28","Regular (recién reformado, presenta grietas en pavimentos)",Parque del retiro (180m),"Centro cultural mercado de ibiza (150m), biblioteca eugenio trías (200m)",Nan," 15 , 20 , 26 , 61 , 63 , 69 , 152 , 202, 215",Nan,Ibiza,Calle lope de rueda 48
175,5248,Colegio público nuestra señora de la concepción,"Comedor, horario ampliado, planes de mejora, integración preferente (trastornos generales del desarrollo)",Enseñanza: educación infantil - primaria,0,Http://www.madrid.es/sites/v/index.jsp?vgnextchannel=bfa48ab43d6bb410vgnvcm100000171f5a0arcrd&vgnextoid=5515a3f5ca71c010vgnvcm1000000b205a0arcrd,Madrid,Madrid,28027,Concepcion,Ciudad Lineal,444867,4476481,914 040 275,914 047 955,Nan,Ayuntamiento,Lunes-viernes,9:00-16:00,Actividades extraescolares 16:00-17:00,Centro integrado de servicios sociales 16:30-20:00,Iii,2,No (falta rampa de acceso),No,-,Si,"Porches (18x9), algo de arbolado","Porterías, canastas, mesas, bancos, pirámide de escalada, rocódromo, columpios",Fuente,"3604,345",Mejorable (falta arreglar suelos),"Parque el calero (20m), parque pablo raez (500m)",Polideportivo municipal (0m),Nan, 21,Nan,Barrio de la concepcion,Calle virgen del sagrario 24
176,5249,Colegio público nuestra señora de la fuencisla,"Comedor, horario ampliado, planes de mejora",Enseñanza: educación infantil - primaria - enseñanza biling&amp;uuml;e,0,Http://www.madrid.es/sites/v/index.jsp?vgnextchannel=bfa48ab43d6bb410vgnvcm100000171f5a0arcrd&vgnextoid=aa25a3f5ca71c010vgnvcm1000000b205a0arcrd,Madrid,Madrid,28026,Almendrales,Usera,440730,4470191,914 754 327,915 001 173,Nan,Ayuntamiento,Lunes-viernes continua,9:00-16:00,Actividades extraescolares 16:00-18:00,-,I,2,Si,Si (c/ tomelloso),-,Si,"Porche (75m2), arbolado","Porterías, canastas, tobogán",No,"2789,92",Bueno,Parque de pradolongo,Nan,Nan,"18 , 22 , 59 , 76 , 79 , 85 , 86", doce de octubre,Nan,Calle tomelloso 39
177,5250,Colegio público nuestra señora de la luz,"Transporte, horario ampliado, comedor, planes de mejora",Enseñanza: educación infantil - primaria,0,Http://www.madrid.es/sites/v/index.jsp?vgnextchannel=bfa48ab43d6bb410vgnvcm100000171f5a0arcrd&vgnextoid=ff35a3f5ca71c010vgnvcm1000000b205a0arcrd,Madrid,Madrid,28021,San Andres,Villaverde,440182,4466348,917 950 766,917 975 020,Nan,Ayuntamiento,Lunes-viernes continua,9:00-16:00,Actividades extraescolares 16:00-17:00,-,Iii,1,Si,Si (c/ magnesia),C/ amadeo fernández,No,Si,"Canastas, toboganes, zona de tierra",Fuentes,"1845,76",Bueno,Nan,Nan,Nan, 22,Nan,Nan,Calle magnesia 9
178,5251,Colegio público nuestra señora de la paloma,"Comedor, horario ampliado, planes de mejora",Enseñanza: educación infantil - primaria - enseñanza biling&amp;uuml;e,1,Http://www.madrid.es/sites/v/index.jsp?vgnextchannel=bfa48ab43d6bb410vgnvcm100000171f5a0arcrd&vgnextoid=4555a3f5ca71c010vgnvcm1000000b205a0arcrd,Madrid,Madrid,28005,Palacio,Centro,445938,4472508,913 640 630 - 913 653 675,913 653 675,Nan,Ayuntamiento,Lunes-viernes continua,9:00-16:00,Actividades extraescolares 16:00-19:00,"Campeonatos fútbol fin de semana, club deportivo cdr la paloma",Ii,2,Si,Si,-,Sí,Porche (135m²),"Porterías, canastas, juegos, bancos, rocódromos","Alumbrado, fuentes","245,076",Bueno,"Plaza de los carros (110m), parque de la cornisa (230m)","Bibliotecas,centro cultural, polideportivo plaza cebada (400m)",Nan," 3 , 17 , 18 , 23 , 35 , 60 , 148",Nan,La latina,Calle tabernillas 2
179,5252,Colegio público nuestra señora del lucero,"Comedor, horario ampliado, transporte, planes de mejora",Enseñanza: educación infantil - primaria,0,Http://www.madrid.es/sites/v/index.jsp?vgnextchannel=bfa48ab43d6bb410vgnvcm100000171f5a0arcrd&vgnextoid=9a65a3f5ca71c010vgnvcm1000000b205a0arcrd,Madrid,Madrid,28047,Los Carmenes,Latina,437118,4472688,914 647 678,914 647 678,Nan,Ayuntamiento,Lunes-viernes continua,9:00-16:00,Actividades extraescolares 16:00-17:00,-,Ii,3,Si,Si,-,Si (en gimnasio),No,"Canastas, porterías, mesas, columpios",No,"9139,73 + 2664,48",-,Nan,Nan,"Patios muy amplios con suelos duros y de tierra, alguna vegetación","31 , 119 , 138", laguna,Laguna,Calle muñico 1
180,11167184,Colegio público nuria espert,"Comedor, horario ampliado",Enseñanza: educación infantil - primaria - enseñanza biling&amp;uuml;e,0,Http://www.madrid.es/sites/v/index.jsp?vgnextchannel=bfa48ab43d6bb410vgnvcm100000171f5a0arcrd&vgnextoid=0a8c4279bad91710vgnvcm1000001d4a900arcrd,Madrid,Madrid,28055,Timon,Barajas,448214,4482036,686 545 008 (secretaria),Nan,Cp.nuriaespert.madrid@educa.madrid.org,Ayuntamiento,Lunes-viernes,-,-,-,Iii,0,-,-,-,No,No,-,No,0,-,Nan,Nan,Hasta 2021 pertenecía al distrito de barajas, se 799,Nan,Nan,Calle maria reiche 34
181,5255,Colegio público pablo picasso,"Comedor -horario ampliado, planes de mejora",Enseñanza: educación infantil - primaria - enseñanza biling&amp;uuml;e,0,Http://www.madrid.es/sites/v/index.jsp?vgnextchannel=bfa48ab43d6bb410vgnvcm100000171f5a0arcrd&vgnextoid=ef75a3f5ca71c010vgnvcm1000000b205a0arcrd,Madrid,Madrid,28043,Pinar Del Rey,Hortaleza,445140,4480214,913 821 795 / 917 646 297,917 646 297,Nan,Ayuntamiento,Lunes-viernes continua,9:00-16:00,Actividades extraescolares 16:00-18:00,-,Iii,2,Si,Si (c/ ángel luis de la herrán),-,No,No,"Porterías, canastas, mesas",Alumbrado,"4066,6399",Bueno,Nan,Nan,Nan," 9 , 72 , 120 , 125",Nan,Nan,Calle angel luis de la herran 35
182,5256,Colegio público padre coloma,"Comedor, horario ampliado",Enseñanza: educación infantil - primaria,0,Http://www.madrid.es/sites/v/index.jsp?vgnextchannel=bfa48ab43d6bb410vgnvcm100000171f5a0arcrd&vgnextoid=3595a3f5ca71c010vgnvcm1000000b205a0arcrd,Madrid,Madrid,28022,Canillejas,San Blas-Canillejas,447859,4477718,91 742 64 47,91 741 25 98,Nan,Ayuntamiento,Lunes-viernes continua,8:00-16:00,Actividades extraescolares 16:00-17:00,Nan,Iii,1,Si,Si,Nan,No,Si (20x6m),"Canastas, porterías",Fuente,"1487,3943",Aceptable,Nan,Nan,Nan," 77 , 89 , 105 , 114 , 115 , 140",Nan,Canillejas,Calle gutierrez canales 19
183,5257,Colegio público padre mariana,"Comedor, transporte, planes de mejora",Enseñanza: educación infantil - primaria,0,Http://www.madrid.es/sites/v/index.jsp?vgnextchannel=bfa48ab43d6bb410vgnvcm100000171f5a0arcrd&vgnextoid=8aa5a3f5ca71c010vgnvcm1000000b205a0arcrd,Madrid,Madrid,28053,Entrevias,Puente De Vallecas,443015,4469823,917 861 773,917 861 773,Nan,Ayuntamiento,Lunes-viernes continua,9:00-16:00,-,No,Iii,1,Si (algún desnivel),No,No,Sí,"Porches pequeños, árboles","Porterías, canastas, bancos, columpios",Alumbrado débil,"2764,27",Muy bueno,Parque forestal de entrevías (100m),Cdm entrevías (220m),Nan," 102, 111",Nan,Nan,Ronda sur 145
184,5258,Colegio público padre poveda,"Comedor, horario ampliado, planes de mejora",Enseñanza: educación infantil - primaria - enseñanza biling&amp;uuml;e,0,Http://www.madrid.es/sites/v/index.jsp?vgnextchannel=bfa48ab43d6bb410vgnvcm100000171f5a0arcrd&vgnextoid=dfb5a3f5ca71c010vgnvcm1000000b205a0arcrd,Madrid,Madrid,28002,Ciudad Jardin,Chamartin,443380,4478055,914 151 195 - 915 199 877,914 162 781,Nan,Ayuntamiento,Lunes-viernes,9:00-16:00,Actividades extraescolares 16:00-17:30,-,Iii,1,Si ,Si (avda alfonso xiii y c/ luis larrainza),-,No,Cubierta (50m²),Canastas,"Alumbrado débil, fuentes","896,73",Bueno,Parque félix rodriguez de la fuente (230m),"Polideportivo pradillo (450m), instalación deportiva (500m), biblioteca francisco ibáñez (900m)",Nan," 9 , 40 , 43 , 72 , 73",Nan,Alfonso xiii,Avenida alfonso xiii 23
185,5260,Colegio público palacio valdés,"Comedor, planes de mejora",Enseñanza: educación infantil - primaria,0,Http://www.madrid.es/sites/v/index.jsp?vgnextchannel=bfa48ab43d6bb410vgnvcm100000171f5a0arcrd&vgnextoid=25d5a3f5ca71c010vgnvcm1000000b205a0arcrd,Madrid,Madrid,28014,Cortes,Centro,441318,4473765,914 203 370 - 913 695 034,914 203 370,Nan,Ayuntamiento,Lunes-viernes partida,9:00-16:00,Actividades extraescolares 16:00-20:00,-,Iii,1,Si,No,-,No,No,No,No,"264,496",Regular (humedades y deterioro en paredes),Parque del retiro (550m),"Real jardín botánico (450m), cdm la chopera (950m)",Nan,"10 , 14 , 27 , 34 , 37 , 45 , 141", atocha,Atocha,Paseo prado 38
186,5261,Colegio público palomeras bajas,"Comedor, integración (general), horario ampliado",Enseñanza: educación infantil - primaria,0,Http://www.madrid.es/sites/v/index.jsp?vgnextchannel=bfa48ab43d6bb410vgnvcm100000171f5a0arcrd&vgnextoid=7ae5a3f5ca71c010vgnvcm1000000b205a0arcrd,Madrid,Madrid,28018,Palomeras Bajas,Puente De Vallecas,443902,4470055,91 785 48 17,Nan,Nan,Ayuntamiento,Lunes-viernes partida,9:00-16:00,-,-,I,2,Si,Si (c/ felipe de diego),-,"Sí, en porche",Porche (300m²),"Porterías, canastas",Alumbrado,"1233,1688",Bueno,Parque lineal de palomeras (950m),"Centro cultural paco rabal (30m), instalación deportiva básica (160m)",Nan,"57 , 144", entrevías,Nan,Calle felipe de diego 6
187,5263,Colegio público parque aluche,"Comedor, transporte, integración (preferentemente motóricos), horario ampliado",Enseñanza: educación infantil - primaria enseñanza bling&amp;uuml;e,1,Http://www.madrid.es/sites/v/index.jsp?vgnextchannel=bfa48ab43d6bb410vgnvcm100000171f5a0arcrd&vgnextoid=cff5a3f5ca71c010vgnvcm1000000b205a0arcrd,Madrid,Madrid,28024,Aluche,Latina,435413,4471416,91 717 81 90,Nan,Cp.parquealuche.madrid@educa.madrid.org,Ayuntamiento,Lunes-viernes continua,9:00-16:00,Actividades extraescolares 16:00-17:00,-,Iii,1,Si,Si,-,No,Zona techada en la fachada del edificio,"Canastas, porterías",No,"1803,21",-,Nan,Nan,Escolariza niños con discapacidad motora," 25 , 121 , 131 , h",Nan,Empalme,Calle quero 47
188,5151,Colegio público parque eugenia de montijo,"Comedor, horario ampliado, planes de mejora",Enseñanza: educación infantil - primaria - enseñanza biling&amp;uuml;e,0,Http://www.madrid.es/sites/v/index.jsp?vgnextchannel=bfa48ab43d6bb410vgnvcm100000171f5a0arcrd&vgnextoid=d1cda3f5ca71c010vgnvcm1000000b205a0arcrd,Madrid,Madrid,28047,Vista Alegre,Carabanchel,436244,4470234,914 615 653,914 615 603,Nan,Ayuntamiento,Lunes-viernes partida,9:00-15:00,Actividades extraescolares 15:00-17:00,-,Iii,1,Si (una parte del patio),Si,-,No,"Zona cubierta (20x10m), arbolado","Porterías, canastas, aula exterior",Fuente,"4097,78",Mejorable,"Parque eugenia de montijo, parque de las cruces","Polideportivo la mina, polideportivo las cruces, polideportivo francisco fdz ochoa",Nan," 34 , 35 , 121 , 131 , 139",Nan,Nan,Calle parque eugenia de montijo 28
189,5264,Colegio público pasamonte,"Comedor, integración (general)",Enseñanza: educación infantil - primaria - enseñanza biling&amp;uuml;e,0,Http://www.madrid.es/sites/v/index.jsp?vgnextchannel=bfa48ab43d6bb410vgnvcm100000171f5a0arcrd&vgnextoid=1516a3f5ca71c010vgnvcm1000000b205a0arcrd,Madrid,Madrid,28030,Marroquina,Moratalaz,445019,4473719,91 430 53 66,Nan,Nan,Ayuntamiento,Lunes-viernes continua,9:00-16:00,Actividades extraescolares 16:00-18:00,-,Iii,3,No,Si (av. dr garía tapia),-,No,Arbolado,"Porterías, canastas",Alumbrado,"2946,96",-,Parque moratalaz (200m),"Campo urbis (550m), biblioteca miguel delibes (600m)",Los accesos a los patios tienen algunos desniveles y escaleras," 30 , 32 , 71 , 113",Nan,Vinateros,Avenida doctor garcia tapia 47
190,5253,Colegio público patriarca obispo eijo y garay,"Comedor, horario ampliado, planes de mejora",Enseñanza: educación infantil - primaria - enseñanza biling&amp;uuml;e,0,Http://www.madrid.es/sites/v/index.jsp?vgnextchannel=bfa48ab43d6bb410vgnvcm100000171f5a0arcrd&vgnextoid=6a26a3f5ca71c010vgnvcm1000000b205a0arcrd,Madrid,Madrid,28006,El Viso,Chamartin,442193,4476784,917 450 282,917 451 152,Nan,Ayuntamiento,Lunes-viernes,9:00-16:00,Actividades extraescolares 16:00-19:30,-,Iii,1,Si,Si (c/ edison),-,No,No,"Canastas, columpios",Alumbrado,"3847,45",Pendiente de reparación de pistas deportivas,Jardines gregorio ordóñez (800m),"Centro cultural ecuador (400m), centro cultural china (800m)",Patio muy amplio con posta deportiva y cierta vegetación. varios subespacios," 9, 16, 19, 29 , 52, circular",Nan,Avenida de américa,Calle lopez de hoyos 40
191,176881,Colegio público pedro duque,"Transporte, horario ampliado, comedor, planes de mejora",Enseñanza: educación infantil (segundo ciclo) - primaria,0,Http://www.madrid.es/sites/v/index.jsp?vgnextchannel=bfa48ab43d6bb410vgnvcm100000171f5a0arcrd&vgnextoid=ee844b6faa61c010vgnvcm1000000b205a0arcrd,Madrid,Madrid,28032,Casco H.Vicalvaro,Vicalvaro,448463,4472023,917 762 363,917 753 209,Nan,Ayuntamiento,Lunes-viernes continua,9:00-16:00,Actividades extraescolares 16:00-17:00,-,Iii,2,Si,Si (c/ molino viejo),Acceso principal (c/ marmolina),No,Toldos plegables,"Porterías, canastas","Alumbrado, fuentes","4769,08",Aceptable (alguna grieta),"Parque forestal valdebernardo (220m), parque valderribas (400m)",-,Nan," 71, 100",Nan,Nan,Calle marmolina 5
192,5267,Colegio público perú,"Comedor, horario ampliado",Enseñanza: educación infantil - primaria,0,Http://www.madrid.es/sites/v/index.jsp?vgnextchannel=bfa48ab43d6bb410vgnvcm100000171f5a0arcrd&vgnextoid=bf36a3f5ca71c010vgnvcm1000000b205a0arcrd,Madrid,Madrid,28019,Comillas,Carabanchel,439577,4471918,91 569 14 65,Nan,Nan,Ayuntamiento,Lunes-viernes continua,9:00-16:00,Actividades extraescolares 16:00-20:00,-,Iii,4,Si,Si (c/ baleares),C/ antonio leyva,Si,Si (100m²),"Porterías, canastas, juegos","Alumbrado, fuentes","1421,85 + 1219,65 + 1731,99",Bueno,Nan,Nan,Nan," 23 , 34 , 35 , 116 , 118 , 119",Nan,Marqués de vadillo,Calle baleares 18
193,5268,Colegio público pi i margall,"Comedor, horario ampliado, planes de mejora",Enseñanza: educación infantil - primaria - enseñanza biling&amp;uuml;e,0,Http://www.madrid.es/sites/v/index.jsp?vgnextchannel=bfa48ab43d6bb410vgnvcm100000171f5a0arcrd&vgnextoid=0556a3f5ca71c010vgnvcm1000000b205a0arcrd,Madrid,Madrid,28004,Universidad,Centro,440234,4475367,915 323 420,915 231 075,Nan,Ayuntamiento,Lunes-viernes continua,9:00-16:00,Actividades extraescolares 16:00-17:00,-,Iii,1,No,No,-,Sí,Porche,Canastas,No,"291,34",Bueno,"Plaza dos de mayo (0m), parque conde del valle de suchil (650m)",Biblioteca mario vargas llosa (500m) centro cultural conde duque,Nan," 3 , 21 , 40 , 147 , 149",Nan,"Noviciado , tribunal , bilbao",Plaza dos de mayo 2
194,176871,Colegio público pinar de san josé,"Horario ampliado, comedor, integración preferente: motóricos",Enseñanza: segundo ciclo de educación infantil - primaria,1,Http://www.madrid.es/sites/v/index.jsp?vgnextchannel=bfa48ab43d6bb410vgnvcm100000171f5a0arcrd&vgnextoid=99744b6faa61c010vgnvcm1000000b205a0arcrd,Madrid,Madrid,28054,Buenavista,Carabanchel,435102,4468331,915 112 417,915 112 418,Cp.pinardesanjose.madrid@educa.madrid.org,Ayuntamiento,Lunes-viernes partida,9:00-16:00,Actividades extraescolares 16:00-20:00,-,Iii,3,Si,Si (c/ patrimonio de la humanidad),C/ los morales,No,Si,"Porterías, canastas, toboganes, bancos, zonas de tierra",Alumbrado,"6364,01","Mejorable (pavimentos deteriorados, vallado muy bajo)",Nan,Nan,Nan,"155, 35",Nan, la peseta,Calle patrimonio de la humanidad 39
195,5269,Colegio público pinar del rey,"Comedor, horario ampliado, planes de mejora",Enseñanza: educación infantil - primaria - enseñanza biling&amp;uuml;e,0,Http://www.madrid.es/sites/v/index.jsp?vgnextchannel=bfa48ab43d6bb410vgnvcm100000171f5a0arcrd&vgnextoid=5a66a3f5ca71c010vgnvcm1000000b205a0arcrd,Madrid,Madrid,28033,Pinar Del Rey,Hortaleza,444541,4480310,917 664 763,917 664 763,Nan,Ayuntamiento,Lunes-viernes continua,9:00-16:00,Actividades extraescolares 16:00-18:00,-,Iii,2,No (escaleras),Si (c/ cervera),Acceso principal del centro,Si,"Porche, arbolado","Porterías, canastas, columpios",No,"3954,2965",Bueno,Nan,Nan,Normalmente el patio es cedido por las tardes a una asociación del barrio," 107 , 125",Nan,Nan,Avenida san luis 23
196,5270,Colegio público pintor rosales,"Comedor, horario ampliado, planes de mejora",Enseñanza: educación infantil - primaria - enseñanza biling&amp;uuml;e -,0,Http://www.madrid.es/sites/v/index.jsp?vgnextchannel=bfa48ab43d6bb410vgnvcm100000171f5a0arcrd&vgnextoid=af76a3f5ca71c010vgnvcm1000000b205a0arcrd,Madrid,Madrid,28002,El Viso,Chamartin,442559,4477537,915 623 948,915 638 730,Nan,Ayuntamiento,Lunes-viernes,9:00-17:30,Gimnasio 17:30-20:45,-,Iii,1,Si,No,-,No,No,"Canastas, porterías",No,"1152,42",Reformado recientemente,"Jardines pablo sorozábal (0m), parque berlín (550m)","Centro sociocultural luis gonzaga (50m), biblioteca francisco ibáñez (650m)",Nan," 29 , 52",Nan,Cruz del rayo,Calle principe de vergara 139
197,5271,Colegio público pío baroja,"Comedor, horario ampliado",Enseñanza: educacion infantil - primaria - enseñanza biling&amp;uuml;e,0,Http://www.madrid.es/sites/v/index.jsp?vgnextchannel=bfa48ab43d6bb410vgnvcm100000171f5a0arcrd&vgnextoid=f496a3f5ca71c010vgnvcm1000000b205a0arcrd,Madrid,Madrid,28030,Vinateros,Moratalaz,445867,4472744,917 739 618 - 913 713 235,917 739 618,Nan,Ayuntamiento,Lunes-viernes continua,9:00-16:00,Actividades extraescolares 16:00-18:00,-,Iii,3,Si,Si (c/ luis de hoyos sainz),-,No,2 porches (15m²),"Porterías, canastas",Alumbrado (1 pista),"2413,01",Bueno,Parque vandel (20m),Polideportivo anfevi (600m),Nan," 20, 30, 32 , 100 , 140 , 142",Nan,"Artilleros, pavones",Calle luis de hoyos sainz 84
198,5272,Colegio público pío xii,"Comedor, transporte",Enseñanza: educación infantil - primaria,0,Http://www.madrid.es/sites/v/index.jsp?vgnextchannel=bfa48ab43d6bb410vgnvcm100000171f5a0arcrd&vgnextoid=4aa6a3f5ca71c010vgnvcm1000000b205a0arcrd,Madrid,Madrid,28029,Almenara,Tetuan,441176,4479817,91 315 12 21,Nan,Nan,Ayuntamiento,Lunes-viernes continua,9:00-15:45,Actividades extraescolares 16:00-17:00,-,I,1,Si,Si (c/ defín),-,Si,Porches,"Canastas, porterías, columpios",Alumbrado,"1508,38",Regular,Plaza remonta (600m),"Biblioteca maria zambrano (400m), centro cultural fernando urculo (450m), cdm antonio diaz (650m)","Patio protegido, con espacio cubierto"," 5 , 27 , 42 , 49 , 66 ,124 , 134 , 135 ,",Nan,Plaza de castilla,Calle delfin 2
199,5430971,Colegio público plácido domingo,"Horario ampliado, comedor",Enseñanza: educación infantil - primaria,0,Http://www.madrid.es/sites/v/index.jsp?vgnextchannel=bfa48ab43d6bb410vgnvcm100000171f5a0arcrd&vgnextoid=81ecf6fddbf04210vgnvcm1000000b205a0arcrd,Madrid,Madrid,28045,Atocha,Arganzuela,442433,4472093,917 650 789 - 633 494 079,Nan,Nan,Ayuntamiento,Lunes-viernes continua,7:30-18:00,-,-,Iii,1,Si,Si (c/ tejo),-,No,No,"Porterías, canastas",No,"2057,91",Bueno,Parque planetario (750m),-,Nan,"8, 102, 152, 156",Nan, méndez álvaro,Calle tejo 5
200,5273,Colegio público portugal,Comedor,Enseñanza: educación infantil - primaria,0,Http://www.madrid.es/sites/v/index.jsp?vgnextchannel=bfa48ab43d6bb410vgnvcm100000171f5a0arcrd&vgnextoid=9fb6a3f5ca71c010vgnvcm1000000b205a0arcrd,Madrid,Madrid,28008,Arguelles,Moncloa-Aravaca,439356,4475167,91 541 73 30,Nan,Nan,Ayuntamiento,Lunes-viernes,9:00-16:00,Actividades extraescolares 16:00-18:30,Nan,Iii,2,Si,No,Nan,No,Si (20m²),"Bancos (mal estado), canastas",Alumbrado ,"575,76",Nan,Necesita reparación urgente,"Parque de la montaña (200m), pza de españa (250m)",Biblioteca jose acuña (400m)," 1 , 2 , 44 , 46 , 74 , 75 , 133 , 138 , 148 , 202",Nan,"Ventura rodríguez , plaza de españa",Calle juan alvarez mendizabal 20
201,5275,Colegio público pradolongo,"Comedor, horario ampliado",Enseñanza: educación infantil - primaria,0,Http://www.madrid.es/sites/v/index.jsp?vgnextchannel=bfa48ab43d6bb410vgnvcm100000171f5a0arcrd&vgnextoid=e4d6a3f5ca71c010vgnvcm1000000b205a0arcrd,Madrid,Madrid,28026,Zofio,Usera,439235,4470063,91 469 35 81,Nan,Nan,Ayuntamiento,Lunes-viernes continua,9:00-16:00,Actividades extraescolares 16:00-17:00,-,Iii,2,Si,Si (c/ parque de la paloma),-,No,"Porche, arbolado","Porterías, canastas, columpios",No,"5762,1",Pendiente de reforma,"Parque pradolongo, parque olof palmer, parque sur",Nan,Nan," 6 , 60 , 78 , 81",Nan,Nan,Calle parque de la paloma 9
202,5276,Colegio público príncipe de asturias,Comedor,Enseñanza: educación infantil - primaria,0,Http://www.madrid.es/sites/v/index.jsp?vgnextchannel=bfa48ab43d6bb410vgnvcm100000171f5a0arcrd&vgnextoid=3ae6a3f5ca71c010vgnvcm1000000b205a0arcrd,Madrid,Madrid,28049,El Goloso,Fuencarral-El Pardo,440993,4488102,917 355 115,917 355 003,Nan,Ayuntamiento,Lunes-viernes partida,9:00-16:00,Actividades extraescolares 16:00-17:30,-,Ii,1,Si,Si (c/ kant),"C/ pavlov, carretera de colmenar viejo",Si,"Pasarela cubierta, mucho arbolado","Porterías, canastas, columpios, bancos","Alumbrado, fuentes","4127,85",Regular (difícil de mantener por su tamaño),Nan,Nan,"Patio dividido en varias zonas irregulares de tierra, con vegetación.",Nan,Nan,Nan,Calle kant 2
203,5278,Colegio público puerto rico,"Comedor, horario ampliado, planes de mejora",Enseñanza: educación infantil - primaria - enseñanza biling&amp;uuml;e,0,Http://www.madrid.es/sites/v/index.jsp?vgnextchannel=bfa48ab43d6bb410vgnvcm100000171f5a0arcrd&vgnextoid=d417a3f5ca71c010vgnvcm1000000b205a0arcrd,Madrid,Madrid,28041,Orcasitas,Usera,438923,4468845,913 412 726,913 416 960,Nan,Ayuntamiento,Lunes-viernes continua,9:00-16:00,Actividades extraescolares 16:00-17:00,Servicio psicopedagógico 16:00-18:00,Ii,1,Si,Si (c/ segura),-,Si,Porche (150m2),"Porterías, canastas, tobogán, mesas de juegos, bancos de obra",Fuentes,"4538,64","Una parte nueva, otra en mal estado",Nan,Nan,Nan," 6 , 60 , 131",Nan,Nan,Calle segura 74
204,5279,Colegio público rabindranath tagore,"Comedor, horario ampliado, planes de mejora",Enseñanza: educacion infantil - primaria - enseñanza biling&amp;uuml;e,0,Http://www.madrid.es/sites/v/index.jsp?vgnextchannel=bfa48ab43d6bb410vgnvcm100000171f5a0arcrd&vgnextoid=2a27a3f5ca71c010vgnvcm1000000b205a0arcrd,Madrid,Madrid,28029,La Paz,Fuencarral-El Pardo,441019,4481612,917 332 373,917 332 373,Nan,Ayuntamiento,Lunes-viernes continua,9:00-16:00,Actividades extraescolares 16:00-17:00,-,Ii,,-,Si,-,No,No,-,No,"3975,48",-,Nan,Nan,"Parcela grande y compleja, diferentes espacios e instalaciones disgregadas. "," 67 , 132",Nan,Nan,Calle julio palacios 35
205,6027,Colegio público ramiro de maeztu,"Comedor, horario ampliado, planes de mejora",Enseñanzas autorizadas: educación infantil segundo ciclo - educación primaria - enseñanza biling&amp;uuml;e  - alemán,0,Http://www.madrid.es/sites/v/index.jsp?vgnextchannel=bfa48ab43d6bb410vgnvcm100000171f5a0arcrd&vgnextoid=91f4ae10c471c010vgnvcm1000000b205a0arcrd,Madrid,Madrid,28006,El Viso,Chamartin,441811,4477054,915 616 249,915 647 056,Cp.ramirodemaeztu.madrid@educa.madrid.org,Comunidad,Lunes-viernes,8:20-15:10 y 17:30-22:30,-,-,Iii,5,-,Si (con cierto recorrido),-,No,No,-,No,"1007,64 + 407",-,Plaza de azca (900m),Pabellón deportivo la nevera (0m),Patios disgregados conectados a través de corredores abiertos. pistas deportivas amplias. ," 9 , 16 , 19 , 51",Nan,República argentina,Calle serrano 127
206,5280,Colegio público ramón gómez de la serna,"Comedor, transporte",Enseñanza: educacion infantil - primaria - enseñanza biling&amp;uuml;e,0,Http://www.madrid.es/sites/v/index.jsp?vgnextchannel=bfa48ab43d6bb410vgnvcm100000171f5a0arcrd&vgnextoid=7f37a3f5ca71c010vgnvcm1000000b205a0arcrd,Madrid,Madrid,28021,San Cristobal,Villaverde,441540,4465897,917 972 522 - 915 053 446,917 972 554,Nan,Ayuntamiento,Lunes-viernes continua,9:00-16:00,-,-,Iii,3,Si,Si (c/ godella),-,No,Si (pequeños),"Canastas, porterías, tobogán, papeleras",No,"1966,30 + 1246,91",Bueno,Nan,Nan,Nan,"59 , 79", san cristóbal de los angeles,Nan,Calle godella 170
207,5281,Colegio público ramón maría del valle inclán,"Comedor, horario ampliado, planes de mejora",Enseñanza: educación infantil - primaria,0,Http://www.madrid.es/sites/v/index.jsp?vgnextchannel=bfa48ab43d6bb410vgnvcm100000171f5a0arcrd&vgnextoid=c457a3f5ca71c010vgnvcm1000000b205a0arcrd,Madrid,Madrid,28037,Hellin,San Blas-Canillejas,447556,4475652,913 130 739,913 130 739,Nan,Ayuntamiento,Lunes-viernes continua,9:00-16:00,Actividades extraescolares 16:00-20:00,Entrenamientos equipo de baloncesto del distrito,I,2,Si,Si (c/ alconera),C/ taquigrafía,Si (vestuarios),No,"Porterías, canastas, bancos, columpios, vestuarios","Alumbrado, fuente","10129,334",Regular (necesita renovación y sombras),Nan,Nan,"Varias pistas deportivas, además de un patio delantero con juegos."," 38 , 48",Nan,San blas,Calle alconera 1
208,5282,Colegio público ramón pérez de ayala,"Comedor, horario ampliado, planes de mejora",Enseñanza: educación infantil - primaria - enseñanza biling&amp;uuml;e,0,Http://www.madrid.es/sites/v/index.jsp?vgnextchannel=bfa48ab43d6bb410vgnvcm100000171f5a0arcrd&vgnextoid=1a67a3f5ca71c010vgnvcm1000000b205a0arcrd,Madrid,Madrid,28043,Canillas,Hortaleza,446318,4479712,917 592 205,917 599 412,Nan,Ayuntamiento,Lunes-viernes continua,9:00-16:00,Actividades extraescolares 16:00-18:00,-,Ii,2,Si,Si (c/ motilla del palancar),C/ pedro alonso,Si,Si,"Porterías, canastas, columpios",Alumbrado,"1663,885",Bueno,Nan,Nan,Nan," 73 , 112 , 120",Nan,Canillas,Calle motilla del palancar 19
209,5283,Colegio público real armada,"Comedor, horario ampliado, planes de mejora",Enseñanza: educación infantil - primaria - enseñanza biling&amp;uuml;e,0,Http://www.madrid.es/sites/v/index.jsp?vgnextchannel=bfa48ab43d6bb410vgnvcm100000171f5a0arcrd&vgnextoid=6f77a3f5ca71c010vgnvcm1000000b205a0arcrd,Madrid,Madrid,28030,Fontarron,Moratalaz,445219,4472545,"917 736 583        
917 724 429 (primaria)",917 736 583,Nan,Ayuntamiento,Lunes-viernes continua,9:00-16:00,Actividades extraescolares 16:00-18:00,-,Iii,2,Si,Si,-,No,"Si (6x10m²), algo de arbolado","Porterías, canastas, juegos",Alumbrado ,"1171,27 + 1611,72",Mejorable (suelos levantados sin arreglar),Parque de los patines (650m),"Biblioteca moratalaz (500m), polideportivo anfevi (750m)",Nan,"8 , 20 , 30 , 63 , 143",Nan, artilleros,Calle corregidor juan francisco de lujan 114
210,5284,Colegio público regimiento inmemorial del rey,"Comedor, horario ampliado, planes de mejora",Enseñanza: educación infantil - primaria - enseñanza biling&amp;uuml;e -,0,Http://www.madrid.es/sites/v/index.jsp?vgnextchannel=bfa48ab43d6bb410vgnvcm100000171f5a0arcrd&vgnextoid=b497a3f5ca71c010vgnvcm1000000b205a0arcrd,Madrid,Madrid,28030,Media Legua,Moratalaz,444220,4473183,914 390 948,913 282 535,Nan,Ayuntamiento,Lunes-viernes continua,9:00-16:00,Actividades extraescolares 16:00-17:00,-,Ii,3,Si (2 patios),Si (av. moratalaz),C/ entrearroyos,Si,No,"Porterías, canastas",No,"1189,62 + 888,65",Mejorable,Parque darwin (100m),Biblioteca miguel delibes (700m),Nan," 8 , 20 , 30 , 32 , 113",Nan,Nan,Avenida moratalaz 51
211,5170,Colegio público reina victoria,"Comedor, horario ampliado, planes de mejora",Enseñanza: educación infantil - primaria,1,Http://www.madrid.es/sites/v/index.jsp?vgnextchannel=bfa48ab43d6bb410vgnvcm100000171f5a0arcrd&vgnextoid=714fa3f5ca71c010vgnvcm1000000b205a0arcrd,Madrid,Madrid,28006,Castellana,Salamanca,442462,4476303,915 631 283,914 113 067,Nan,Ayuntamiento,Lunes-viernes continua,9:00-16:00,Actividades extraescolares 16:00-18:00,-,Iii,1,Si,No,-,Si,Porche (120m²),"Porterías, juegos",Alumbrado (no funciona),"1114,76",Actualmente se está realizando el proyecto de reforma del patio,-,-,Nan," 1 , 29 , 52 , 74",Nan,Núñez de balboa,Calle principe de vergara 61
212,5289,Colegio público república de brasil,"Comedor, horario ampliado, planes de mejora",Enseñanza: educación infantil - primaria enseñanza bling&amp;uuml;e,0,Http://www.madrid.es/sites/v/index.jsp?vgnextchannel=bfa48ab43d6bb410vgnvcm100000171f5a0arcrd&vgnextoid=0aa7a3f5ca71c010vgnvcm1000000b205a0arcrd,Madrid,Madrid,28041,San Fermin,Usera,441427,4469102,917 923 478,917 920 822,Nan,Ayuntamiento,Lunes-viernes continua,9:00-16:00,"Actividades extraescolares  l-v 16:00-19:00, m-j 16:00-20:00","Actividades del ampa, del ayuntamiento, de la comunidad de madrid, 3 escuelas municipales deportivas",Ii,3,Si,Si,-,Si,"Zona de infantil cubierta, arbolado","Porterías, canastas, columpios, bancos corridos, zona para actuaciones, zona de tierra","Alumbrado, fuentes","2794,95",Bueno (reformado en proyecto micos 2019),Parque lineal del manzanares,"Polideportivo orcasur, caja mágica. nueva biblioteca. centro cultural",Cuenta con zonas verdes y equipamientos," 23 , 78 , 123",Nan,Nan,Avenida fueros 34
213,5286,Colegio público república de chile,"Comedor, horario ampliado",Enseñanza: educación infantil - primaria,0,Http://www.madrid.es/sites/v/index.jsp?vgnextchannel=bfa48ab43d6bb410vgnvcm100000171f5a0arcrd&vgnextoid=5fb7a3f5ca71c010vgnvcm1000000b205a0arcrd,Madrid,Madrid,28037,Simancas,San Blas-Canillejas,447003,4475462,91 304 66 58,Nan,Nan,Ayuntamiento,Lunes-viernes continua,9:00-16:00,Actividdes extraescolares 16:00 a 17:30 ,Centro de día cruz roja 16:00-20:00,Ii,4,Si (algunos patios),Si,2,Si (casa del conserje),No,"Porterías, gradas",No,"1978,72",Bueno (la pista),Si,Auditorio,Nan," 4 , 38 , 48 , 70 , 109",Nan,Simancas,Calle castillo de ucles 28
214,5285,Colegio público república de colombia,"Comedor, horario ampliado, planes de mejora",Enseñanza: educación infantil - primaria,0,Http://www.madrid.es/sites/v/index.jsp?vgnextchannel=bfa48ab43d6bb410vgnvcm100000171f5a0arcrd&vgnextoid=a4d7a3f5ca71c010vgnvcm1000000b205a0arcrd,Madrid,Madrid,28025,Puerta Bonita,Carabanchel,437550,4469963,914 650 587,914 650 587,Nan,Ayuntamiento,Lunes-viernes continua,9:00-16:00,-,-,I,3,Si,Si (pza. alloz),-,Si,Si,"Porterías, canastas, columpios, arenero",Alumbrado,"3596,47",Bueno,Nan,Nan,Nan," 47 , 108 , 118 , 121 , 131",Nan,Pan bendito,Plaza alloz 3
215,5290,Colegio público república de ecuador,"Comedor, horario ampliado, planes de mejora",Enseñanza: educación infantil - primaria,0,Http://www.madrid.es/sites/v/index.jsp?vgnextchannel=bfa48ab43d6bb410vgnvcm100000171f5a0arcrd&vgnextoid=f9e7a3f5ca71c010vgnvcm1000000b205a0arcrd,Madrid,Madrid,28019,Opañel,Carabanchel,438554,4471240,914 603 284 - 915 600 937,914 603 284,Nan,Ayuntamiento,Lunes-viernes continua,9:00-16:00,Actividades extraescolares 16:00-17:00,Escuela oficial de idiomas de carabanchel 16:00-20:30,Iii,1,No (escalones),No,-,No,Si (20m²),"Porterías, canastas, mesas",Alumbrado,"3236,9",Bueno,Nan,Nan,Nan," 34 , 35 , 55 , 81 , 108 , 118 , 247",Nan,"Oporto , opañel",Calle valle de oro 41
216,5291,Colegio público república de el salvador,"Comedor, planes de mejora",Enseñanza: educación infantil - primaria,0,Http://www.madrid.es/sites/v/index.jsp?vgnextchannel=bfa48ab43d6bb410vgnvcm100000171f5a0arcrd&vgnextoid=945813db5b71c010vgnvcm1000000b205a0arcrd,Madrid,Madrid,28021,Los Angeles,Villaverde,440728,4466783,917 964 041,917 987 815,Cp.elsalvador.madrid@educa.madrid.org,Ayuntamiento,Lunes-viernes continua,9:00-16:00,Actividades extraescolares 16:00-17:00,Quedamos al salir de clase' 16:00-20:00,Ii,4,Si (1 patio),Si,-,Si,Toldo (patio infantil),"Porterías, canastas",Alumbrado,"1732,78 + 1377,59",Bueno (en patios reformados),Nan,Nan,Nan," 22 , 86 , 130",Nan,Nan,Calle sacedon 2
217,5262,Colegio público república de panamá nº 1,"Comedor, horario ampliado, planes de mejora",Enseñanza: educación infantil - primaria,0,Http://www.madrid.es/sites/v/index.jsp?vgnextchannel=bfa48ab43d6bb410vgnvcm100000171f5a0arcrd&vgnextoid=4ff7a3f5ca71c010vgnvcm1000000b205a0arcrd,Madrid,Madrid,28037,Arcos,San Blas-Canillejas,447612,4475289,"913 065 472    
917 754 199",913 065 472,Nan,Ayuntamiento,Lunes-viernes continua,9:00-16:00,Actividades extraescolares 16:00-18:00,Nan,Iii,3,Si,Si (c/ aparejadores),Nan,No,No,"Canastas, porterías",Alumbrado,"2176,1946",Regular (necesita reformas importantes),Nan,Nan,Nan," 38 , 48",Nan,San blas,Calle peones 2
218,5287,Colegio público república de paraguay,"Comedor, transporte, horario ampliado",Enseñanza: educación infantil - primaria,0,Http://www.madrid.es/sites/v/index.jsp?vgnextchannel=bfa48ab43d6bb410vgnvcm100000171f5a0arcrd&vgnextoid=a41813db5b71c010vgnvcm1000000b205a0arcrd,Madrid,Madrid,28034,Valverde,Fuencarral-El Pardo,441081,4482594,917 343 888,917 351 680,Nan,Ayuntamiento,Lunes-viernes partida,9:00-16:00,Actividades extraescolares 16:00-17:00,-,Ii,2,Si,Si (c/ mataró),Principal del centro,Si,No,"Porterías, canastas, columpios, mesas",No,"2048,72",Muy bueno,Nan,Nan,Espacios muy subdivididos con vallas., 124,Nan,Nan,Calle manresa 60
219,5292,Colegio público república de uruguay,"Comedor, horario ampliado, planes de mejora",Enseñanza: educación infantil - primaria,0,Http://www.madrid.es/sites/v/index.jsp?vgnextchannel=bfa48ab43d6bb410vgnvcm100000171f5a0arcrd&vgnextoid=f92813db5b71c010vgnvcm1000000b205a0arcrd,Madrid,Madrid,28047,Los Carmenes,Latina,437093,4471695,914 661 360,914 613 919,Nan,Ayuntamiento,Lunes-viernes continua,9:00-16:00,Actividades extraescolares 16:00-17:00,-,I,2,Si,Si,-,Si,Si,"Canastas, porterías",No,"6459,51",Bueno,Nan,Nan,"Patio muy amplio, lugar estratégico para zona caño roto"," 17 , 25 , 55, 119",Nan,Carpetana,Avenida nuestra señora de valvanera 120
220,5288,Colegio público república de venezuela,"Comedor, horario ampliado, planes de mejora",Enseñanza: educación infantil - primaria,0,Http://www.madrid.es/sites/v/index.jsp?vgnextchannel=bfa48ab43d6bb410vgnvcm100000171f5a0arcrd&vgnextoid=4f3813db5b71c010vgnvcm1000000b205a0arcrd,Madrid,Madrid,28026,Zofio,Usera,439428,4470578,915 698 392,914 695 258,Nan,Ayuntamiento,Lunes-viernes partida,9:00-16:00,Actividades extraescolares 16:00-20:00,-,I,3,Si,Si (c/ cerecinos),"C/ san magín, c/ ricardo beltrán y rózpide",Si,No,"Porterías, canastas, columpios, bancos",Alumbrado,"2088,24",Bueno,Nan,Nan,Nan," 6 , 47 , 60 , 81 , 247",Nan,Plaza elíptica,Calle cerecinos 8
221,5293,Colegio público república dominicana,"Comedor, planes de mejora, horario ampliado",Enseñanza: educación infantil - primaria,0,Http://www.madrid.es/sites/v/index.jsp?vgnextchannel=bfa48ab43d6bb410vgnvcm100000171f5a0arcrd&vgnextoid=e96813db5b71c010vgnvcm1000000b205a0arcrd,Madrid,Madrid,28044,Buenavista,Carabanchel,436256,4470002,914 629 060,914 662 819,Nan,Ayuntamiento,Lunes-viernes continua,9:00-16:00,Actividades extraescolares 16:00-17:00,Centros abiertos (servicios sociales) 17:00-19:30,Iii,2,Si,Si (pza. del parterre),"Ronda don bosco, parque de la cruz",No,Porche,"Porterías, canastas, columpios",No,"1276,4",Bueno,Parque de las cruces,Nan,Nan," 34 , 35 , 121 , 131 , 139 , 47",Nan,Nan,Ronda don bosco 2
222,5295,Colegio público rosa luxemburgo,"Comedor, horario ampliado, planes de mejora",Enseñanza: educación infantil - primaria - enseñanza biling&amp;uuml;e,0,Http://www.madrid.es/sites/v/index.jsp?vgnextchannel=bfa48ab43d6bb410vgnvcm100000171f5a0arcrd&vgnextoid=3f7813db5b71c010vgnvcm1000000b205a0arcrd,Madrid,Madrid,28023,Aravaca,Moncloa-Aravaca,434574,4477995,913 570 212,913 570 661,Nan,Ayuntamiento,Lunes-viernes partida,9:00-16:00,Actividades extraescolares 16:00-17:30,Nan,Iii,2,Si,Si (c/ bardegueral y c/ seis de diciembre ),Nan,No,Toldos (5m²),"Porterías, canastas, castillos, arenero, juguetes infantiles","Alumbrado, fuentes ","2848,06",Nan,Algunos espacios no muy bien conservados,Parque del arroyo (200m),Pistas deportivas (400m), 160,Nan,Nan,Calle bardegueral 16
223,5298,Colegio público rufino blanco,"Horario ampliado, comedor, planes de mejora",Enseñanza: educacion infantil - primaria - enseñanza biling&amp;uuml;e,0,Http://www.madrid.es/sites/v/index.jsp?vgnextchannel=bfa48ab43d6bb410vgnvcm100000171f5a0arcrd&vgnextoid=849813db5b71c010vgnvcm1000000b205a0arcrd,Madrid,Madrid,28010,Trafalgar,Chamberi,440424,4476634,914 484 083,915 944 701,Nan,Ayuntamiento,Lunes-viernes,9:00-16:00,Actividades extraescolares 16:00-18:00,-,Iii,3,No,Si,-,No,No,-,No,"1319,28",-,"Parque enrique herreros (200m), parque rios rosas (400m), parque santander (700m)","Biblioteca jose luis sampedro (500m), instalaciones deportivas canal (700m)",Nan," 3 , 12 , 37 , 149",Nan,Canal,Calle general alvarez de castro 46
224,5300,Colegio público sagunto,"Comedor, transporte, horario ampliado, planes de mejora",Enseñanza: educación infantil (segundo ciclo) - primaria,0,Http://www.madrid.es/sites/v/index.jsp?vgnextchannel=bfa48ab43d6bb410vgnvcm100000171f5a0arcrd&vgnextoid=d9a813db5b71c010vgnvcm1000000b205a0arcrd,Madrid,Madrid,28021,San Cristobal,Villaverde,441938,4466057,917 976 726,917 976 726,Nan,Ayuntamiento,Lunes-viernes continua,9:00-15:30,Actividades extraescolares 15:30-15:30,-,Iii,3,Si,Si (c/ paterna),Principal del centro,No,No,"Porterías, canastas",Alumbrado,"1042,48",Regular (necesita repintado),Nan,Nan,Nan,"59 , 79", san cristóbal de los angeles,Nan,Calle paterna 14
225,5301,Colegio público san benito,"Comedor, horario ampliado, planes de mejora",Enseñanza: educación infantil - primaria - enseñanza biling&amp;uuml;e,0,Http://www.madrid.es/sites/v/index.jsp?vgnextchannel=bfa48ab43d6bb410vgnvcm100000171f5a0arcrd&vgnextoid=2fb813db5b71c010vgnvcm1000000b205a0arcrd,Madrid,Madrid,28027,Concepcion,Ciudad Lineal,445139,4477270,913 670 800 - 913 680 735,913 570 800,Nan,Comunidad,Lunes-viernes continua,9:00-16:00,-,-,Iii,1,-,Si,-,No,No,-,No,"1898,46",-,"Parque juan perez zuñiga (190m), parque pablo raez (450m)","Instalacion deportiva (400m), polideportivo la concepcion (800m)",Nan," 21 , 70",Nan,Nan,Calle juan perez zuñiga 36
226,5302,Colegio público san carlos,Planes de mejora,Enseñanza: educación infantil - primaria,0,Http://www.madrid.es/sites/v/index.jsp?vgnextchannel=bfa48ab43d6bb410vgnvcm100000171f5a0arcrd&vgnextoid=74d813db5b71c010vgnvcm1000000b205a0arcrd,Madrid,Madrid,28021,San Andres,Villaverde,439602,4466184,917 966 105,917 979 728,Nan,Ayuntamiento,Lunes-viernes continua,9:00-15:00,-,-,Iii,1,Si,Si (c/ villastar),C/ geología,No,Porche (200m²),Canastas,Alumbrado,"234,57",Regular (deterioro y falta de elementos de seguridad),Nan,Nan,Nan,"22, 79 , 130", villaverde alto,Nan,Calle villastar 8
227,5303,Colegio público san cristóbal,"Comedor, horario ampliado, planes de mejora",Enseñanza: educación infantil - primaria - enseñanza biling&amp;uuml;e,0,Http://www.madrid.es/sites/v/index.jsp?vgnextchannel=bfa48ab43d6bb410vgnvcm100000171f5a0arcrd&vgnextoid=c9e813db5b71c010vgnvcm1000000b205a0arcrd,Madrid,Madrid,28015,Arapiles,Chamberi,440254,4476549,914 481 381,914 480 206,Nan,Comunidad,Lunes-viernes,9:00-16:00,Actividades extraescolares 16:00-17:30,-,Iii,1,No,Si (pza mancomunidad de san cristobal),-,No,No,"Parque infantil, canastas, jardín vertical",No,"-1,20e-08",Mejorable (pendientes de iniciativa de reparación),"Plaza parroquia de san cristobal (50m), parque enrique herreros (350m), parque santander (700m)","Casa de cultura y participación chamberi (60m), biblioteca jose luis sampedro (650m), centro cultural galileo (750m)",No tiene patio propio. el alumnado sale a la zona de acceso libre de la plaza de la mancomunidad de san cristóbal," 3 , 12 , 37 , 149",Nan,Canal,Calle bravo murillo 41
228,5304,Colegio público san eugenio y san isidro,"Comedor, horario ampliado, planes de mejora",Enseñanza: educación infantil - primaria - enseñanza biling&amp;uuml;e,0,Http://www.madrid.es/sites/v/index.jsp?vgnextchannel=bfa48ab43d6bb410vgnvcm100000171f5a0arcrd&vgnextoid=1ff813db5b71c010vgnvcm1000000b205a0arcrd,Madrid,Madrid,28005,Acacias,Arganzuela,440331,4472630,914 737 711,914 737 785,Nan,Ayuntamiento,Lunes-viernes continua,9:00-16:00,-,-,Iii,1,Si,No,-,Si,Soportal (10*3m),"Porterías, canastas",No,"786,4",Bueno,"Parque redondo (150m), plaza de peñuelas (250m), parque de peñuelas (300m)","Espacio tabacalera (600m), cdm peñuelas (600m), biblioteca pio baroja (650m)",Nan,"34 , 36 , 116 , 118 , 119 , circular 127 , 148"," pirámides , embajadores","Embajadores , acacias",Calle peñuelas 31
229,5305,Colegio público san ignacio de loyola,"Comedor, horario ampliado, planes de mejora",Enseñanza: educación infantil - primaria - enseñanza biling&amp;uuml;e,0,Http://www.madrid.es/sites/v/index.jsp?vgnextchannel=bfa48ab43d6bb410vgnvcm100000171f5a0arcrd&vgnextoid=641913db5b71c010vgnvcm1000000b205a0arcrd,Madrid,Madrid,28025,Abrantes,Carabanchel,438851,4470931,915 651 989,914 698 461,Nan,Ayuntamiento,Lunes-viernes continua,9:00-16:00,Nan,-,Iii,1,Si,No,-,No,Porche pequeño,"Porterías, canastas, bancos",Fuente,"3822,66",Aceptable,Nan,Nan,Nan," 47 , 55 , 247",Nan,"Opañel , plaza elíptica",Avenida abrantes 1
230,6028,Colegio público san ildefonso,"Horario ampliado, comedor, planes de mejora",Enseñanza: educacion infantil - primaria - enseñanza biling&amp;uuml;e,0,Http://www.madrid.es/sites/v/index.jsp?vgnextchannel=bfa48ab43d6bb410vgnvcm100000171f5a0arcrd&vgnextoid=e605ae10c471c010vgnvcm1000000b205a0arcrd,Madrid,Madrid,28005,Palacio,Centro,439577,4473851,913 643 923,913 641 170,Nan,Ayuntamiento,Lunes-viernes continua,9:00-16:00,Actividades extraescolares 16:00-17:00,-,Iii,2,Si,Si,-,No,Patio cubierto,"Porterías, canastas",Alumbrado débil ,"533,2",Bueno,"Plaza de la paja (6m), jardín de las vistillas (250m)","Biblioteca iván de vargas (300m), polideportivo plaza cebada (400m)",Nan,"31 , 50 , 65 , 3 , 148",Nan, latina,Calle alfonso vi 1
231,5306,Colegio público san isidoro,"Comedor, horario ampliado, planes de mejora",Enseñanza: educación infantil (segundo ciclo) - primaria,0,Http://www.madrid.es/sites/v/index.jsp?vgnextchannel=bfa48ab43d6bb410vgnvcm100000171f5a0arcrd&vgnextoid=b92913db5b71c010vgnvcm1000000b205a0arcrd,Madrid,Madrid,28014,Pacifico,Retiro,442188,4473100,915 514 845,915 015 983,Nan,Ayuntamiento,Lunes-viernes partida,9:00-16:00,Actividades extraescolares 16:00-18:00,Nan,Iii,1,Si,Si (c/ fuenterrabía),Acceso principal del centro,No,"Porche, toldos","Canastas, bancos",Alumbrado,"329,679",Bueno (convendría repintar),Parque del retiro (400m),Cdm daoiz y velarde (700m),Nan,"10 , 14 , 26 , 32", atocha,"Atocha , menéndez pelayo",Calle fuenterrabia 15
232,5308,Colegio público san juan bautista,"Comedor, horario ampliado, planes de mejora, convenio con bristish council",Enseñanza: educación infantil - primaria,0,Http://www.madrid.es/sites/v/index.jsp?vgnextchannel=bfa48ab43d6bb410vgnvcm100000171f5a0arcrd&vgnextoid=0f3913db5b71c010vgnvcm1000000b205a0arcrd,Madrid,Madrid,28043,San Juan Bautista,Ciudad Lineal,444118,4478043,914 131 225,915 194 638,Nan,Ayuntamiento,Lunes-viernes continua,9:00-16:00,Actividades extraescolares 16:00-18:00,-,Iii,2,No (escaleras),No,-,Si (10m),Si (10m²),"Porterías, canastas",Fuente,"3136,212",Bueno,"Parque san juan bautista (290m), parque felix rodriguez de la fuente (750m)","Centro cultural san juan bautista (210m), cdm san juan bautista (400m)",Nan, 53,Nan,Nan,Calle sorzano 1
233,5309,Colegio público san juan bosco,"Comedor, horario ampliado, planes de mejora",Enseñanza: educación infantil - primaria - enseñanza biling&amp;uuml;e,0,Http://www.madrid.es/sites/v/index.jsp?vgnextchannel=bfa48ab43d6bb410vgnvcm100000171f5a0arcrd&vgnextoid=545913db5b71c010vgnvcm1000000b205a0arcrd,Madrid,Madrid,28017,Ventas,Ciudad Lineal,444640,4474545,914 053 610,914 043 233,Nan,Ayuntamiento,Lunes-viernes,9:00-16:00,Actividades extraescolares 16:00-17:00,"Liga de baloncesto, sábados 9:00-15:00",Iii,2,Si (patio primaria),Si (c/ sta irene),-,No,Pérgola (20x5m),"Porterías, canastas, postes voley, columpios",No,"1282,23",Mejorable (elementos muy deteriorados),Parque la elipa (0m),"Polideportivo san lamberto (250m), cdm la elipa (600m)",Nan," 110 , 113 , 210",Nan,Nan,Calle santa irene 2
234,5310,Colegio público san juan de la cruz,"Comedor, horario ampliado, planes de mejora",Enseñanza: educacion infantil - primaria - enseñanza biling&amp;uuml;e,1,Http://www.madrid.es/sites/v/index.jsp?vgnextchannel=bfa48ab43d6bb410vgnvcm100000171f5a0arcrd&vgnextoid=a96913db5b71c010vgnvcm1000000b205a0arcrd,Madrid,Madrid,28016,Nueva España,Chamartin,442495,4479193,913 453 044,913 509 861,Nan,Ayuntamiento,Lunes-viernes,9:00-16:00,"Actividades extraescolares 16:00-17:00 , ampliación de horario 17:00-17:45",-,Iii,2 (infantil y primaria),Si (un patio),Si (a patio infantil),-,Si,Porches (solo primaria),"Canastas, porterías, bancos (solo primaria)",Alumbrado,"894,98",Bueno,"Jardín gloria fuertes (500m), parque juan de la cosa (500m)",Centro cultural colonias históricas (950m),Nan," 11 , 14 , 16, 29, 40 , 51 ,150",Nan,Colombia,Calle honduras 10
235,5311,Colegio público san miguel,"Comedor, transporte, horario ampliado -planes de mejora",Enseñanza: educación infantil - primaria,0,Http://www.madrid.es/sites/v/index.jsp?vgnextchannel=bfa48ab43d6bb410vgnvcm100000171f5a0arcrd&vgnextoid=fe7913db5b71c010vgnvcm1000000b205a0arcrd,Madrid,Madrid,28033,Pinar Del Rey,Hortaleza,444713,4480618,917 639 281,917 639 281,Nan,Ayuntamiento,Lunes-viernes continua,9:00-16:00,Actividades extraescolares 16:00-19:00,-,Iii,2,Si,Si (c/ costa del sol),Principal del centro,No,No,"Porterías, canastas, gradas",Alumbrado,"1208,652",Bueno,Nan,Nan,Forman parte de un programa de patios abiertos," 9 , 107 , 72",Nan,Nan,Avenida virgen del carmen 32
236,5312,Colegio público san pablo,"Horario ampliado, comedor, planes de mejora",Enseñanza: educación infantil - primaria,0,Http://www.madrid.es/sites/v/index.jsp?vgnextchannel=bfa48ab43d6bb410vgnvcm100000171f5a0arcrd&vgnextoid=449913db5b71c010vgnvcm1000000b205a0arcrd,Madrid,Madrid,28038,Portazgo,Puente De Vallecas,444683,4471183,913 031 550,913 031 550,Nan,Ayuntamiento,Lunes-viernes continua,9:00-16:00,Actividades extraescolares 16:00-17:00,-,I,2  (uno al otro lado de la calle),Si,Si,Si,Sí,Porche,"Porterías, canastas, columpios","Alumbrado débil, fuente","1068,617",Muy bueno,"Parque azorín (300m), parque cerro del tío pío (900m)","Biblioteca portazgo (650m), cdm vallecas (700m)",Nan," 54 , 58 , 103 , 143",Nan,Buenos aires,Plaza pe&amp;ntilde;a morraz 1
237,5313,Colegio público san roque,"Comedor, horario ampliado, planes de mejora",Enseñanza: educación infantil - primaria,0,Http://www.madrid.es/sites/v/index.jsp?vgnextchannel=bfa48ab43d6bb410vgnvcm100000171f5a0arcrd&vgnextoid=99a913db5b71c010vgnvcm1000000b205a0arcrd,Madrid,Madrid,28021,San Andres,Villaverde,440281,4466495,917 962 774,917 100 003,Nan,Ayuntamiento,Lunes-viernes continua,9:00-16:00,-,-,Ii,1,Si,Si (c/ san genaro),Nan,Si,No,"Porterías, canastas","Alumbrado, fuentes","675,39",Bueno,Nan,Nan,Nan,"22 , 79, 86, 130 , 131", puente alcocer,Nan,Calle oxigeno 43
238,5314,Colegio público santa maría,"Comedor, horario ampliado, planes de mejora",Enseñanza: educación infantil - primaria,0,Http://www.madrid.es/sites/v/index.jsp?vgnextchannel=bfa48ab43d6bb410vgnvcm100000171f5a0arcrd&vgnextoid=eeb913db5b71c010vgnvcm1000000b205a0arcrd,Madrid,Madrid,28005,Embajadores,Centro,440017,4473076,915 275 281,914 673 704,Nan,Comunidad,Lunes-viernes partida,9:00-16:00,-,-,Iii,2,Si,Si (c/ ribera de curtidores),C/ casino,No,No,"Portería, canasta, columpios","Alumbrado, fuente","786,58",Bueno,"Parque casino de la reina (0m), jardín del rastro (210m)","Espacio tabacalera (350m), biblioteca pedro salinas (500m), ",Nan,", 34 , 36 , 41 , 60 , 116 , 118 , 119 , 148", embajadores,"Embajadores, acacias",Calle casino 7
239,5315,Colegio público santo domingo,"Comedor, horario ampliado, planes de mejora",Enseñanza: educación infantil - primaria - enseñanza biling&amp;uuml;e,0,Http://www.madrid.es/sites/v/index.jsp?vgnextchannel=bfa48ab43d6bb410vgnvcm100000171f5a0arcrd&vgnextoid=34d913db5b71c010vgnvcm1000000b205a0arcrd,Madrid,Madrid,28038,Portazgo,Puente De Vallecas,445184,4471469,917 785 293,913 037 833,Nan,Ayuntamiento,Lunes-viernes partida,9:00-16:00,Actividades extraescolares 16:00-23:00,"Escuelas deportivas, clubs y asociaciones deportivas lunes-sábado",Ii,1,Si,Si,-,Sí,"Porche, árboles","Porterías, canastas, columpios, bancos",Alumbrado,"2911,2",Bueno,Parque lineal de palomeras (700m),Cd nuevas palomeras (750m),Nan," 54 , 58 , 103 , 143",Nan,Alto del arenal,Calle san feliu de guixols 7
240,5316,Colegio público tirso de molina,"Comedor, horario ampliado, planes de mejora",Enseñanza: educación infantil - primaria,0,Http://www.madrid.es/sites/v/index.jsp?vgnextchannel=bfa48ab43d6bb410vgnvcm100000171f5a0arcrd&vgnextoid=89e913db5b71c010vgnvcm1000000b205a0arcrd,Madrid,Madrid,28045,Legazpi,Arganzuela,441597,4471521,915 278 932,914 683 695,Cp.tirsodemolina.madrid@educa.madrid.org,Ayuntamiento,Lunes-viernes continua,9:00-16:00,Actividades extraescolares 16:00-18:00,"Recreo, clases de ed. física, celebraciones  y extraescolares",I,2,Si,Si,-,Si (patio principal),Si (patio secundario),"Porterías, canastas","Alumbrado, fuente","3155,34",Bueno,"Parque de antracita (6m), parque tierno galván (400m)",Cdm arganzuela (450m),Nan," 62, 148, 156",Nan,Arganzuela-planetario,Calle bronce 1
241,5317,Colegio público tomás bretón,"Transporte, comedor, horario ampliado, integración preferente (motóricos)",Enseñanza: educación infantil - primaria,1,Http://www.madrid.es/sites/v/index.jsp?vgnextchannel=bfa48ab43d6bb410vgnvcm100000171f5a0arcrd&vgnextoid=def913db5b71c010vgnvcm1000000b205a0arcrd,Madrid,Madrid,28005,Imperial,Arganzuela,439254,4472520,913 642 214,913 667 387,Cp.tomasbreton.madrid@educa.madrid.org,Ayuntamiento,Lunes-viernes partida,9:00-16:00,Actividades extraescolares 16:00-18:00,"Clases colegio chino sabados y domingos, campeonatos deportivos",Iii,1,No,Si,-,Si,No,"Porterías, canastas",Alumbrado,"2868,92",Bueno (recién arreglado),"Madrid río (200m), jardín concha piquer (300m)",Instalación deportiva julián gonzález (800m), colegio de educacion especial.," 17 , 36 , 50",Nan,Pirámides,Calle alejandro dumas 4
242,42016,Colegio público valdebernardo,"Comedor, horario ampliado, planes de mejora",Enseñanza: educación infantil - primaria - enseñanza biling&amp;uuml;e,0,Http://www.madrid.es/sites/v/index.jsp?vgnextchannel=bfa48ab43d6bb410vgnvcm100000171f5a0arcrd&vgnextoid=6ad7598d1351c010vgnvcm1000000b205a0arcrd,Madrid,Madrid,28032,Casco H.Vicalvaro,Vicalvaro,447573,4472716,913 713 523,913 051 773,Cp.valdebernardo.madrid@educa.madrid.org,Ayuntamiento,Lunes-viernes partida,9:00-16:00,Actividades extraescolares 16:00-18:00,-,Iii,2,Si* (zonas de difícil acceso),Si (c/ tren de arganda),C/ indalecio prieto,Si (en gimnasio),No,"Porterías, canastas, bancos, mesas",Fuentes,"5048,43",Regular (necesita mantenimiento),"Parque calahorra (0m), parque valdebernardo (140m)","Cdm faustina valladolid (550m), biblioteca francisco de ayala (600m)",Nan," 8 , 30, 71, 100, 130",Nan,Valdebernardo,Calle tren de arganda 9
243,5318,Colegio público vasco núñez de balboa,"Comedor, transporte, horario ampliado, planes de mejora",Enseñanza: educación infantil - primaria,0,Http://www.madrid.es/sites/v/index.jsp?vgnextchannel=bfa48ab43d6bb410vgnvcm100000171f5a0arcrd&vgnextoid=241a13db5b71c010vgnvcm1000000b205a0arcrd,Madrid,Madrid,28034,Valverde,Fuencarral-El Pardo,441837,4483415,917 343 267 - 917 350 225,917 355 336,Nan,Ayuntamiento,Lunes-viernes continua,9:00-16:00,Actividades extraescolares 16:00-17:00,-,Ii,1,Si,Si (c/ ntra sra de valverde),-,No,No,"Porterías, canastas, bancos",Alumbrado,"759,10 + 604,88",Mejorable,Nan,Nan,Nan,"66 , 137", fuencarral,Nan,Calle nuestra señora de valverde 149
244,5319,Colegio público vázquez de mella,"Comedor, horario ampliado, planes de mejora",Enseñanza: educación infantil - primaria,0,Http://www.madrid.es/sites/v/index.jsp?vgnextchannel=bfa48ab43d6bb410vgnvcm100000171f5a0arcrd&vgnextoid=792a13db5b71c010vgnvcm1000000b205a0arcrd,Madrid,Madrid,28005,Palacio,Centro,439422,4473742,913 654 878,913 665 312,Nan,Ayuntamiento,Lunes-viernes partida,9:00-16:00,Actividades extraescolares 16:00-17:00,Centro de día cruz roja 16:00-21:00,I,1,Si,Si (c/ yeseros),C/ don pedro,Sí,Si,"Columpio, arenero",Alumbrado,"401,12",Mejorable (una parte inutilizada),"Jardín de las vistillas (75m), parque de la cornisa (270m)",Polideportivo plaza cebada (600m),Nan," 3 , 25 , 39 , 148, circular",Nan,"La latina, puerta de toledo",Calle bailen 18
245,5320,Colegio público vicálvaro,"Comedor, transporte, horario ampliado, planes de mejora",Enseñanza: educación infantil - primaria - enseñanza biling&amp;uuml;e,0,Http://www.madrid.es/sites/v/index.jsp?vgnextchannel=bfa48ab43d6bb410vgnvcm100000171f5a0arcrd&vgnextoid=ce3a13db5b71c010vgnvcm1000000b205a0arcrd,Madrid,Madrid,28032,Ambroz,Vicalvaro,449105,4473094,917 769 938 - 917 760 333,913 718 488,Nan,Ayuntamiento,Lunes-viernes continua,9:00-16:00,Actividades extraescolares 16:00-18:00,"Actividades de apoyo y refuerzo de la comunidad de madrid (de lunes a jueves de 16 a 18 horas) y la junta municipal (de lunes a jueves de 16 a 18 horas) y escuelas deportivas municipales (de lunes a jueves de 16 a 17 horas); actividades extraescolares del ampa, los viernes de 16 a 17 horas",Iii,1,Si,Si,-,No,Si (200m²),"Porterías, canastas, bancos, mesas ajedrez","Alumbrado, fuente","969,09",Mejorable (pistas muy deterioradas),Parque san cipriano (250m),"Cdm margot moles (600m), biblioteca vicálvaro (650m), centro cultural el madroño (650m)",Nan," 4 , 100 , 106",Nan,San cipriano,Calle forges 15
246,5325,Colegio público virgen del cerro,"Transporte, horario ampliado, comedor, planes de mejora, integración preferente (motóricos)",Enseñanza: educación infantil - primaria - enseñanza biling&amp;uuml;e integración preferente: motóricos,1,Http://www.madrid.es/sites/v/index.jsp?vgnextchannel=bfa48ab43d6bb410vgnvcm100000171f5a0arcrd&vgnextoid=145a13db5b71c010vgnvcm1000000b205a0arcrd,Madrid,Madrid,28038,Portazgo,Puente De Vallecas,444915,4471909,917 785 083,917 784 994,Cp.cerro.madrid@educa.madrid.org,Ayuntamiento,Lunes-viernes continua,9:00-16:00,Actividades extraescolares 16:00-20:00,Asociaciones deportivas y culturales 16:00-22:00 y fines de semana,Iii,2,Si (accesibilidad total),Si (c/ pío felipe y c/ jadraque),Accesos principales c/ mohernando,No,No,"Porterías, canastas, juegos, bancos, papeleras","Alumbrado, fuentes","2998,7",Bueno,Parque cerro del tío pío (400m),"Polideportivo (550m), centro cultural alberto sanchez (850m)",Centro de preferencia motórica. frecuente actividad fuera de horario. ," 63 , 143 , e",Nan,Nan,Calle mohernando 1
247,5326,Colegio público virgen del cortijo,"Comedor, transporte, horario ampliado, integración preferente (trastorno generalizado del desarrollo)",Enseñanza: educación infantil - primaria - enseñanza biling&amp;uuml;e,0,Http://www.madrid.es/sites/v/index.jsp?vgnextchannel=bfa48ab43d6bb410vgnvcm100000171f5a0arcrd&vgnextoid=696a13db5b71c010vgnvcm1000000b205a0arcrd,Madrid,Madrid,28050,Valdefuentes,Hortaleza,444064,4482049,917 661 215,913 844 438,Nan,Ayuntamiento,Lunes-viernes,9:00-16:00,Actividades extraescolares 16:00-18:30,-,Iii,4,Si (3 de los patios),Si (av. manoteras y c/ oña),-,Si,"Pérgola (patio 1, 70m²), porche (patio 2, 250m²)","Columpios, canastas","Alumbrado, fuente (patio 2)","3233,249",Regular (deficiencias en rampas y gradas),Nan,Nan,Nan," 150 , 174",Nan,Nan,Avenida manoteras 63
248,4690940,Colegio público winston churchill,"Horario ampliado, comedor",Enseñanza: educación infantil - primaria,0,Http://www.madrid.es/sites/v/index.jsp?vgnextchannel=bfa48ab43d6bb410vgnvcm100000171f5a0arcrd&vgnextoid=d3875f9fa7166110vgnvcm1000000b205a0arcrd,Madrid,Madrid,28032,Casco H.Vicalvaro,Vicalvaro,449484,4472655,913 716 066 - 676 695 332,917 604 921,Nan,Ayuntamiento,Lunes-viernes continua,9:00-16:00,Actividades extraescolares 16:00-17:00,-,Iii,1,Si,Si (av. gran vía del este),-,No,"Porche, algo de arbolado","Porterías, canastas, bancos",No,"2896,52",Bueno,Parque forestal vicálvaro (300m),-,Nan,"4, 100",Nan, puerta de arganda,Avenida gran via del este 5
